Region,State,Site Name,Site ID,,EPA ID,Address,City,Zip,County,FF Ind,NAI,Native American Entity,,Latitude,Longitude,NPL Status
,,,,,,,,,,,,(NAI Status),,,,Date
1,CT,BARKHAMSTED-NEW HARTFORD LANDFILL,100255,,CTD980732333,ROUTE 44,BARKHAMSTED,6063,LITCHFIELD,N,N,,,41.893947,-72.989337,10/04/89
1,CT,BEACON HEIGHTS LANDFILL,100180,,CTD072122062,BLACKBERRY HILL ROAD,BEACON FALLS,6403,NEW HAVEN,N,N,,,41.43195,-73.035281,09/08/83
1,CT,DURHAM MEADOWS,100108,,CTD001452093,MAIN ST,DURHAM,6422,MIDDLESEX,N,N,,,41.48111,-72.681388,10/04/89
1,CT,GALLUP'S QUARRY,100201,,CTD108960972,ROUTE 12,PLAINFIELD,6374,WINDHAM,N,N,,,41.665281,-71.924161,10/04/89
1,CT,KELLOGG-DEERING WELL FIELD,100252,,CTD980670814,NORWALK WATER DEPARTMENT,NORWALK,6856,FAIRFIELD,N,N,,,41.13055,-73.43195,09/21/84
1,CT,"LAUREL PARK, INC.",100232,,CTD980521165,HUNTERS MTN RD,NAUGATUCK BOROUGH,6770,NEW HAVEN,N,N,,,41.476939,-73.071661,09/08/83
1,CT,LINEMASTER SWITCH CORP.,100041,,CTD001153923,29 PLAINE HILL ROAD,WOODSTOCK,6281,WINDHAM,N,N,,,41.940561,-71.966939,02/21/90
1,CT,NEW LONDON SUBMARINE BASE,100261,,CTD980906515,ROUTE 12 CRYSTAL LAKE RD,NEW LONDON,6349,NEW LONDON,Y,N,,,41.400139,-72.087081,08/30/90
1,CT,PRECISION PLATING CORP.,100156,,CTD051316313,1050 HARTFORD TURNPIKE ROAD,VERNON,6066,TOLLAND,N,N,,,41.84975,-72.447911,10/04/89
1,CT,"RAYMARK INDUSTRIES, INC.",100094,,CTD001186618,75 EAST MAIN STREET,STRATFORD,6614,FAIRFIELD,N,N,,,41.201278,-73.117222,04/25/95
1,CT,SCOVILL INDUSTRIAL LANDFILL,102953,,CT0002265551,STORE AVENUE,WATERBURY,6705,NEW HAVEN,N,N,,,41.550389,-73.010639,07/27/00
1,CT,SOLVENTS RECOVERY SERVICE OF NEW ENGLAND,100124,,CTD009717604,LAZY LANE,SOUTHINGTON,6489,HARTFORD,N,N,,,41.6196,-72.878,09/08/83
1,CT,YAWORSKI WASTE LAGOON,100125,,CTD009774969,PACKER ROAD,CANTERBURY,6331,WINDHAM,N,N,,,41.66945,-71.964161,09/08/83
1,MA,ATLAS TACK CORP.,100376,,MAD001026319,PLEASANT ST,FAIRHAVEN,2719,BRISTOL,N,N,,,41.635561,-70.89445,02/21/90
1,MA,BAIRD & MCGUIRE,100392,,MAD001041987,775 SOUTH ST,HOLBROOK,2343,NORFOLK,N,N,,,42.149719,-71.028611,09/08/83
1,MA,BJAT LLC,106144,,MAN000106144,300 FISHER STREET,FRANKLIN,2038,NORFOLK,N,N,,,42.074417,-71.410806,09/30/15
1,MA,BLACKBURN & UNION PRIVILEGES,101713,,MAD982191363,SOUTH ST.,WALPOLE,2081,NORFOLK,N,N,,,42.138749,-71.251667,05/31/94
1,MA,CHARLES GEORGE RECLAMATION TRUST LANDFILL,100464,,MAD003809266,CORNER DUNSTABLE & CUMMINGS RD,TYNGSBOROUGH,1879,MIDDLESEX,N,N,,,42.66945,-71.443339,09/08/83
1,MA,CREESE & COOK TANNERY (FORMER),100380,,MAD001031574,55 CLINTON AVENUE,DANVERS,1923,ESSEX,N,Y,Mashpee Wampanoag Tribe (Current); Wampanoag Tribe of Gay Head (Aquinnah) (Current),,42.553111,-70.926722,05/24/13
1,MA,FORT DEVENS,100966,,MA7210025154,BUENA VISTA ST,FORT DEVENS,1433,MIDDLESEX,Y,N,,,42.536111,-71.596111,11/21/89
1,MA,GROVELAND WELLS,100750,,MAD980732317,JOHNSON CREEK WATERSHED,GROVELAND,1834,ESSEX,N,N,,,42.753331,-71.038889,09/08/83
1,MA,HANSCOM FIELD/HANSCOM AIR FORCE BASE,100967,,MA8570024424,HARTWELL AVENUE,BEDFORD,1730,MIDDLESEX,Y,N,,,42.470666,-71.289444,05/31/94
1,MA,HAVERHILL MUNICIPAL LANDFILL,100717,,MAD980523336,OLD GROVELAND RD,HAVERHILL,1830,ESSEX,N,N,,,42.753889,-71.046669,06/10/86
1,MA,HOCOMONCO POND,100751,,MAD980732341,FISHER ST,WESTBOROUGH,1581,WORCESTER,N,N,,,42.272781,-71.650831,09/08/83
1,MA,INDUSTRI-PLEX,100580,,MAD076580950,COMMERCE & ATLANTIC,WOBURN,1801,MIDDLESEX,N,N,,,42.516669,-71.141669,09/08/83
1,MA,IRON HORSE PARK,100524,,MAD051787323,HIGH ST,BILLERICA,1862,MIDDLESEX,N,N,,,42.583331,-71.265269,09/21/84
1,MA,LOWER NEPONSET RIVER,102204,,MAN000102204,From the confluence of Mother Brook to the Walter Baker Chocolate Dam,BOSTON/MILTON,2136,SUFFOLK,N,N,,,42.25229,-71.1232,03/16/22
1,MA,MICROFAB INC (FORMER),100442,,MAD001409408,106 HAVERHILL RD (RTE 110),AMESBURY,1913,ESSEX,N,N,,,42.842394,-70.959842,08/02/17
1,MA,"NATICK LABORATORY ARMY RESEARCH, DEVELOPMENT, AND ENGINEERING CENTER",101831,,MA1210020631,100 KANSAS STREET,NATICK,1760,MIDDLESEX,Y,N,,,42.288889,-71.363611,05/31/94
1,MA,NAVAL WEAPONS INDUSTRIAL RESERVE PLANT,102032,,MA6170023570,165 HARTWELL ROAD,BEDFORD,1730,MIDDLESEX,Y,N,,,42.478889,-71.290277,05/31/94
1,MA,NEW BEDFORD,100743,,MAD980731335,ACUSHNET ESTUARY,NEW BEDFORD,2740,BRISTOL,N,Y,Mashpee Wampanoag Tribe (Current); Wampanoag Tribe of Gay Head (Aquinnah) (Current),,41.643171,-70.919887,09/08/83
1,MA,"NUCLEAR METALS, INC.",100550,,MAD062166335,2229 MAIN STREET,CONCORD,1742,MIDDLESEX,N,N,,,42.441667,-71.421944,06/14/01
1,MA,NYANZA CHEMICAL WASTE DUMP,100948,,MAD990685422,MEGUNKO RD,ASHLAND,1721,MIDDLESEX,N,N,,,42.258611,-71.473611,09/08/83
1,MA,OLIN CHEMICAL,100438,,MAD001403104,51 EAMES ST,WILMINGTON,1887,MIDDLESEX,N,N,,,42.528056,-71.153889,04/19/06
1,MA,OTIS AIR NATIONAL GUARD BASE/CAMP EDWARDS,100960,,MA2570024487,OTIS AFB HERBERT RD,FALMOUTH,2542,BARNSTABLE,Y,Y,Mashpee Wampanoag Tribe (Current); Wampanoag Tribe of Gay Head (Aquinnah) (Current),,41.651666,-70.521388,11/21/89
1,MA,PSC RESOURCES,100747,,MAD980731483,10 WATER ST,PALMER,1069,HAMPDEN,N,N,,,42.153331,-72.330281,09/08/83
1,MA,"RE-SOLVE, INC.",100682,,MAD980520621,N HIXVILLE RD,DARTMOUTH,2747,BRISTOL,N,N,,,41.688061,-71.033889,09/08/83
1,MA,ROSE DISPOSAL PIT,100721,,MAD980524169,BALANCE ROCK RD,LANESBORO,1237,BERKSHIRE,N,N,,,42.5055,-73.2748,06/10/86
1,MA,SILRESIM CHEMICAL CORP.,100326,,MAD000192393,86 TANNER ST,LOWELL,1853,MIDDLESEX,N,N,,,42.628889,-71.313889,09/08/83
1,MA,SOUTH WEYMOUTH NAVAL AIR STATION,101826,,MA2170022022,1134 MAIN STREET,WEYMOUTH,2190,NORFOLK,Y,N,,,42.155277,-70.93347,05/31/94
1,MA,SULLIVAN'S LEDGE,100744,,MAD980731343,HATHAWAY RD,NEW BEDFORD,2740,BRISTOL,N,N,,,41.654719,-70.957219,09/21/84
1,MA,SUTTON BROOK DISPOSAL AREA,100686,,MAD980520696,OFF OF SOUTH STREET,TEWKSBURY,1876,MIDDLESEX,N,N,,,42.598222,-71.183194,06/14/01
1,MA,"W.R. GRACE & CO., INC. (ACTON PLANT)",100350,,MAD001002252,50 INDEPENDENCE RD,ACTON,1720,MIDDLESEX,N,N,,,42.45055,-71.427781,09/08/83
1,MA,WALTON & LONSBURY INC.,100432,,MAD001197755,78 NORTH AVENUE,ATTLEBORO,2703,BRISTOL,N,Y,Mashpee Wampanoag Tribe (Potential); Wampanoag Tribe of Gay Head (Aquinnah) (Potential),,41.957778,-71.296944,05/24/13
1,MA,WELLS G&H,100749,,MAD980732168,ABERJONA RIVER VALLEY,WOBURN,1801,MIDDLESEX,N,N,,,42.494719,-71.130839,09/08/83
1,ME,BRUNSWICK NAVAL AIR STATION,101073,,ME8170022018,RTE 24 AND 123,BRUNSWICK,4011,CUMBERLAND,Y,N,,,43.90634,-69.933986,07/22/87
1,ME,CALLAHAN MINING CORP,101028,,MED980524128,HARBORSIDE,BROOKSVILLE (CAPE ROSIER),4617,HANCOCK,N,N,,,44.351639,-68.810139,09/05/02
1,ME,EASTERN SURPLUS,101054,,MED981073711,ROUTE 191,MEDDYBEMPS,4657,WASHINGTON,N,Y,Passamaquoddy Tribe (Current),,45.038889,-67.358333,06/17/96
1,ME,EASTLAND WOOLEN MILL,101043,,MED980915474,MAIN STREET,CORINNA,4928,PENOBSCOT,N,Y,Penobscot Nation (Current),,44.921667,-69.261111,07/22/99
1,ME,KEDDY MILL,106078,,MEN000106078,7 DEPOT STREET,WINDHAM,4062,CUMBERLAND,N,N,,,43.734953,-70.424514,05/12/14
1,ME,LEEDS METAL,103584,,MEN000103584,OFF OF BLUE ROCK ROAD,LEEDS,4263,ANDROSCOGGIN,N,N,,,44.237083,-70.08025,09/18/12
1,ME,LORING AIR FORCE BASE,101074,,ME9570024522,42 CSG/CC,LIMESTONE,4751,AROOSTOOK,Y,Y,Mi'kmaq Nation (Current),,46.944444,-67.883888,02/21/90
1,ME,SACO MUNICIPAL LANDFILL,101010,,MED980504393,FOSS RD,SACO,4072,YORK,N,N,,,43.5302,-70.4815,02/21/90
1,ME,WEST SITE/HOWS CORNERS,101800,,MED985466168,CAMBELL/SAWYER ROAD,PLYMOUTH,4969,PENOBSCOT,N,N,,,44.740278,-69.182222,09/29/95
1,ME,WINTHROP LANDFILL,101012,,MED980504435,ANNABESSACOOK RD,WINTHROP,4364,KENNEBEC,N,N,,,44.275831,-69.988331,09/08/83
1,NH,AUBURN ROAD LANDFILL,101137,,NHD980524086,AUBURN RD,LONDONDERRY,3053,ROCKINGHAM,N,N,,,42.9302,-71.3529,09/08/83
1,NH,BEEDE WASTE OIL,102723,,NHD018958140,7 THROUGH 11 KELLEY ROAD,PLAISTOW,3865,ROCKINGHAM,N,N,,,42.855075,-71.105889,12/23/96
1,NH,CHLOR-ALKALI FACILITY (FORMER),103313,,NHN000103313,ADJACENT TO SAW MILL DAM,BERLIN,3570,COOS,N,N,,,44.479194,-71.167194,09/14/05
1,NH,COAKLEY LANDFILL,101107,,NHD064424153,480 BREAKFAST HILL RD,NORTH HAMPTON,3840,ROCKINGHAM,N,N,,,43.001111,-70.817219,06/10/86
1,NH,COLLINS & AIKMAN PLANT (FORMER),105928,,NHN000105928,Off Route 11 between Paulson Road to the NW and Meetinghouse Hill Road to the SE,FARMINGTON,3835,STRAFFORD,N,N,,,43.372,-71.05875,12/12/13
1,NH,DOVER MUNICIPAL LANDFILL,101125,,NHD980520191,TOLEND RD,DOVER,3820,STRAFFORD,N,N,,,43.2125,-70.953,09/08/83
1,NH,FLETCHER'S PAINT WORKS & STORAGE,101085,,NHD001079649,21 ELM ST.,MILFORD,3055,HILLSBOROUGH,N,N,,,42.8358,-71.6554,03/31/89
1,NH,KEARSARGE METALLURGICAL CORP.,101105,,NHD062002001,MILL ST-RTE 113,CONWAY,3818,CARROLL,N,N,,,43.9721,-71.1293,09/21/84
1,NH,KEEFE ENVIRONMENTAL SERVICES (KES),101114,,NHD092059112,EXETER RD,EPPING,3042,ROCKINGHAM,N,N,,,43.024169,-71.033331,09/08/83
1,NH,MOTTOLO PIG FARM,101123,,NHD980503361,BLUEBERRY HILL RD,RAYMOND,3077,ROCKINGHAM,N,N,,,42.989581,-71.173189,07/22/87
1,NH,NEW HAMPSHIRE PLATING CO.,101092,,NHD001091453,WRIGHT AVE.,MERRIMACK,3054,HILLSBOROUGH,N,N,,,42.855833,-71.488888,10/14/92
1,NH,OTTATI & GOSS/KINGSTON STEEL DRUM,101210,,NHD990717647,HAVERHILL RD RTE 125,KINGSTON,3848,ROCKINGHAM,N,N,,,42.897219,-71.080561,09/08/83
1,NH,PEASE AIR FORCE BASE,101213,,NH7570024847,509 CSG/CC,PORTSMOUTH/NEWINGTON,3803,ROCKINGHAM,Y,N,,,43.080169,-70.82125,02/21/90
1,NH,SAVAGE MUNICIPAL WATER SUPPLY,101145,,NHD980671002,NEAR RT 101,MILFORD,3055,HILLSBOROUGH,N,N,,,42.8418,-71.6884,09/21/84
1,NH,SOMERSWORTH SANITARY LANDFILL,101128,,NHD980520225,BLACKWATER RD,SOMERSWORTH,3878,STRAFFORD,N,N,,,43.2489,-70.8845,09/08/83
1,NH,SOUTH MUNICIPAL WATER SUPPLY WELL,101146,,NHD980671069,RT. 202,PETERBOROUGH,3458,HILLSBOROUGH,N,N,,,42.8489,-71.9468,09/21/84
1,NH,SYLVESTER,101115,,NHD099363541,GILSON RD,NASHUA,3062,HILLSBOROUGH,N,N,,,42.7197,-71.523111,09/08/83
1,NH,TIBBETTS ROAD,101208,,NHD989090469,TIBBETTS RD.,BARRINGTON,3825,STRAFFORD,N,N,,,43.18,-71.0347,06/10/86
1,NH,TINKHAM GARAGE,101106,,NHD062004569,RTE 102,LONDONDERRY,3053,ROCKINGHAM,N,N,,,42.860831,-71.351111,09/08/83
1,NH,TROY MILLS LANDFILL,101127,,NHD980520217,OFF ROCKWOOD POND ROAD,TROY,3465,CHESHIRE,N,N,,,42.802583,-72.186944,09/29/03
1,RI,CENTRAL LANDFILL,101277,,RID980520183,65 SHUN PIKE,JOHNSTON,2919,PROVIDENCE,N,N,,,41.808331,-71.534719,06/10/86
1,RI,CENTREDALE MANOR RESTORATION PROJECT,101388,,RID981203755,2072 AND 2074 SMITH STREET (ROUTE 44),NORTH PROVIDENCE,2911,PROVIDENCE,N,Y,Narragansett Indian Tribe (Current),,41.857667,-71.48725,02/04/00
1,RI,DAVIS LIQUID WASTE,101283,,RID980523070,TARKILN RD,SMITHFIELD,2828,PROVIDENCE,N,N,,,41.922219,-71.577769,09/08/83
1,RI,DAVISVILLE NAVAL CONSTRUCTION BATTALION CENTER,101430,,RI6170022036,OFF SANFORD RD.,NORTH KINGSTOWN,2818,WASHINGTON,Y,N,,,41.6095,-71.47422,11/21/89
1,RI,"LANDFILL & RESOURCE RECOVERY, INC. (L&RR)",101265,,RID093212439,OXFORD RD,NORTH SMITHFIELD,2876,PROVIDENCE,N,N,,,41.9795,-71.589,09/08/83
1,RI,NEWPORT NAVAL EDUCATION & TRAINING CENTER,101431,,RI6170085470,DEFENSE HIGHWAY (BURMA RD.),NEWPORT,2871,NEWPORT,Y,Y,Narragansett Indian Tribe (Current),,41.56445,-71.293469,11/21/89
1,RI,"PETERSON/PURITAN, INC.",101247,,RID055176283,MARTIN ST,LINCOLN/CUMBERLAND,2864,PROVIDENCE,N,N,,,41.929581,-71.4268,09/08/83
1,RI,PICILLO FARM,101284,,RID980579056,PERRY HILL RD,COVENTRY,2816,KENT,N,N,,,41.671669,-71.709169,09/08/83
1,RI,ROSE HILL REGIONAL LANDFILL,101279,,RID980521025,ROSE HILL RD,SOUTH KINGSTOWN,2880,WASHINGTON,N,N,,,41.470831,-71.491669,10/04/89
1,RI,STAMINA MILLS,101291,,RID980731442,School Street,NORTH SMITHFIELD (FORESTDALE),2824,PROVIDENCE,N,N,,,41.9964,-71.5647,09/08/83
1,RI,WEST KINGSTON TOWN DUMP/URI DISPOSAL AREA,101322,,RID981063993,PLAINS ROAD,SOUTH KINGSTOWN,2881,WASHINGTON,N,N,,,41.496667,-71.535278,10/14/92
1,RI,WESTERN SAND & GRAVEL,101233,,RID009764929,DOUGLAS PIKE,BURRILLVILLE,2895,PROVIDENCE,N,N,,,41.9727,-71.595,09/08/83
1,VT,BENNINGTON MUNICIPAL SANITARY LANDFILL,101493,,VTD981064223,OFF HOUGHTON LANE,BENNINGTON,5201,BENNINGTON,N,N,,,42.922219,-73.197781,03/31/89
1,VT,BFI SANITARY LANDFILL (ROCKINGHAM),101475,,VTD980520092,RTE 5,ROCKINGHAM,5101,WINDHAM,N,N,,,43.226389,-72.439719,10/04/89
1,VT,BURGESS BROTHERS LANDFILL,101450,,VTD003965415,RTE 9,WOODFORD,5201,BENNINGTON,N,N,,,42.878061,-73.150139,03/31/89
1,VT,COMMERCE STREET PLUME,101470,,VTD098352545,96 COMMERCE STREET (FORMLY 15 COMMERCE STREET),WILLISTON,5495,CHITTENDEN,N,N,,,44.452583,-73.121389,04/27/05
1,VT,ELIZABETH MINE,102071,,VTD988366621,MINE ROAD,STRAFFORD,5070,ORANGE,N,Y,Abenaki of Mazipskwik & Related Bands (Current),,43.823889,-72.328889,06/14/01
1,VT,ELY COPPER MINE,102065,,VTD988366571,TOWN HIGHWAY 38,VERSHIRE,5079,ORANGE,N,N,,,43.927447,-72.285506,09/13/01
1,VT,"JARD COMPANY, INC.",102282,,VTD048141741,259 BOWEN ROAD,BENNINGTON,5201,BENNINGTON,N,N,,,42.888861,-73.189111,09/22/14
1,VT,OLD SPRINGFIELD LANDFILL,101437,,VTD000860239,WILL DEAN RD,SPRINGFIELD,5156,WINDSOR,N,N,,,43.272781,-72.466669,09/08/83
1,VT,PARKER SANITARY LANDFILL,101491,,VTD981062441,LILY POND RD.,LYNDON,5849,CALEDONIA,N,N,,,44.518611,-71.989439,02/21/90
1,VT,PIKE HILL COPPER MINE,102121,,VTD988366720,PIKE HILL ROAD,CORINTH,5039,ORANGE,N,N,,,44.057333,-72.306917,07/22/04
1,VT,PINE STREET CANAL,101479,,VTD980523062,PINE STREET,BURLINGTON,5401,CHITTENDEN,N,N,,,44.466669,-73.218061,09/08/83
1,VT,POWNAL TANNERY,101463,,VTD069910354,ROUTE 346,POWNAL,5261,BENNINGTON,N,N,,,42.797167,-73.26575,01/19/99
2,NJ,A. O. POLYMER,200290,,NJD030253355,44 STATION ROAD,SPARTA TOWNSHIP,7871,SUSSEX,N,N,,,41.04805,-74.63,09/08/83
2,NJ,AMERICAN CYANAMID CO,200144,,NJD002173276,EASTON TURNPIKE,BRIDGEWATER,8805,SOMERSET,N,N,,,40.555561,-74.55945,09/08/83
2,NJ,ATLANTIC RESOURCES,201116,,NJD981558430,120 HORSESHOE ROAD,SAYREVILLE,8872,MIDDLESEX,N,N,,,40.486111,-74.319444,09/05/02
2,NJ,BOG CREEK FARM,200397,,NJD063157150,SQUANRUM RD. (MONMOUTH CO. RT. 547),HOWELL TOWNSHIP,7727,MONMOUTH,N,N,,,40.150831,-74.161111,09/08/83
2,NJ,BRICK TOWNSHIP LANDFILL,200540,,NJD980505176,SALLY IKE ROAD,BRICK TOWNSHIP,8723,OCEAN,N,N,,,40.1098,-74.1311,09/08/83
2,NJ,BRIDGEPORT RENTAL & OIL SERVICES,200364,,NJD053292652,CEDAR SWAMP RD,BRIDGEPORT,8014,GLOUCESTER,N,N,,,39.801669,-75.321661,09/08/83
2,NJ,BROOK INDUSTRIAL PARK,200450,,NJD078251675,100 WEST MAIN STREET,BOUND BROOK,8805,SOMERSET,N,N,,,40.560139,-74.536111,10/04/89
2,NJ,BURNT FLY BOG,200528,,NJD980504997,TYLERS LANE,MARLBORO TOWNSHIP,7746,MONMOUTH,N,N,,,40.375,-74.279169,09/08/83
2,NJ,CALDWELL TRUCKING CO.,200340,,NJD048798953,222 PASSAIC AVENUE,FAIRFIELD,7004,ESSEX,N,N,,,40.876389,-74.271389,09/08/83
2,NJ,CHEMICAL CONTROL,200037,,NJD000607481,23 SOUTH FRONT ST,ELIZABETH,7202,UNION,N,N,,,40.6432,-74.1935,09/08/83
2,NJ,CHEMICAL INSECTICIDE CORP.,200517,,NJD980484653,30 WHITMAN AV,EDISON TOWNSHIP,8817,MIDDLESEX,N,N,,,40.5274,-74.368,08/30/90
2,NJ,"CHEMICAL LEAMAN TANK LINES, INC.",200327,,NJD047321443,CEDAR SWAMP & COOPER RDS,BRIDGEPORT,8014,GLOUCESTER,N,N,,,39.798331,-75.332781,09/21/84
2,NJ,"CHEMSOL, INC.",200607,,NJD980528889,FLEMING ST,PISCATAWAY,8854,MIDDLESEX,N,N,,,40.5625,-74.443339,09/08/83
2,NJ,CIBA-GEIGY CORP.,200078,,NJD001502517,RTE #37,TOMS RIVER,8753,OCEAN,N,N,,,39.9867,-74.2363,09/08/83
2,NJ,CINNAMINSON TOWNSHIP (BLOCK 702) GROUND WATER CONTAMINATION,200995,,NJD980785638,1017 UNION LANDING ROAD,CINNAMINSON TOWNSHIP,8077,BURLINGTON,N,N,,,40.0175,-74.9862,06/10/86
2,NJ,COMBE FILL SOUTH LANDFILL,200489,,NJD094966611,PARKER ROAD- BOX 418,CHESTER TOWNSHIP,7930,MORRIS,N,N,,,40.771669,-74.738331,09/08/83
2,NJ,CORNELL DUBILIER ELECTRONICS INC.,201112,,NJD981557879,333 HAMILTON BLVD,SOUTH PLAINFIELD,7080,MIDDLESEX,N,N,,,40.576389,-74.414167,07/28/98
2,NJ,COSDEN CHEMICAL COATINGS CORP.,200022,,NJD000565531,CHERRY STREET,BEVERLY,8010,BURLINGTON,N,N,,,40.058183,-74.925899,07/22/87
2,NJ,CPS/MADISON INDUSTRIES,200109,,NJD002141190,WATERWORKS ROAD,OLD BRIDGE TOWNSHIP,8857,MIDDLESEX,N,N,,,40.434439,-74.327769,09/08/83
2,NJ,"CURCIO SCRAP METAL, INC.",200273,,NJD011717584,416 LANZA AVE,SADDLE BROOK TWP,7662,BERGEN,N,N,,,40.8907,-74.1035,07/22/87
2,NJ,"CURTIS SPECIALTY PAPERS, INC",203733,,NJD057143984,404 FRENCHTOWN ROAD,MILFORD,8848,HUNTERDON,N,N,,,40.561758,-75.089842,09/23/09
2,NJ,D'IMPERIO PROPERTY,200639,,NJD980529416,RTE 322,HAMILTON TOWNSHIP,8330,ATLANTIC,N,N,,,39.454439,-74.658889,09/08/83
2,NJ,DAYCO CORP./L.E CARPENTER CO.,200136,,NJD002168748,170 N MAIN STREET,WHARTON BOROUGH,7885,MORRIS,N,N,,,40.903331,-74.5775,07/22/87
2,NJ,DE REWAL CHEMICAL CO.,200792,,NJD980761373,DELAWARE RIVER DR,KINGWOOD TOWNSHIP,8825,HUNTERDON,N,N,,,40.5162,-75.0614,09/21/84
2,NJ,DIAMOND ALKALI CO.,200613,,NJD980528996,80 LISTER AVE,NEWARK,7105,ESSEX,N,N,,,40.739719,-74.136111,09/21/84
2,NJ,DIAMOND HEAD OIL REFINERY DIV.,200484,,NJD092226000,272 HARRISON AVENUE,KEARNY,7032,HUDSON,N,N,,,40.749783,-74.133092,09/05/02
2,NJ,DOVER MUNICIPAL WELL 4,200768,,NJD980654131,272 ROUTE46,DOVER,7801,MORRIS,N,N,,,40.8858,-74.5423,09/08/83
2,NJ,ELLIS PROPERTY,200620,,NJD980529085,SHARP ROAD,EVESHAM TOWNSHIP,8053,BURLINGTON,N,N,,,39.905,-74.864719,09/08/83
2,NJ,EMMELL'S SEPTIC LANDFILL,200986,,NJD980772727,128 ZURICH AVE,GALLOWAY TOWNSHIP,8215,ATLANTIC,N,N,,,39.500694,-74.543611,07/22/99
2,NJ,EVOR PHILLIPS LEASING,200776,,NJD980654222,OLD WATER WORKS ROAD,OLD BRIDGE TOWNSHIP,8857,MIDDLESEX,N,N,,,40.4375,-74.325,09/08/83
2,NJ,EWAN PROPERTY,200791,,NJD980761365,WALLINGFORD WAY,SHAMONG TOWNSHIP,8088,BURLINGTON,N,N,,,39.802781,-74.719439,09/21/84
2,NJ,FAIR LAWN WELL FIELD,200765,,NJD980654107,IND PARK/HENDERSON BLVD 11 ST,FAIR LAWN,7410,BERGEN,N,N,,,40.9375,-74.131939,09/08/83
2,NJ,FEDERAL AVIATION ADMINISTRATION TECHNICAL CENTER (USDOT),201178,,NJ9690510020,ROUTES 563 & 575,ATLANTIC COUNTY,8405,ATLANTIC,Y,N,,,39.458331,-74.583339,08/30/90
2,NJ,FORMER KIL-TONE COMPANY,200874,,NJN000200874,527 East Chestnut Avenue,VINELAND,8360,CUMBERLAND,N,N,,,39.47841,-75.025489,04/07/16
2,NJ,FRANKLIN BURN,204087,,NJD986570992,SIX LOCATIONS NEAR MARSHALL MILL ROAD,FRANKLIN TOWNSHIP,8322,GLOUCESTER,N,N,,,39.594444,-75.025,06/17/96
2,NJ,FRIED INDUSTRIES,200303,,NJD041828906,11 FRESH POND ROAD,EAST BRUNSWICK TOWNSHIP,8816,MIDDLESEX,N,N,,,40.4424,-74.4412,06/10/86
2,NJ,GARDEN STATE CLEANERS CO.,200362,,NJD053280160,"SUMMER ROAD, P.O. BOX 183",MINOTOLA,8341,ATLANTIC,N,N,,,39.519031,-74.94945,03/31/89
2,NJ,GARFIELD GROUND WATER CONTAMINATION,206317,,NJN000206317,125 CLARK ST,GARFIELD,7026,BERGEN,N,N,,,40.871858,-74.106431,09/16/11
2,NJ,GEMS LANDFILL,200627,,NJD980529192,ERIAL & HICKSTOWN ROADS,GLOUCESTER TOWNSHIP,8012,CAMDEN,N,N,,,39.77945,-75.018889,09/08/83
2,NJ,GLOBAL SANITARY LANDFILL,200398,,NJD063160667,ERNSTON ROAD,OLD BRIDGE TOWNSHIP,8857,MIDDLESEX,N,N,,,40.446389,-74.286111,03/31/89
2,NJ,GOOSE FARM,200681,,NJD980530109,RT. 539 BETWEEN RTS 537 & 528,PLUMSTEAD TOWNSHIP,8533,OCEAN,N,N,,,40.09555,-74.4975,09/08/83
2,NJ,HELEN KRAMER LANDFILL,200552,,NJD980505366,392 Boody Mill Road,MANTUA TOWNSHIP,8579,GLOUCESTER,N,N,,,39.7801,-75.2003,09/08/83
2,NJ,"HERCULES, INC. (GIBBSTOWN PLANT)",200188,,NJD002349058,50 NORTH MARKET ST,GIBBSTOWN,8027,GLOUCESTER,N,N,,,39.838889,-75.277781,09/08/83
2,NJ,HIGGINS DISPOSAL,200359,,NJD053102232,121 LAUREL AVE,KINGSTON,8528,SOMERSET,N,N,,,40.3875,-74.615281,08/30/90
2,NJ,HIGGINS FARM,201094,,NJD981490261,ROUTE 518,FRANKLIN TOWNSHIP,8540,SOMERSET,N,N,,,40.406389,-74.602781,03/31/89
2,NJ,HORSESHOE ROAD,200781,,NJD980663678,Postal Address is unavailable for the Site,SAYREVILLE,8872,MIDDLESEX,N,N,,,40.484722,-74.319444,09/29/95
2,NJ,ICELAND COIN LAUNDRY AREA GW PLUME,204037,,NJ0001360882,1888 SOUTH DELSEA DRIVE,VINELAND,8360,CUMBERLAND,N,N,,,39.45725,-75.04725,10/22/99
2,NJ,"IMPERIAL OIL CO., INC./CHAMPION CHEMICALS",200764,,NJD980654099,ORCHARD RD,MORGANVILLE,7751,MONMOUTH,N,N,,,40.383889,-74.245831,09/08/83
2,NJ,JIS LANDFILL,200499,,NJD097400998,901-999 CRANBURY SOUTH RIVER ROAD RTE 535,SOUTH BRUNSWICK,8831,MIDDLESEX,N,N,,,40.365831,-74.465281,09/08/83
2,NJ,"KAUFFMAN & MINTEER, INC.",200232,,NJD002493054,MONMOUTH ROAD (ROUTE 537),SPRINGFIELD TWP(JOBSTOWN),8041,BURLINGTON,N,N,,,40.0363,-74.694,03/31/89
2,NJ,KIN-BUC LANDFILL,200346,,NJD049860836,MEADOW ROAD,EDISON TOWNSHIP,8817,MIDDLESEX,N,N,,,40.4891,-74.3785,09/08/83
2,NJ,KING OF PRUSSIA,200551,,NJD980505341,PINEY HOLLOW ROAD,WINSLOW TOWNSHIP,8095,CAMDEN,N,N,,,39.62695,-74.889439,09/08/83
2,NJ,LANDFILL & DEVELOPMENT CO.,200333,,NJD048044325,2023 RTE 38,MOUNT HOLLY,8060,BURLINGTON,N,N,,,39.980561,-74.770839,09/21/84
2,NJ,LANG PROPERTY,200554,,NJD980505382,WHITESBOG-PASADENA ROAD,PEMBERTON TOWNSHIP,8015,BURLINGTON,N,N,,,39.929161,-74.49445,09/08/83
2,NJ,LCP CHEMICALS INC.,200455,,NJD079303020,FOOT OF SOUTH WOOD AVENUE,LINDEN,7036,UNION,N,N,,,40.6075,-74.210278,07/28/98
2,NJ,LIGHTMAN DRUM COMPANY,200280,,NJD014743678,ROUTE 73,WINSLOW TOWNSHIP,8009,CAMDEN,N,N,,,39.729722,-74.905917,10/22/99
2,NJ,LONE PINE LANDFILL,200558,,NJD980505424,BURKE ROAD,FREEHOLD TOWNSHIP,7728,MONMOUTH,N,N,,,40.202781,-74.333339,09/08/83
2,NJ,LOWER HACKENSACK RIVER,201845,,NJN000201845,1 Meadowlands Parkway (near Route 3 West Bridge Crossing the Lower Hackensack River),BERGEN AND HUDSON COUNTIES,7094,BERGEN,N,N,,,40.800794,-74.067175,09/09/22
2,NJ,MANSFIELD TRAIL DUMP,206345,,NJN000206345,INTERSECTION OF BROOKWOOD AND ROSS ROADS,BYRAM,7874,SUSSEX,N,N,,,40.928944,-74.6996,03/10/11
2,NJ,"MARTIN AARON, INC.",200278,,NJD014623854,1542 SOUTH BROADWAY,CAMDEN,8104,CAMDEN,N,N,,,39.926111,-75.119167,07/22/99
2,NJ,"MATLACK, INC.",200307,,NJD043584101,ROUTE 322 EAST,WOOLWICH TOWNSHIP,8085,GLOUCESTER,N,N,,,39.763106,-75.322169,05/24/13
2,NJ,MATTEO & SONS INC.,204061,,NJD011770013,1708 US RT. 130,THOROFARE,8086,GLOUCESTER,N,N,,,39.85559,-75.1727,09/27/06
2,NJ,MAYWOOD CHEMICAL CO.,200665,,NJD980529762,RTE 17 & GROVE ST,MAYWOOD/ROCHELLE PARK,7607,BERGEN,N,N,,,40.8964,-74.0693,09/08/83
2,NJ,MCGUIRE AIR FORCE BASE #1,201162,,NJ0570024018,WRIGHTSTOWN-COOKSTOWN ROAD,WRIGHTSTOWN,8641,BURLINGTON,Y,N,,,40.018056,-74.593611,10/22/99
2,NJ,METALTEC/AEROSYSTEMS,200234,,NJD002517472,WILDCAT & MAPLE ROADS,FRANKLIN BOROUGH,7416,SUSSEX,N,N,,,41.109719,-74.599719,09/08/83
2,NJ,MIDDLESEX SAMPLING PLANT (USDOE),202755,,NJ0890090012,239 MOUNTAIN AVENUE,MIDDLESEX,8846,MIDDLESEX,Y,N,,,40.569806,-74.493194,01/19/99
2,NJ,"MONITOR DEVICES, INC./INTERCIRCUITS, INC.",200638,,NJD980529408,AIRPORT ROAD,WALL TOWNSHIP,7727,MONMOUTH,N,N,,,40.185281,-74.119719,06/10/86
2,NJ,MONTGOMERY TOWNSHIP HOUSING DEVELOPMENT,200771,,NJD980654164,"ROBIN DRIVE, ROUTE 206, SYCAMORE LANE",MONTGOMERY TOWNSHIP,8558,SOMERSET,N,N,,,40.408331,-74.644169,09/08/83
2,NJ,MYERS PROPERTY,200774,,NJD980654198,LOWER KINGTOWN ROAD,FRANKLIN TOWNSHIP,8822,HUNTERDON,N,N,,,40.595,-74.9404,09/08/83
2,NJ,NASCOLITE CORP.,200202,,NJD002362705,DORIS AVE,MILLVILLE,8332,CUMBERLAND,N,N,,,39.422219,-75.032781,09/21/84
2,NJ,NAVAL AIR ENGINEERING CENTER,201174,,NJ7170023744,MAIN GATE ROUTE#547,LAKEHURST,8733,OCEAN,Y,N,,,40.029719,-74.369161,07/22/87
2,NJ,NAVAL WEAPONS STATION EARLE (SITE A),201160,,NJ0170022172,TYLER LANE & TEXAS RD,COLTS NECK,7722,MONMOUTH,Y,N,,,40.264581,-74.162919,08/30/90
2,NJ,NL INDUSTRIES,200390,,NJD061843249,PENNS GROVE-PEDRICKTOWN ROAD,PEDRICKTOWN (OLDMANS TOWN,8067,SALEM,N,N,,,39.758061,-75.424719,09/08/83
2,NJ,ORANGE VALLEY REGIONAL GROUND WATER CONTAMINATION,203649,,NJD002148799,GIST PLACE (NEAR NORTH DAY STREET),WEST ORANGE/ORANGE,7051,ESSEX,N,N,,,40.779936,-74.225267,09/18/12
2,NJ,PICATINNY ARSENAL (USARMY),201168,,NJ3210020704,OFF RTE 15 DOVER NJ,ROCKAWAY TOWNSHIP,7801,MORRIS,Y,N,,,40.916669,-74.583339,02/21/90
2,NJ,PIERSON'S CREEK,200114,,NJD002144517,ONE AVENUE L,NEWARK,7105,ESSEX,N,N,,,40.7163,-74.1452,09/22/14
2,NJ,PIONEER METAL FINISHING INC,200200,,NJD002360188,2034 COLES MILL RD,FRANKLINVILLE,8322,GLOUCESTER,N,N,,,39.616969,-75.061474,09/09/21
2,NJ,PJP LANDFILL,200569,,NJD980505648,400 SIP AVE,JERSEY CITY,7306,HUDSON,N,N,,,40.734719,-74.085561,09/08/83
2,NJ,POHATCONG VALLEY GROUND WATER CONTAMINATION,201075,,NJD981179047,ROUTE 643 TO ROUTE 31,WARREN COUNTY,7882,WARREN,N,N,,,40.75,-75,03/31/89
2,NJ,PRICE LANDFILL,200427,,NJD070281175,MILL ROAD,PLEASANTVILLE,8232,ATLANTIC,N,N,,,39.415281,-74.52695,09/08/83
2,NJ,PUCHACK WELL FIELD,204096,,NJD981084767,WEST OF US 130; SOUTH OF STATE HWY 90,PENNSAUKEN TOWNSHIP,8110,CAMDEN,N,N,,,39.976667,-75.051944,03/06/98
2,NJ,QUANTA RESOURCES,200034,,NJD000606442,ONE RIVER RD,EDGEWATER,7020,BERGEN,N,N,,,40.804306,-73.989167,09/05/02
2,NJ,"RADIATION TECHNOLOGY, INC.",200332,,NJD047684451,108 LAKE DENMARK ROAD,ROCKAWAY TOWNSHIP,7866,MORRIS,N,N,,,40.970831,-74.50555,09/21/84
2,NJ,RARITAN BAY SLAG,206276,,NJN000206276,BAYVIEW DRIVE AND LAURENCE PARKWAY,OLD BRIDGE TWP/SAYREVILLE,8879,MIDDLESEX,N,N,,,40.464589,-74.258017,11/04/09
2,NJ,RINGWOOD MINES/LANDFILL,200663,,NJD980529739,PETERS MINE ROAD,RINGWOOD BOROUGH,7456,PASSAIC,N,Y,Ramapough Lenape Nation (Current),,41.136669,-74.2725,09/08/83
2,NJ,RIVERSIDE INDUSTRIAL PARK,204232,,NJSFN0204232,29 RIVERSIDE AVENUE,NEWARK,7104,ESSEX,N,N,,,40.765722,-74.159084,05/24/13
2,NJ,ROCKAWAY BOROUGH WELL FIELD,200766,,NJD980654115,"JACKSON,UNION & GARDEN STS",ROCKAWAY TOWNSHIP,7866,MORRIS,N,N,,,40.905831,-74.515561,09/08/83
2,NJ,ROCKAWAY TOWNSHIP WELLS,200775,,NJD980654214,GREEN POND ROAD,ROCKAWAY TOWNSHIP,7866,MORRIS,N,N,,,40.913331,-74.499169,09/08/83
2,NJ,ROCKY HILL MUNICIPAL WELL,200770,,NJD980654156,WASHINGTON STREET,ROCKY HILL BOROUGH,8553,SOMERSET,N,N,,,40.401669,-74.6475,09/08/83
2,NJ,ROEBLING STEEL CO.,200439,,NJD073732257,2ND AVENUE,FLORENCE,8554,BURLINGTON,N,N,,,40.120831,-74.770839,09/08/83
2,NJ,ROLLING KNOLLS LF,200542,,NJD980505192,35 BRITTEN RD,GREEN VILLAGE,7935,MORRIS,N,N,,,40.729528,-74.447861,09/29/03
2,NJ,SCIENTIFIC CHEMICAL PROCESSING,200431,,NJD070565403,216 PATERSON PLANK RD,CARLSTADT,7072,BERGEN,N,N,,,40.82454,-74.074329,09/08/83
2,NJ,SHARKEY LANDFILL,200573,,NJD980505762,EDWARDS & SHARKEY ROAD,"PARSIPPANY, TROY HLS",7054,MORRIS,N,N,,,40.8501,-74.3454,09/08/83
2,NJ,SHERWIN-WILLIAMS/HILLIARDS CREEK,200516,,NJD980417976,FOSTER AVENUE AND GIBBSBORO ROAD,GIBBSBORO,8026,CAMDEN,N,N,,,39.835526,-74.964977,03/19/08
2,NJ,SHIELDALLOY CORP.,200203,,NJD002365930,WEST BLVD,NEWFIELD BOROUGH,8344,GLOUCESTER,N,N,,,39.543061,-75.022219,09/21/84
2,NJ,SOUTH JERSEY CLOTHING CO.,200803,,NJD980766828,1 CENTRAL AVE,MINOTOLA,8341,ATLANTIC,N,N,,,39.5206,-74.9491,10/04/89
2,NJ,STANDARD CHLORINE,200146,,NJD002175057,1015-35 BELLEVILLE TURNPIKE,KEARNY,7032,HUDSON,N,N,,,40.75,-74.097222,09/19/07
2,NJ,SWOPE OIL & CHEMICAL CO.,200299,,NJD041743220,8281 NATIONAL HWY,PENNSAUKEN TOWNSHIP,8110,CAMDEN,N,N,,,39.9886,-75.0347,09/08/83
2,NJ,SYNCON RESINS,200401,,NJD064263817,77 JACOBUS AVE,SOUTH KEARNY,7032,HUDSON,N,N,,,40.737781,-74.114719,09/08/83
2,NJ,U.S. RADIUM CORP.,200772,,NJD980654172,ALDEN & HIGH STS AND OTHER ADDRESSES,ORANGE,7050,ESSEX,N,N,,,40.781389,-74.228611,09/08/83
2,NJ,UNIMATIC MANUFACTURING CORPORATION,206578,,NJD002164796,25 SHERWOOD LANE,FAIRFIELD,7004,ESSEX,N,N,,,40.878792,-74.269155,05/12/14
2,NJ,UNITED STATES AVENUE BURN,204003,,NJ0001120799,UNITED STATES AVENUE,GIBBSBORO,8026,CAMDEN,N,N,,,39.834167,-74.963889,07/22/99
2,NJ,UNIVERSAL OIL PRODUCTS (CHEMICAL DIVISION),200101,,NJD002005106,E/S ROUTE 17,EAST RUTHERFORD,7073,BERGEN,N,N,,,40.83,-74.088889,09/08/83
2,NJ,VENTRON/VELSICOL,200674,,NJD980529879,ETHYL BOULEVARD,WOOD RIDGE BOROUGH,7075,BERGEN,N,N,,,40.84,-74.079439,09/21/84
2,NJ,"VINELAND CHEMICAL CO., INC.",200209,,NJD002385664,1405 N. MILL RD.,VINELAND,8360,CUMBERLAND,N,N,,,39.510281,-75.056661,09/21/84
2,NJ,"WALDICK AEROSPACE DEVICES, INC.",200375,,NJD054981337,2121 ROUTE 35,WALL TOWNSHIP,7719,MONMOUTH,N,N,,,40.143,-74.0613,06/10/86
2,NJ,WELSBACH & GENERAL GAS MANTLE (CAMDEN RADIATION),203580,,NJD986620995,6 AREAS IN CAMDEN AND GLOUCESTER CITY,CAMDEN AND GLOUCESTER CITY,8030,CAMDEN,N,N,,,39.919722,-75.121944,06/17/96
2,NJ,WHITE CHEMICAL CORP.,203357,,NJD980755623,660 FRELINGHUYSEN AVE,NEWARK,7114,ESSEX,N,N,,,40.698484,-74.198242,09/25/91
2,NJ,WHITE SWAN LAUNDRY AND CLEANER INC.,204241,,NJSFN0204241,1322 SEA GIRT AVE,WALL TWP,7719,MONMOUTH,N,N,,,40.135721,-74.06,09/23/04
2,NJ,WILLIAMS PROPERTY,200678,,NJD980529945,"RR 1, SIEGTOWN ROAD",SWAINTON MIDDLE,8210,CAPE MAY,N,N,,,39.1173,-74.8004,09/08/83
2,NJ,WOODBROOK ROAD DUMP,204260,,NJSFN0204260,FOOT OF WOODBROOK ROAD (SOUTH END),SOUTH PLAINFIELD,8820,MIDDLESEX,N,N,,,40.561564,-74.402914,04/30/03
2,NJ,WOODLAND ROUTE 532 DUMP,200582,,NJD980505887,ROUTE 532,WOODLAND TOWNSHIP,8019,BURLINGTON,N,N,,,39.829169,-74.492231,09/21/84
2,NJ,WOODLAND ROUTE 72 DUMP,200581,,NJD980505879,"RTE 72, ON SOOEY ROAD",WOODLAND TOWNSHIP,8019,BURLINGTON,N,N,,,39.821669,-74.447781,09/21/84
2,NJ,ZSCHIEGNER REFINING,203757,,NJD986643153,1442 MAXIM-SOUTHARD ROAD,HOWELL TOWNSHIP,7731,MONMOUTH,N,N,,,40.145833,-74.2,03/06/98
2,NY,AMERICAN THERMOSTAT CO.,201350,,NYD002066330,RTE 23 B,SOUTH CAIRO,12482,GREENE,N,N,,,42.266939,-73.941111,09/08/83
2,NY,APPLIED ENVIRONMENTAL SERVICES,202121,,NYD980535652,ONE SHORE RD,GLENWOOD LANDING,11545,NASSAU,N,N,,,40.823054,-73.646693,06/10/86
2,NY,ARSENIC MINE,202816,,NYD982531469,GIPSY TRAIL ROAD AND MT. NIMHAM ROAD,KENT,10512,PUTNAM,N,N,,,41.457972,-73.715285,11/08/19
2,NY,BLACK RIVER PCBS,206296,,NYN000206296,END OF HEWITT DRIVE,TOWN OF CHAMPION,13619,JEFFERSON,N,N,,,43.984269,-75.627753,09/29/10
2,NY,BREWSTER WELL FIELD,202153,,NYD980652275,MAIN ST /SE,PUTNAM COUNTY,10509,PUTNAM,N,N,,,41.401669,-73.6,09/08/83
2,NY,BRILLO LANDFILL,203129,,NYN000203129,Route 370 (Intersection of County Route 129/Conquest-Victory Town Line Road),VICTORY,13033,CAYUGA,N,N,,,43.170353,-76.613503,09/09/22
2,NY,BROOKHAVEN NATIONAL LABORATORY (USDOE),202841,,NY7890008975,53 BELL AVE,UPTON,11961,SUFFOLK,Y,N,,,40.86,-72.869583,11/21/89
2,NY,BYRON BARREL & DRUM,202257,,NYD980780670,TOWN LINE ROAD,BYRON TOWNSHIP,14422,GENESEE,N,N,,,43.1191,-78.1103,06/10/86
2,NY,CARROLL & DUBIES SEWAGE DISPOSAL,201492,,NYD010968014,CANAL STREET,PORT JERVIS,12771,ORANGE,N,N,,,41.3942,-74.6681,02/21/90
2,NY,CAYUGA GROUNDWATER CONTAMINATION SITE,204289,,NYN000204289,STATE ROUTE 326,UNION SPRINGS,13160,CAYUGA,N,Y,Cayuga Nation (Current),,42.880556,-76.6425,09/05/02
2,NY,CIRCUITRON CORP.,202301,,NYD981184229,82 MILBAR BOULEVARD,EAST FARMINGDALE,11735,SUFFOLK,N,N,,,40.7495,-73.4195,03/31/89
2,NY,CLAREMONT POLYCHEMICAL,201338,,NYD002044584,501 WINDING ROAD,OLD BETHPAGE,11804,NASSAU,N,N,,,40.7576,-73.4432,06/10/86
2,NY,COLESVILLE MUNICIPAL LANDFILL,202237,,NYD980768691,EAST WINDSOR RD,TOWN OF COLESVILLE,13813,BROOME,N,N,,,42.160419,-75.58945,06/10/86
2,NY,COMPUTER CIRCUITS,202636,,NYD125499673,145 MARCUS BOULEVARD,HAUPPAUGE,11788,SUFFOLK,N,N,,,40.813194,-73.24611,05/10/99
2,NY,CORTESE LANDFILL,201867,,NYD980528475,SOUTH OF ROUTE 97,VIL OF NARROWSBURG,12764,SULLIVAN,N,N,,,41.600561,-75.065,06/10/86
2,NY,CROWN CLEANERS OF WATERTOWN INC.,204284,,NYD986965333,3595 STATE ROUTE 3,CARTHAGE,13619,JEFFERSON,N,N,,,44.022944,-75.651861,09/05/02
2,NY,DEWEY LOEFFEL LANDFILL,201218,,NYD000512335,MEAD ROAD,NASSAU,12123,RENSSELAER,N,Y,Tonawanda Band of Seneca (Former); Tuscarora Nation (Former),,42.560957,-73.560496,03/10/11
2,NY,DIAZ CHEMICAL,203341,,NYD067532580,40 JACKSON ST.,HOLLEY,14470,ORLEANS,N,N,,,43.222944,-78.029278,07/22/04
2,NY,EIGHTEENMILE CREEK,206456,,NYN000206456,198-300 MILL STREET,LOCKPORT,14094,NIAGARA,N,Y,Tuscarora Nation (Current),,43.1813,-78.689544,03/15/12
2,NY,ENDICOTT VILLAGE WELL FIELD,202264,,NYD980780746,S. GRIPPEN AVENUE,VILLAGE OF ENDICOTT,13760,BROOME,N,N,,,42.086111,-76.086111,06/10/86
2,NY,"FACET ENTERPRISES, INC.",201604,,NYD073675514,RTE 14,ELMIRA,14903,CHEMUNG,N,N,,,42.1325,-76.829169,09/08/83
2,NY,FOREST GLEN MOBILE HOME SUBDIVISION,202361,,NYD981560923,"LISA LANE, CARRIE DRIVE AND T. MARK DRV.",NIAGARA FALLS,14301,NIAGARA,N,N,,,43.1127,-78.9995,11/21/89
2,NY,FULTON AVENUE,203853,,NY0000110247,150 FULTON AVENUE,GARDEN CITY PARK,11040,NASSAU,N,N,,,40.737337,-73.657844,03/06/98
2,NY,GCL TIE AND TREATING INC.,203408,,NYD981566417,DELAWARE AVENUE,VILLAGE OF SIDNEY,13838,DELAWARE,N,N,,,42.300555,-75.413333,05/31/94
2,NY,GE MOREAU,201858,,NYD980528335,FT EDWARD & WM ST,SOUTH GLENS FALLS,12803,SARATOGA,N,N,,,43.28305,-73.629169,09/08/83
2,NY,GENERAL MOTORS (CENTRAL FOUNDRY DIVISION),201644,,NYD091972554,ROOSEVELT TOURIN ROAD,MASSENA,13662,ST. LAWRENCE,N,Y,Saint Regis Mohawk Tribe (Current),,44.983889,-74.732781,09/21/84
2,NY,GENZALE PLATING CO.,201344,,NYD002050110,288 NEW HYDE PARK ROAD,FRANKLIN SQUARE,11010,NASSAU,N,N,,,40.7153,-73.6777,07/22/87
2,NY,"GOLDISC RECORDINGS, INC.",202239,,NYD980768717,725 BROADWAY,HOLBROOK,11741,SUFFOLK,N,N,,,40.7745,-73.0647,06/10/86
2,NY,GOWANUS CANAL,206222,,NYN000206222,BUTLER ST (BETWEEN BOND ST AND NEVINS ST,BROOKLYN,11231,KINGS,N,N,,,40.681639,-73.987333,03/04/10
2,NY,GRIFFISS AIR FORCE BASE (11 AREAS),202438,,NY4571924451,GRIFFISS AIR FORCE BASE,ROME,13441,ONEIDA,Y,N,,,43.233331,-75.416661,07/22/87
2,NY,HERTEL LANDFILL,202267,,NYD980780779,RTE 44/55 BEDELL AVE & TUCKERS,PLATTEKILL,12528,ULSTER,N,N,,,41.688061,-74.038889,06/10/86
2,NY,HOOKER (S AREA),202150,,NYD980651087,BUFFALO AVE,NIAGARA FALLS,14303,NIAGARA,N,N,,,43.0757,-79.0054,09/08/83
2,NY,HOOKER CHEMICAL & PLASTICS CORP./RUCO POLYMER CORP.,201477,,NYD002920312,NEW SOUTH ROAD,HICKSVILLE,11801,NASSAU,N,N,,,40.7575,-73.504169,06/10/86
2,NY,HOPEWELL PRECISION,201588,,NYD066813064,15 RYAN RD,HOPEWELL JUNCTION,12533,DUTCHESS,N,N,,,41.61156,-73.78177,04/27/05
2,NY,HUDSON RIVER PCBS,202229,,NYD980763841,NO STREET APPLICABLE,HUDSON RIVER,12871,WASHINGTON,N,N,,,43.1102,-73.5765,09/21/84
2,NY,ISLIP MUNICIPAL SANITARY LANDFILL,201714,,NYD980506901,BLYDENBURG RD/LG ISLAND MOTOR,ISLIP,11751,SUFFOLK,N,N,,,40.8178,-73.1829,03/31/89
2,NY,JOHNSTOWN CITY LANDFILL,201716,,NYD980506927,W FULTON S EXT,TOWN OF JOHNSTOWN,12095,FULTON,N,N,,,43.043061,-74.393061,06/10/86
2,NY,"JONES CHEMICALS, INC.",201302,,NYD000813428,100 SUNNY SOL BLVD,CALEDONIA,14423,LIVINGSTON,N,N,,,42.976531,-77.845561,02/21/90
2,NY,KENTUCKY AVENUE WELL FIELD,202142,,NYD980650667,KENTUCKY AVE,HORSEHEADS,14845,CHEMUNG,N,N,,,42.145831,-76.828331,09/08/83
2,NY,"LAWRENCE AVIATION INDUSTRIES, INC.",201335,,NYD002041531,SHEEP PASTURE ROAD,PORT JEFFERSON STATION,11776,SUFFOLK,N,N,,,40.928139,-73.069194,02/04/00
2,NY,LEHIGH VALLEY RAILROAD,203481,,NYD986950251,GULF ROAD,LE ROY,14482,GENESEE,N,N,,,42.992028,-77.933306,01/19/99
2,NY,LI TUNGSTEN CORP.,202972,,NYD986882660,GARVIES POINT RD.,GLEN COVE,11542,NASSAU,N,N,,,40.860929,-73.640773,10/14/92
2,NY,LIBERTY INDUSTRIAL FINISHING,201184,,NYD000337295,55 MOTOR PARKWAY,FARMINGDALE,11735,NASSAU,N,N,,,40.72625,-73.448889,06/10/86
2,NY,LITTLE VALLEY,204016,,NY0001233634,"INTERSECTION OF ROUTES 242, 353, AND BAKER RD",LITTLE VALLEY,14755,CATTARAUGUS,N,Y,Seneca Nation of Indians (Former),,42.236667,-78.766944,06/17/96
2,NY,MACKENZIE CHEMICAL WORKS,202187,,NYD980753420,1 CORDELLO AVENUE,CENTRAL ISLIP,11722,SUFFOLK,N,N,,,40.788889,-73.205278,09/13/01
2,NY,MAGNA METALS,201321,,NYD001394881,510 Furnace Dock Road,CORTLANDT MANOR,10567,WESTCHESTER,N,N,,,41.2745,-73.8704,05/15/19
2,NY,MALTA ROCKET FUEL AREA,202084,,NYD980535124,PLAINS RD,MALTA,12020,SARATOGA,N,N,,,42.963889,-73.758331,07/22/87
2,NY,"MATTIACE PETROCHEMICAL CO., INC.",201219,,NYD000512459,GARVIES POINT ROAD,GLEN COVE,11542,NASSAU,N,N,,,40.8608,-73.6432,03/31/89
2,NY,MEEKER AVENUE PLUME,203407,,NYN000203407,Meeker Avenue,BROOKLYN,11222,KINGS,N,N,,,40.725409,-73.935904,03/16/22
2,NY,MOHONK ROAD INDUSTRIAL PLANT,203945,,NYD986950012,186 MOHONK ROAD,HIGH FALLS,12440,ULSTER,N,N,,,41.816667,-74.13444,01/19/99
2,NY,"NEPERA CHEMICAL CO., INC.",201188,,NYD000511451,COUNTY RT 4,MAYBROOK,12543,ORANGE,N,N,,,41.4643,-74.2447,06/10/86
2,NY,NEW CASSEL/HICKSVILLE GROUND WATER CONTAMINATION,203974,,NY0001095363,SOUTHERN END OF IRIS PLACE,NEW CASSEL/HICKSVILLE,11590,NASSAU,N,N,,,40.752446,-73.559781,09/16/11
2,NY,NEWTOWN CREEK,206282,,NYN000206282,SOUTH END OF IVY HILL ROAD,"BROOKLYN, QUEENS",11222,,N,N,,,40.715192,-73.930762,09/29/10
2,NY,NIAGARA MOHAWK POWER CORP. (SARATOGA SPRINGS PLANT),202182,,NYD980664361,EAST AVENUE & EXCELSOR RD,SARATOGA SPRINGS,12866,SARATOGA,N,N,,,43.09,-73.776111,02/21/90
2,NY,OLD BETHPAGE LANDFILL,201951,,NYD980531727,ROUND SWAMP RD,OYSTER BAY,11804,NASSAU,N,N,,,40.756939,-73.447219,09/08/83
2,NY,OLD ROOSEVELT FIELD CONTAMINATED GW AREA,204234,,NYSFN0204234,CLINTON ROAD/OLD COUNTRY ROAD,GARDEN CITY,11530,NASSAU,N,N,,,40.733611,-73.618472,05/11/00
2,NY,OLEAN WELL FIELD,201877,,NYD980528657,LAURENS ST,OLEAN,14760,CATTARAUGUS,N,N,,,42.069439,-78.404719,09/08/83
2,NY,ONONDAGA LAKE,203382,,NYD986913580,Postal Address is unavailable for the Site,SYRACUSE,13209,ONONDAGA,N,Y,Onondaga Nation (Current),,43.069444,-76.208056,12/16/94
2,NY,PENINSULA BOULEVARD GROUNDWATER PLUME,204407,,NYN000204407,PENINSULA BOULEVARD AND HAMILTON AVENUE,HEWLETT,11557,NASSAU,N,N,,,40.640392,-73.695667,07/22/04
2,NY,PLATTSBURGH AIR FORCE BASE,202439,,NY4571924774,PLATTSBURGH AFB,PLATTSBURGH,12901,CLINTON,Y,N,,,44.6575,-73.464719,11/21/89
2,NY,POLLUTION ABATEMENT SERVICES,201196,,NYD000511659,703 E. Seneca Street,OSWEGO,13126,OSWEGO,N,N,,,43.47,-76.483331,09/08/83
2,NY,PORT WASHINGTON LANDFILL,202155,,NYD980654206,WEST SHORE RD,PORT WASHINGTON,11050,NASSAU,N,N,,,40.81805,-73.666661,09/08/83
2,NY,PREFERRED PLATING CORP.,202245,,NYD980768774,32 ALLEN BLVD,FARMINGDALE,11735,SUFFOLK,N,N,,,40.7158,-73.4253,06/10/86
2,NY,RAMAPO LANDFILL,201191,,NYD000511493,RTE 59,RAMAPO,10974,ROCKLAND,N,N,,,41.14,-74.161389,09/08/83
2,NY,RICHARDSON HILL ROAD LANDFILL/POND,201770,,NYD980507735,RICHARDSON HILL RD,SIDNEY CENTER,13839,DELAWARE,N,N,,,42.252781,-75.249169,07/22/87
2,NY,"ROBINTECH, INC./NATIONAL PIPE CO.",201452,,NYD002232957,3421 OLD VESTAL ROAD,TOWN OF VESTAL,13850,BROOME,N,N,,,42.1049,-75.9922,06/10/86
2,NY,ROSEN BROTHERS SCRAP YARD/DUMP,202609,,NYD982272734,PENDELTON ST.,CORTLAND,13045,CORTLAND,N,N,,,42.591669,-76.175281,03/31/89
2,NY,ROWE INDUSTRIES GROUND WATER CONTAMINATION,202330,,NYD981486954,SAG HARBOR-BRIDGEHAMPTON TURNPIKE,NOYACK/SAG HARBOR,11963,SUFFOLK,N,N,,,40.982781,-72.3,07/22/87
2,NY,SAINT-GOBAIN PERFORMANCE PLASTICS,202702,,NYD004986741,14 McCaffrey Street,VILLAGE OF HOOSICK FALLS,12090,RENSSELAER,N,N,,,42.8943,-73.3566,08/02/17
2,NY,SARNEY FARM,202088,,NYD980535165,BENSON HILL RD,AMENIA,12501,DUTCHESS,N,N,,,41.75555,-73.561389,06/10/86
2,NY,"SEALAND RESTORATION, INC.",202090,,NYD980535181,PRAY RD,LISBON,13669,ST. LAWRENCE,N,N,,,44.703611,-75.361531,08/30/90
2,NY,SENECA ARMY DEPOT,202425,,NY0213820830,FAYETTE RD,ROMULUS,14541,SENECA,Y,Y,Cayuga Nation (Former),,42.75,-76.85445,08/30/90
2,NY,SHENANDOAH ROAD GROUNDWATER CONTAMINATION,204269,,NYSFN0204269,"SHENANDOAH RD & BURBANK RD, SEYMOUR LANE",EAST FISHKILL,12533,DUTCHESS,N,N,,,41.526111,-73.792222,06/14/01
2,NY,SIDNEY LANDFILL,201764,,NYD980507677,RICHARDSON HILL RD,SIDNEY,13839,DELAWARE,N,N,,,42.2577,-75.243,03/31/89
2,NY,SINCLAIR REFINERY,202093,,NYD980535215,S BROOKLYN AVE,WELLSVILLE,14895,ALLEGANY,N,N,,,42.1088,-77.9416,09/08/83
2,NY,SOLVENT SAVERS,201687,,NYD980421176,UNION VALLEY RD,LINCKLAEN,13052,CHENANGO,N,N,,,42.665,-75.876661,09/08/83
2,NY,STANTON CLEANERS AREA GROUND WATER CONTAMINATION,204167,,NYD047650197,110 CUTTER MILL ROAD,GREAT NECK,11021,NASSAU,N,N,,,40.782361,-73.734139,05/10/99
2,NY,"TRI-CITIES BARREL CO., INC.",201830,,NYD980509285,ADJ. TO ROUTE 7 I-88,PORT CRANE,13833,BROOME,N,N,,,42.15805,-75.811939,10/04/89
2,NY,VESTAL WATER SUPPLY WELL 1-1,202228,,NYD980763767,605 VESTAL PKWY,VESTAL,13850,BROOME,N,N,,,42.0902,-76.0557,09/08/83
2,NY,VOLNEY MUNICIPAL LANDFILL,201836,,NYD980509376,SILK ROAD,TOWN OF VOLNEY,13069,OSWEGO,N,N,,,43.36055,-76.379169,06/10/86
2,NY,WAPPINGER CREEK,201758,,NYN000201758,"Wappinger Creek, downstream of Wappingers Falls","WAPPINGERS FALLS, TOWN OF WAPPINGER, TOWN OF POUGHKEEPSIE",12590,DUTCHESS,N,N,,,41.597684,-73.927136,09/09/16
2,NY,WOLFF-ALPORT CHEMICAL COMPANY,206479,,NYC200400810,1125-1139 IRVING AVENUE,RIDGEWOOD,11385,QUEENS,N,N,,,40.692672,-73.901997,05/12/14
2,NY,YORK OIL CO.,201202,,NYD000511733,N LAWRENCE RD,MOIRA,12957,FRANKLIN,N,N,,,44.8225,-74.5751,09/08/83
2,PR,ATLANTIC FLEET WEAPONS TRAINING AREA,204694,,PRN000204694,Postal Address is unavailable for the Site,VIEQUES,765,VIEQUES,Y,N,,,18.13058,-65.3106,02/11/05
2,PR,CABO ROJO GROUND WATER CONTAMINATION,206319,,PRN000206319,CROSS STR. CALLE BARBOSA & CALLE DEDIEGO,CABO ROJO,623,CABO ROJO,N,N,,,18.090725,-67.148325,03/10/11
2,PR,CIDRA GROUNDWATER CONTAMINATION,204538,,PRN000204538,ROAD 171 (SOUTH OF THE VILLAGE OF CIDRA) WEST OF ROAD #171,CIDRA,739,CIDRA,N,N,,,18.175277,-66.161944,07/22/04
2,PR,COROZAL WELL,206452,,PRN000206452,[OFF OF] CARRETERA 811 KM 3.0,COROZAL,783,COROZAL,N,N,,,18.295711,-66.286206,03/15/12
2,PR,DORADO GROUND WATER CONTAMINATION,201872,,PRN000201872,PR-694 Km 4.5,DORADO,646,DORADO,N,N,,,18.429756,-66.27832,09/09/16
2,PR,FIBERS PUBLIC SUPPLY WELLS,202559,,PRD980763783,RTE 3,JOBOS,784,,N,N,,,17.9632,-66.1461,09/21/84
2,PR,JUNCOS LANDFILL,202511,,PRD980512362,"BO CEIBA NORTE, ROAD 189",JUNCOS,777,JUNCOS,N,N,,,18.2232,-65.9087,09/08/83
2,PR,MAUNABO AREA GROUND WATER CONTAMINATION,205831,,PRN000205831,"STATE ROAD #3, KM 110.2",MAUNABO,707,MAUNABO,N,N,,,18.005611,-65.901417,09/27/06
2,PR,OCHOA FERTILIZER CO.,203717,,PRD091171264,PR-333 KM 1.9,GUANICA,653,GUANICA,N,N,,,17.965524,-66.903427,09/09/22
2,PR,"PAPELERA PUERTORRIQUENA, INC.",205848,,PRD090290685,"RD 111 KM 1.8, VIVI ABAJO WARD",UTUADO,641,,N,N,,,18.265194,-66.694908,09/23/09
2,PR,PESTICIDE WAREHOUSE I,202985,,PRD987367349,ROAD # 2 KM 59.7,ARECIBO,612,ARECIBO,N,N,,,18.435556,-66.6,09/27/06
2,PR,PESTICIDE WAREHOUSE III,202979,,PRD987367299,ROAD 670 KM 3.7 PALO ALTO,MANATI,674,MANATI,N,N,,,18.429139,-66.458,04/30/03
2,PR,PROTECO,202756,,PRD000831487,ROAD 385 KM 4.4 BO TALLABOA,PENUELAS,624,PENUELAS,N,N,,,18.0152,-66.7003,05/15/19
2,PR,SAN GERMAN GROUND WATER CONTAMINATION,205957,,PRN000205957,STATE ROAD #122 (ALSO KNOWN AS ROAD 119),San German,683,SAN GERMAN,N,N,,,18.084472,-67.035306,03/19/08
2,PR,"SCORPIO RECYCLING, INC.",203570,,PRD987376662,STATE ROAD #2 KM. 19.7 (ACUNA STREET),CANDELERIA WARD,949,,N,N,,,18.409167,-66.231944,02/04/00
2,PR,THE BATTERY RECYCLING COMPANY,206263,,PRR000004655,ROAD 2 KM 72.2 BO. CAMBALACHE,ARECIBO,612,ARECIBO,N,N,,,18.453603,-66.694097,08/02/17
2,PR,UPJOHN FACILITY,202480,,PRD980301154,RTE 2,BARCELONETA,617,BARCELONETA,N,N,,,18.4292,-66.5901,09/21/84
2,PR,VEGA ALTA PUBLIC SUPPLY WELLS,202558,,PRD980763775,HIGHWAY 2,VEGA ALTA,692,,N,N,,,18.418061,-66.330281,09/21/84
2,PR,VEGA BAJA SOLID WASTE DISPOSAL,202533,,PRD980512669,"ROAD 674, KM 2",RIO ABAJO WARD,693,VEGA BAJA,N,N,,,18.434306,-66.389722,07/22/99
2,VI,TUTU WELLFIELD,202749,,VID982272569,TUTU AREA ANNA'S RETREAT,TUTU,801,ST. THOMAS,N,N,,,18.341667,-64.885,09/29/95
3,DC,WASHINGTON NAVY YARD,300031,,DC9170024310,"901 M STREET, SE",WASHINGTON,20374,DISTRICT OF COLUMBIA,Y,N,,,38.875,-76.9875,07/28/98
3,DE,ARMY CREEK LANDFILL,300086,,DED980494496,RTE 13 + RTE 40,NEW CASTLE,19720,NEW CASTLE,N,N,,,39.653061,-75.608331,09/08/83
3,DE,BLADES GROUNDWATER,304203,,DEN000304203,NEAR TRIANGLE PARK AT INTERSECTION OF W. 7TH STREET AND 8TH STREET,BLADES,19973,SUSSEX,N,N,,,38.631644,-75.610467,09/03/20
3,DE,DELAWARE CITY PVC PLANT,300091,,DED980551667,780 SCHOOL HOUSE ROAD,NEW CASTLE,19720,NEW CASTLE,N,N,,,39.586111,-75.649439,09/08/83
3,DE,DELAWARE SAND & GRAVEL LANDFILL,300034,,DED000605972,229 GRANTHAM LANE,NEW CASTLE,19720,NEW CASTLE,N,N,,,39.651389,-75.602781,09/08/83
3,DE,DOVER AIR FORCE BASE,300191,,DE8570024010,RTE 113,DOVER,19901,KENT,Y,N,,,39.127781,-75.466669,03/13/89
3,DE,DOVER GAS LIGHT CO.,300095,,DED980693550,NEW ST,DOVER,19904,KENT,N,N,,,39.1558,-75.5277,10/04/89
3,DE,"E.I. DU PONT DE NEMOURS & CO., INC. (NEWPORT PIGMENT PLANT LANDFILL)",300093,,DED980555122,JAMES & WATER STS,NEWPORT,19804,NEW CASTLE,N,N,,,39.708331,-75.609169,02/21/90
3,DE,EAST BASIN ROAD GROUNDWATER,304044,,DEN000304044,INTERSECTION OF SCHOOL LN AND RTE. 13/N DUPONT HWY.,NEW CASTLE,19720,NEW CASTLE,N,N,,,39.673092,-75.597211,03/29/23
3,DE,GEORGETOWN NORTH GROUNDWATER,304167,,DEN000304167,305 North Race Street,GEORGETOWN,19947,SUSSEX,N,N,,,38.693399,-75.383985,09/09/22
3,DE,HALBY CHEMICAL CO.,300125,,DED980830954,600 TERMINAL AVE,NEW CASTLE,19720,NEW CASTLE,N,N,,,39.718611,-75.537219,06/10/86
3,DE,"HARVEY & KNOTT DRUM, INC.",300123,,DED980713093,OLD COUNTY RD,KIRKWOOD,19708,NEW CASTLE,N,N,,,39.573331,-75.770839,09/08/83
3,DE,HOCKESSIN GROUNDWATER,303920,,DEN000303920,OLD LANCASTER PIKE AT RAILROAD CROSSING,HOCKESSIN,19707,NEW CASTLE,N,N,,,39.78752,-75.696513,05/17/18
3,DE,"KOPPERS CO., INC. (NEWPORT PLANT)",300092,,DED980552244,FOOT OF LINDBURG ST,NEWPORT,19804,NEW CASTLE,N,Y,"Delaware Nation, Oklahoma (Current)",,39.704719,-75.624169,08/30/90
3,DE,NCR CORP. (MILLSBORO PLANT),300061,,DED043958388,MITCHELL RD POB 607,MILLSBORO,19966,SUSSEX,N,N,,,38.5775,-75.283061,07/22/87
3,DE,NEWARK SOUTH GROUND WATER PLUME,306877,,DEN000306877,BLUE HEN DRIVE,NEWARK,19713,NEW CASTLE,N,N,,,39.653889,-75.735,01/18/18
3,DE,"STANDARD CHLORINE OF DELAWARE, INC.",300058,,DED041212473,745 GOVERNOR LEA RD PO 319,NEW CASTLE,19720,NEW CASTLE,N,N,,,39.599581,-75.635831,07/22/87
3,DE,TYBOUTS CORNER LANDFILL,300035,,DED000606079,US RTE 13 & DEL RTE 71,NEW CASTLE,19720,NEW CASTLE,N,N,,,39.6125,-75.653339,09/08/83
3,MD,ABERDEEN PROVING GROUND (EDGEWOOD AREA),300421,,MD2210020036,OFF RTE 40,EDGEWOOD,21010,HARFORD,Y,N,,,39.395404,-76.30773,02/21/90
3,MD,ABERDEEN PROVING GROUND (MICHAELSVILLE LANDFILL),300423,,MD3210021355,OFF RTE 40,ABERDEEN,21005,HARFORD,Y,N,,,39.4606,-76.1414,10/04/89
3,MD,ANDREWS AIR FORCE BASE,300420,,MD0570024000,ALLENTOWN ROAD,ANDREWS AIR FORCE BASE,20762,PRINCE GEORGE'S,Y,N,,,38.791667,-76.875,05/10/99
3,MD,BEAR CREEK SEDIMENTS,305762,,MDN000305762,"Northwest off-shore sediments at Sparrows Point, originating at Tin Mill Canal outfall",SPARROWS POINT,21219,BALTIMORE,N,N,,,39.227598,-76.491127,03/16/22
3,MD,BELTSVILLE AGRICULTURAL RESEARCH CENTER (USDA),300415,,MD0120508940,BEAVERDAM AND SHEEP ROADS,BELTSVILLE,20705,PRINCE GEORGE'S,Y,N,,,39.029166,-76.884583,05/31/94
3,MD,BRANDYWINE DRMO,304462,,MD9570024803,BRANDYWINE ROAD AND CHERRY TREE CROSSING,BRANDYWINE,20613,PRINCE GEORGE'S,Y,N,,,38.698056,-76.845,05/10/99
3,MD,BUSH VALLEY LANDFILL,300258,,MDD980504195,BUSH RD POB 246,ABINGDON,21009,HARFORD,N,N,,,39.467219,-76.26195,03/31/89
3,MD,CENTRAL CHEMICAL (HAGERSTOWN),303260,,MDD003061447,MITCHELL AVE,HAGERSTOWN,21742,WASHINGTON,N,N,,,39.656667,-77.723611,09/25/97
3,MD,CURTIS BAY COAST GUARD YARD,304341,,MD4690307844,2401 HAWKINS POINT RD,BALTIMORE,21226,ANNE ARUNDEL,Y,N,,,39.2,-76.572694,09/05/02
3,MD,DWYER PROPERTY GROUND WATER PLUME,303618,,MDD985366756,NE OF INT. OF MD RTE 545 AND MD RTE 279,ELKTON,21921,CECIL,N,N,,,39.612007,-75.844474,03/10/11
3,MD,FORT DETRICK AREA B GROUND WATER,304606,,MDD985397249,810 SCHREIDER STREET,FREDERICK,21702,FREDERICK,Y,N,,,39.434442,-77.446769,04/09/09
3,MD,FORT GEORGE G. MEADE,300435,,MD9210020567,MARYLAND ROUTE 175,ODENTON,21113,ANNE ARUNDEL,Y,N,,,39.083333,-76.715278,07/28/98
3,MD,INDIAN HEAD NAVAL SURFACE WARFARE CENTER,300430,,MD7170024684,201 INDIAN HEAD HIGHWAY,INDIAN HEAD,20640,CHARLES,Y,N,,,38.591389,-77.174306,09/29/95
3,MD,KANE & LOMBARD STREET DRUMS,300344,,MDD980923783,KANE & LOMBARD STS,BALTIMORE,21224,BALTIMORE CITY,N,N,,,39.2956,-76.5419,06/10/86
3,MD,LIMESTONE ROAD,300292,,MDD980691588,LIMESTONE RD OFF RTE 51,CUMBERLAND,21502,ALLEGANY,N,N,,,39.626389,-78.722219,09/08/83
3,MD,"ORDNANCE PRODUCTS, INC.",303253,,MDD982364341,1079 MECHANICS VALLEY RD,NORTH EAST,21901,CECIL,N,N,,,39.630833,-75.923889,09/25/97
3,MD,PATUXENT RIVER NAVAL AIR STATION,300429,,MD7170024536,OPPOSITE LEXINGTON PARK (STATE HWY 235),PATUXENT RIVER,20670,ST. MARY'S,Y,N,,,38.270694,-76.419444,05/31/94
3,MD,"SAND, GRAVEL AND STONE",300316,,MDD980705164,RTE 40,ELKTON,21921,CECIL,N,N,,,39.615281,-75.896389,09/08/83
3,MD,SAUER DUMP,300348,,MDD981038334,4225 LYNHURST ROAD,DUNDALK,21222,BALTIMORE,N,N,,,39.270267,-76.45271,03/15/12
3,MD,"SPECTRON, INC.",300192,,MDD000218008,111 PROVIDENCE RD,ELKTON,21921,CECIL,N,N,,,39.691249,-75.877778,05/31/94
3,MD,WOODLAWN COUNTY LANDFILL,300265,,MDD980504344,FIRE TOWER & WAIBEL RDS.,COLORA,21917,CECIL,N,N,,,39.641669,-76.09,07/22/87
3,PA,A.I.W. FRANK/MID-COUNTY MUSTANG,300773,,PAD004351003,INT RTE 202 & RTE 30,EXTON,19341,CHESTER,N,N,,,40.031811,-75.6032,10/04/89
3,PA,AVCO LYCOMING (WILLIAMSPORT DIVISION),300699,,PAD003053709,652 OLIVER ST,WILLIAMSPORT,17701,LYCOMING,N,N,,,41.244031,-77.041111,02/21/90
3,PA,BAGHURST DRIVE,306939,,PAN000306939,NORTHERN INTERSECTION OF HENDRICKS ROAD AND BAGHURST DRIVE,HARLEYSVILLE,19438,MONTGOMERY,N,N,,,40.299483,-75.455133,09/22/14
3,PA,BALLY GROUND WATER CONTAMINATION,301029,,PAD061105128,ROUTE 100 20 N THIRD STREET,BALLY,19503,BERKS,N,N,,,40.3984,-75.5933,07/22/87
3,PA,BELL LANDFILL,301509,,PAD980705107,325 PARKER ROAD,TERRY TOWNSHIP,18853,BRADFORD,N,N,,,41.633061,-76.389169,10/04/89
3,PA,BENDIX FLIGHT SYSTEMS DIVISION,300694,,PAD003047974,MONTROSE PLT,SOUTH MONTROSE,18843,SUSQUEHANNA,N,N,,,41.797361,-75.88625,07/22/87
3,PA,BERKS SAND PIT,301434,,PAD980691794,UNOBTAINABLE,LONGSWAMP TOWNSHIP,19539,BERKS,N,N,,,40.4646,-75.6273,09/21/84
3,PA,BLOSENSKI LANDFILL,301376,,PAD980539985,ROUTE 340,WEST CALN TOWNSHIP,19376,CHESTER,N,N,,,40.02,-75.91055,09/08/83
3,PA,BOARHEAD FARMS,300963,,PAD047726161,LONELY COTTAGE DRIVE,BRIDGETON TOWNSHIP,18972,BUCKS,N,N,,,40.545831,-75.125,03/31/89
3,PA,BORIT ASBESTOS,301842,,PAD981034887,6 MAPLE STREET,AMBLER,19002,MONTGOMERY,N,N,,,40.153472,-75.228625,04/09/09
3,PA,"BRESLUBE-PENN, INC.",301139,,PAD089667695,84 MONTOUR RD,CORAOPOLIS,15108,ALLEGHENY,N,N,,,40.501389,-80.146389,06/17/96
3,PA,BROWN'S BATTERY BREAKING,301625,,PAD980831812,446 FISHER DAM RD,HAMBURG,19526,BERKS,N,N,,,40.519439,-76.001389,06/10/86
3,PA,BUTZ LANDFILL,301833,,PAD981034705,RD #5 TWP RTE 601,STROUDSBURG,18360,MONROE,N,N,,,41.0335,-75.3438,03/31/89
3,PA,CENTRE COUNTY KEPONE,300444,,PAD000436261,201 STRUBLE ROAD,STATE COLLEGE,16801,CENTRE,N,N,,,40.823611,-77.808331,09/08/83
3,PA,CHEM-FAB,300563,,PAD002323848,300 NORTH BROAD STREET,Doylestown,18901,BUCKS,N,N,,,40.315958,-75.136003,03/19/08
3,PA,COMMODORE SEMICONDUCTOR GROUP,301146,,PAD093730174,VAN BUREN & RITTENHOUSE RDS,LOWER PROVIDENCE TOWNSHIP,19403,MONTGOMERY,N,N,,,40.1241,-75.4194,10/04/89
3,PA,"CRATER RESOURCES, INC./KEYSTONE COKE CO./ALAN WOOD STEEL CO.",301193,,PAD980419097,2200 RENAISSANCE BOULEVARD,UPPER MERION TOWNSHIP,19406,MONTGOMERY,N,N,,,40.081667,-75.3425,10/14/92
3,PA,CROSSLEY FARM,302402,,PAD981740061,HUFF'S CHURCH ROAD & BLACKHEAD HILL,HEREFORD TOWNSHIP,18056,BERKS,N,N,,,40.435417,-75.620611,10/14/92
3,PA,CROYDON TCE,301849,,PAD981035009,RIVER ROAD,CROYDON TOWNSHIP,19020,BUCKS,N,N,,,40.084934,-74.8892,06/10/86
3,PA,"CRYOCHEM, INC.",300602,,PAD002360444,ROUTE 562,WORMAN,19512,BERKS,N,N,,,40.317219,-75.691669,10/04/89
3,PA,"DELTA QUARRIES & DISPOSAL, INC./STOTLER LANDFILL",301982,,PAD981038052,SAND BANK RD,ANTIS/LOGAN TWPS,16602,BLAIR,N,N,,,40.553611,-78.35445,03/31/89
3,PA,DOUGLASSVILLE DISPOSAL,300614,,PAD002384865,RTE 724,DOUGLASSVILLE,19518,BERKS,N,N,,,40.2575,-75.735281,09/08/83
3,PA,DRAKE CHEMICAL,300701,,PAD003058047,180 MYRTLE ST,LOCK HAVEN,17745,CLINTON,N,N,,,41.129169,-77.443611,09/08/83
3,PA,DUBLIN TCE SITE,302401,,PAD981740004,120 MILL ST./ WHISTLEWOOD APT-ROUTE 313,DUBLIN BOROUGH,18917,BUCKS,N,N,,,40.370892,-75.204897,08/30/90
3,PA,EAST MOUNT ZION,301426,,PAD980690549,DIENINGER ROAD,SPRINGETTSBURY TOWNSHIP,17402,YORK,N,N,,,40.0075,-76.665281,09/21/84
3,PA,EASTERN DIVERSIFIED METALS,301588,,PAD980830533,LIBERTY STREET,HOMETOWN,18522,SCHUYLKILL,N,N,,,40.829439,-75.9975,10/04/89
3,PA,ELIZABETHTOWN LANDFILL,301361,,PAD980539712,W RIDGE RD,ELIZABETHTOWN,17022,LANCASTER,N,N,,,40.132781,-76.608189,03/31/89
3,PA,FISCHER & PORTER CO.,300585,,PAD002345817,JACKSONVILLE & E COUNTY LINE RD,WARMINSTER,18974,BUCKS,N,N,,,40.183889,-75.0925,09/08/83
3,PA,FOOTE MINERAL CO.,301103,,PAD077087989,15 S BACTON HILL RD,EAST WHITELAND TOWNSHIP,19355,CHESTER,N,N,,,40.04,-75.585278,10/14/92
3,PA,FORMER EXIDE TECHNOLOGIES LAURELDALE,305561,,PAN000305561,3000 Montrose Avenue,LAURELDALE,19605,BERKS,N,N,,,40.381693,-75.908119,03/07/24
3,PA,FRANKLIN SLAG PILE (MDC),305549,,PASFN0305549,3110 CASTOR AVENUE,PHILADELPHIA,19134,PHILADELPHIA,N,N,,,39.983194,-75.083889,09/05/02
3,PA,HAVERTOWN PCP,300574,,PAD002338010,EAGLE ROAD RC DRAWER F,HAVERFORD,19083,DELAWARE,N,N,,,39.982781,-75.318611,09/08/83
3,PA,HELEVA LANDFILL,301249,,PAD980537716,Levans Road,NORTH WHITEHALL TWP,18037,LEHIGH,N,N,,,40.670831,-75.5625,09/08/83
3,PA,HELLERTOWN MANUFACTURING CO.,300623,,PAD002390748,1770 MAIN ST,HELLERTOWN,18055,NORTHAMPTON,N,N,,,40.595417,-75.340947,03/31/89
3,PA,HENDERSON ROAD,300847,,PAD009862939,372 S HENDERSON ROAD,UPPER MERION TOWNSHIP,19406,MONTGOMERY,N,N,,,40.086939,-75.35555,09/21/84
3,PA,HUNTERSTOWN ROAD,301595,,PAD980830897,RD #5,STRABAN TOWNSHIP,17325,ADAMS,N,N,,,39.85305,-77.206111,06/10/86
3,PA,INDUSTRIAL LANE,301211,,PAD980508493,INDUSTRIAL DR,WILLIAMS TOWNSHIP,18042,NORTHAMPTON,N,N,,,40.665831,-75.228611,09/21/84
3,PA,"JACKS CREEK/SITKIN SMELTING & REFINING, INC.",301569,,PAD980829493,PO BOX 708,MAITLAND,17044,MIFFLIN,N,N,,,40.641531,-77.475281,10/04/89
3,PA,"JACKSON CERAMIX, INC",300517,,PAD001222025,ROUTE 950,FALLS CREEK,15840,JEFFERSON,N,N,,,41.139167,-78.801944,09/14/05
3,PA,KEYSTONE SANITATION LANDFILL,300995,,PAD054142781,RD #1,UNION TOWNSHIP,17331,ADAMS,N,N,,,39.72445,-77.036111,07/22/87
3,PA,KIMBERTON,301432,,PAD980691703,COLD STREAM & HARES HILL ROADS,EAST PIKELAND TOWNSHIP,19442,CHESTER,N,N,,,40.12695,-75.575,09/08/83
3,PA,LETTERKENNY ARMY DEPOT (PDO AREA),302458,,PA2210090054,N FRANKLIN ST,FRANKLIN COUNTY,17201,FRANKLIN,Y,N,,,40.0075,-77.64,03/13/89
3,PA,LETTERKENNY ARMY DEPOT (SE AREA),302467,,PA6213820503,N FRANKLIN ST EXT,CHAMBERSBURG,17201,FRANKLIN,Y,N,,,39.9957,-77.6444,07/22/87
3,PA,LINDANE DUMP,301544,,PAD980712798,RTE 28 & SPRING HILL ROAD,HARRISON TOWNSHIP,15065,ALLEGHENY,N,N,,,40.6257,-79.7155,09/08/83
3,PA,LORD-SHOPE LANDFILL,301231,,PAD980508931,6262 PIEPER ROAD,GIRARD TOWNSHIP,16417,ERIE,N,N,,,41.977781,-80.3525,09/08/83
3,PA,LOWER DARBY CREEK AREA,305521,,PASFN0305521,Darby Creek and Avenue A,DARBY TOWNSHIP,19023,DELAWARE,N,N,,,39.885556,-75.267778,06/14/01
3,PA,MALVERN TCE,300868,,PAD014353445,258 N PHOENIXVILLE PK,MALVERN,19355,CHESTER,N,N,,,40.061669,-75.56805,09/08/83
3,PA,METAL BANK,300951,,PAD046557096,COTTMAN & DELAWARE AVE,PHILADELPHIA,19135,PHILADELPHIA,N,N,,,40.024169,-75.027781,09/08/83
3,PA,METRO CONTAINER CORPORATION,300939,,PAD044545895,CORNER OF WEST 2ND ST. AND PRICE STREET,TRAINER,19061,DELAWARE,N,N,,,39.824981,-75.399047,03/15/12
3,PA,MILL CREEK DUMP,301185,,PAD980231690,3081 W 17TH ST,ERIE,16505,ERIE,N,N,,,42.093331,-80.152781,09/21/84
3,PA,MODERN SANITATION LANDFILL,301322,,PAD980539068,4400 MT. PISGAH ROAD,LOWER WINDSOR TWP,17406,YORK,N,N,,,39.960561,-76.5925,06/10/86
3,PA,MW MANUFACTURING,301428,,PAD980691372,STATE ROUTE 54 AND I-80,VALLEY TOWNSHIP,17821,MONTOUR,N,N,,,40.99,-76.641669,06/10/86
3,PA,NAVAL AIR DEVELOPMENT CENTER (8 WASTE AREAS),302466,,PA6170024545,ST & JACKSONVILLE ROAD,WARMINSTER TOWNSHIP,18974,BUCKS,Y,N,,,40.1996,-75.0642,10/04/89
3,PA,NAVY SHIPS PARTS CONTROL CENTER,302460,,PA3170022104,OFF STATE HIGHWAY 641,MECHANICSBURG,17055,CUMBERLAND,Y,N,,,40.225556,-76.99361,05/31/94
3,PA,NORTH PENN - AREA 1,301156,,PAD096834494,162 N MAIN ST,SOUDERTON,18964,MONTGOMERY,N,N,,,40.3108,-75.3252,03/31/89
3,PA,NORTH PENN - AREA 12,301012,,PAD057152365,TROOPER RD,WORCESTER,19490,MONTGOMERY,N,N,,,40.1807,-75.3537,02/21/90
3,PA,NORTH PENN - AREA 2,300579,,PAD002342475,1 SPRING AVE,HATFIELD,19440,MONTGOMERY,N,N,,,40.293889,-75.297781,10/04/89
3,PA,NORTH PENN - AREA 5,301452,,PAD980692693,MAPLE DR,MONTGOMERY TOWNSHIP,18915,MONTGOMERY,N,N,,,40.2721,-75.2451,03/31/89
3,PA,NORTH PENN - AREA 6,301733,,PAD980926976,W 3RD ST,LANSDALE,19446,MONTGOMERY,N,N,,,40.248331,-75.295639,03/31/89
3,PA,NORTH PENN - AREA 7,300629,,PAD002498632,WISSAHICKON AVE,NORTH WALES,19454,MONTGOMERY,N,N,,,40.218061,-75.278889,03/31/89
3,PA,NOVAK SANITARY LANDFILL,301109,,PAD079160842,PARKLAND TERRACE RD & LAPP RD,SOUTH WHITEHALL TOWNSHIP,18104,LEHIGH,N,N,,,40.6332,-75.5611,10/04/89
3,PA,OCCIDENTAL CHEMICAL CORP./FIRESTONE TIRE & RUBBER CO.,301183,,PAD980229298,ARMAND HAMMER BLVD,LOWER POTTSGROVE TOWNSHIP,19464,MONTGOMERY,N,N,,,40.232081,-75.614169,10/04/89
3,PA,OHIO RIVER PARK,301227,,PAD980508816,GRAND AVE,NEVILLE ISLAND,15225,ALLEGHENY,N,N,,,40.518611,-80.1525,08/30/90
3,PA,OLD CITY OF YORK LANDFILL,301441,,PAD980692420,RD# 1 SOUTH RD,SEVEN VALLEYS,17360,YORK,N,N,,,39.840281,-76.759719,09/08/83
3,PA,OLD WILMINGTON ROAD GW CONTAMINATION,302420,,PAD981938939,OLD WILMINGTON ROAD,WEST CALN TOWNSHIP,19320,CHESTER,N,N,,,39.995833,-75.908333,02/04/00
3,PA,OSBORNE LANDFILL,301541,,PAD980712673,0.5 MILES E OF TOWN,GROVE CITY,16127,MERCER,N,N,,,41.161111,-80.058331,09/08/83
3,PA,PALMERTON ZINC PILE,300624,,PAD002395887,211 FRANKLIN ST,PALMERTON,18071,CARBON,N,N,,,40.808331,-75.583339,09/08/83
3,PA,PAOLI RAIL YARD,301447,,PAD980692594,RR SERVICE SHOP,PAOLI,19301,CHESTER,N,N,,,40.043189,-75.492919,08/30/90
3,PA,PRICE BATTERY LEAD SMELTER,305679,,PAN000305679,246 GRAND STREET,HAMBURG,19526,BERKS,N,N,,,40.549507,-75.980228,04/27/05
3,PA,RAYMARK,300894,,PAD039017694,220 JACKSONVILLE RD,HATBORO,19040,MONTGOMERY,N,N,,,40.179719,-75.098611,10/04/89
3,PA,REVERE CHEMICAL CO.,300982,,PAD051395499,SOUTHEAST SIDE OF ROUTE 611,NOCKAMIXON TOWNSHIP,18972,BUCKS,N,N,,,40.502781,-75.168889,07/22/87
3,PA,"RODALE MANUFACTURING CO., INC.",301744,,PAD981033285,6TH & MINOR STREETS,EMMAUS BOROUGH,18049,LEHIGH,N,N,,,40.531111,-75.493333,10/14/92
3,PA,RYELAND ROAD ARSENIC SITE,301755,,PAD981033459,RYELAND ROAD,HEIDELBERG TWP,19567,BERKS,N,N,,,40.35395,-76.175361,07/22/04
3,PA,SAEGERTOWN INDUSTRIAL AREA,301442,,PAD980692487,GRANT ST,SAEGERTOWN,16433,CRAWFORD,N,N,,,41.71884,-80.142972,02/21/90
3,PA,SAFETY LIGHT CORPORATION,304257,,PAD987295276,4150 A. OLD BERWICK ROAD,BLOOMSBURG,17815,COLUMBIA,N,N,,,41.015278,-76.376389,04/27/05
3,PA,SALFORD QUARRY,301486,,PAD980693204,610 QUARRY ROAD,LOWER SALFORD TOWNSHIP,19438,MONTGOMERY,N,N,,,40.251944,-75.382222,09/23/09
3,PA,SHARON STEEL CORP (FARRELL WORKS DISPOSAL AREA),300530,,PAD001933175,300 OHIO STREET,HERMITAGE,16159,MERCER,N,N,,,41.198611,-80.510278,07/28/98
3,PA,SHRIVER'S CORNER,301594,,PAD980830889,RD #6 ALONG RTE 394,STRABAN TOWNSHIP,17325,ADAMS,N,N,,,39.8999,-77.2055,06/10/86
3,PA,STANLEY KESSLER,300862,,PAD014269971,103 QUEENS DR,KING OF PRUSSIA,19406,MONTGOMERY,N,N,,,40.083889,-75.355,09/08/83
3,PA,TOBYHANNA ARMY DEPOT,302464,,PA5213820892,11 HAP ARNOLD BOULEVARD,TOBYHANNA,18466,MONROE,Y,N,,,41.19305,-75.419439,08/30/90
3,PA,TONOLLI CORP.,301087,,PAD073613663,RTE 54,NESQUEHONING,18240,CARBON,N,N,,,40.850561,-75.881111,10/04/89
3,PA,TYSONS DUMP,301436,,PAD980692024,310 BROWNLIE RD.,UPPER MERION TWP,19406,MONTGOMERY,N,N,,,40.111389,-75.362781,09/21/84
3,PA,UGI COLUMBIA GAS PLANT,301328,,PAD980539126,431 S. FRONT STREET,COLUMBIA,17512,LANCASTER,N,N,,,40.026207,-76.498389,05/31/94
3,PA,VALMONT TCE SITE  (FORMER - VALMONT INDUSTRIAL PARK),303307,,PAD982363970,Jaycee Drive,WEST HAZLETON,18201,LUZERNE,N,N,,,40.967778,-76.015556,09/13/01
3,PA,WALSH LANDFILL,301570,,PAD980829527,WELSH ROAD,HONEYBROOK TOWNSHIP,19344,CHESTER,N,N,,,40.119719,-75.915281,09/21/84
3,PA,WATSON JOHNSON LANDFILL,301517,,PAD980706824,E PUMPING STA RD,RICHLAND TOWNSHIP,18951,BUCKS,N,N,,,40.460139,-75.331861,09/13/01
3,PA,WESTINGHOUSE ELECTRIC CORP. (SHARON PLANT),300811,,PAD005000575,469 SHARPSVILLE AVE,SHARON,16146,MERCER,N,N,,,41.2434,-80.5058,08/30/90
3,PA,WESTINGHOUSE ELEVATOR CO. PLANT,300932,,PAD043882281,"1200BIGLERSVILLE RD, RTE 34 N",GETTYSBURG,17325,ADAMS,N,N,,,39.857219,-77.24,06/10/86
3,PA,WHITMOYER LABORATORIES,300643,,PAD003005014,19 N RAILROAD ST,JACKSON TOWNSHIP,17067,LEBANON,N,N,,,40.364719,-76.325,06/10/86
3,PA,WILLIAM DICK LAGOONS,301252,,PAD980537773,TELEGRAPH ROAD,WEST CALN TOWNSHIP,19376,CHESTER,N,N,,,40.041939,-75.898061,07/22/87
3,PA,WILLOW GROVE NAVAL AIR AND AIR RESERVE STATION,303820,,PAD987277837,RT 611 & COUNTY LINE ROAD,HORSHAM,19040,MONTGOMERY,Y,N,,,40.19222,-75.1475,09/29/95
3,VA,ABEX CORP.,302667,,VAD980551683,RANDOLPH + GREEN ST,PORTSMOUTH,23704,PORTSMOUTH CITY,N,Y,Nansemond Indian Nation (Current),,36.8265,-76.3045,08/30/90
3,VA,"ARROWHEAD ASSOCIATES, INC./SCOVILL CORP.",302565,,VAD042916361,RTE 3,MONTROSS,22520,WESTMORELAND,N,Y,"Rappahannock Tribe, Inc. (Current)",,38.086669,-76.791111,02/21/90
3,VA,"ATLANTIC WOOD INDUSTRIES, INC.",302836,,VAD990710410,3904 Burtons Point Road,PORTSMOUTH,23704,PORTSMOUTH CITY,N,Y,Nansemond Indian Nation (Current),,36.8065,-76.299,02/21/90
3,VA,"AVTEX FIBERS, INC.",302606,,VAD070358684,404 KENDRICK LANE,FRONT ROYAL,22630,WARREN,N,N,,,38.925561,-78.211669,06/10/86
3,VA,BUCKINGHAM COUNTY LANDFILL,302624,,VAD089027973,ST RTE 640 W OF US RTE 15,BUCKINGHAM,23936,BUCKINGHAM,N,N,,,37.514169,-78.516669,10/04/89
3,VA,CHISMAN CREEK,302756,,VAD980712913,WOLF TRAP RD,YORK COUNTY,23692,YORK,N,Y,Pamunkey Indian Tribe (Current); Upper Mattaponi Tribe (Current),,37.177,-76.4631,09/08/83
3,VA,"CULPEPER WOOD PRESERVERS, INC.",302592,,VAD059165282,RTE 666,CULPEPER,22701,CULPEPER,N,Y,Monacan Indian Nation (Current); Pamunkey Indian Tribe (Current); Upper Mattaponi Tribe (Former),,38.483331,-77.96,10/04/89
3,VA,DEFENSE GENERAL SUPPLY CENTER (DLA),302849,,VA3971520751,JEFFERSON DAVIS HGY,CHESTERFIELD COUNTY,23237,CHESTERFIELD,Y,Y,Chickahominy Indian Tribe (Current); Pamunkey Indian Tribe (Current),,37.4189,-77.4485,07/22/87
3,VA,FORMER NANSEMOND ORDNANCE DEPOT,302639,,VAD123933426,STATE ROUTE 135,SUFFOLK,23435,SUFFOLK CITY,N,Y,Nansemond Indian Nation (Current); Pamunkey Indian Tribe (Current); Upper Mattaponi Tribe (Former),,36.899722,-76.434722,07/22/99
3,VA,FORT EUSTIS (US ARMY),302859,,VA6210020321,END OF MULBERRY ISLAND,NEWPORT NEWS,23604,NEWPORT NEWS CITY,Y,Y,Nansemond Indian Nation (Current),,37.105,-76.568332,12/16/94
3,VA,GREENWOOD CHEMICAL CO.,302523,,VAD003125374,PO BOX 26 OFF STATE RTE 690,NEWTOWN,22943,ALBEMARLE,N,N,,,38.044719,-78.786389,07/22/87
3,VA,"H & H INC., BURN PIT",302659,,VAD980539878,10 MILES N RTE 33,FARRINGTON,23192,HANOVER,N,Y,"Chickahominy Indian Tribe--Eastern Division (Current); Rappahannock Tribe, Inc. (Current); Upper Mattaponi Tribe (Current)",,37.7243,-77.5857,03/31/89
3,VA,HIDDEN LANE LANDFILL,302762,,VAD980829030,"OFF OF PERSIMMON LN, ~3/4 MILE N OF RT 7",Sterling,20165,LOUDOUN,N,Y,"Delaware Nation, Oklahoma (Current); Monacan Indian Nation (Current); Pamunkey Indian Tribe (Current)",,39.056131,-77.424175,03/19/08
3,VA,KIM-STAN LANDFILL,302612,,VAD077923449,VA ROUTE 696,SELMA,24474,ALLEGHANY,N,N,,,37.800278,-79.861667,07/22/99
3,VA,L.A. CLARKE & SON,302542,,VAD007972482,ROUTE 608,SPOTSYLVANIA,22408,SPOTSYLVANIA,N,Y,"Pamunkey Indian Tribe (Current); Rappahannock Tribe, Inc. (Current)",,38.236111,-77.4325,06/10/86
3,VA,LANGLEY AIR FORCE BASE/NASA LANGLEY RESEARCH CENTER,303768,,VA2800005033,OFF STATE HIGHWAY 187,HAMPTON,23665,YORK,Y,Y,Pamunkey Indian Tribe (Current),,37.069999,-76.358611,05/31/94
3,VA,MARINE CORPS COMBAT DEVELOPMENT COMMAND,302840,,VA1170024722,5TH STREET,QUANTICO,22134,PRINCE WILLIAM,Y,Y,Pamunkey Indian Tribe (Former); Upper Mattaponi Tribe (Current),,38.521667,-77.29,05/31/94
3,VA,NAVAL AMPHIBIOUS BASE LITTLE CREEK,302853,,VA5170022482,SHORE DRIVE (U.S. ROUTE 60),VIRGINIA BEACH,23455,VIRGINIA BEACH CITY,Y,Y,Nansemond Indian Nation (Current); Pamunkey Indian Tribe (Current),,36.906111,-76.147778,05/10/99
3,VA,NAVAL SURFACE WARFARE CENTER - DAHLGREN,302862,,VA7170024684,2 MI E OF INTER 301 & 206,DAHLGREN,22448,KING GEORGE,Y,Y,"Rappahannock Tribe, Inc. (Current); Upper Mattaponi Tribe (Current)",,38.326667,-77.026944,10/14/92
3,VA,NAVAL WEAPONS STATION - YORKTOWN,302869,,VA8170024170,US NAVAL WEAPONS STA,YORKTOWN,23690,YORK,Y,Y,Chickahominy Indian Tribe--Eastern Division (Current); Pamunkey Indian Tribe (Current); Upper Mattaponi Tribe (Current),,37.245833,-76.588889,10/14/92
3,VA,NORFOLK NAVAL BASE (SEWELLS POINT NAVAL COMPLEX),302858,,VA6170061463,HELMICK ST,NORFOLK,23511,NORFOLK CITY,Y,Y,Nansemond Indian Nation (Current); Pamunkey Indian Tribe (Current),,36.940278,-76.300278,04/01/97
3,VA,NORFOLK NAVAL SHIPYARD,302841,,VA1170024813,VICTORY BOULEVARD,PORTSMOUTH,23709,PORTSMOUTH CITY,Y,Y,Nansemond Indian Nation (Current); Pamunkey Indian Tribe (Current); Upper Mattaponi Tribe (Former),,36.821944,-76.294722,07/22/99
3,VA,NWS YORKTOWN - CHEATHAM ANNEX,302848,,VA3170024605,"CHEATHAM ANNEX, NAVAL SUPPLY CENTER",YORKTOWN,23185,YORK,Y,Y,Nansemond Indian Nation (Former); Pamunkey Indian Tribe (Current); Upper Mattaponi Tribe (Current),,37.284722,-76.6075,12/01/00
3,VA,PECK IRON AND METAL,306115,,VAN000306115,3850 ELM AVENUE,PORTSMOUTH,23704,PORTSMOUTH CITY,N,Y,Nansemond Indian Nation (Current); Upper Mattaponi Tribe (Current),,36.809464,-76.308822,11/04/09
3,VA,"RENTOKIL, INC. (VIRGINIA WOOD PRESERVING DIVISION)",302607,,VAD071040752,OAKVIEW AVE & PEYTON STS,RICHMOND,23228,HENRICO,N,Y,Chickahominy Indian Tribe (Current); Chickahominy Indian Tribe--Eastern Division (Former); Upper Mattaponi Tribe (Current),,37.635831,-77.503611,03/31/89
3,VA,SALTVILLE WASTE DISPOSAL PONDS,302526,,VAD003127578,168 PERRYVILLE RD,SALTVILLE,24370,SMYTH,N,Y,Monacan Indian Nation (Current),,36.883339,-81.783331,09/08/83
3,VA,SAUNDERS SUPPLY CO.,302514,,VAD003117389,KINGS HWY BY CRITTENDEN & GODW,CHUCKATUCK,23432,SUFFOLK CITY,N,Y,Nansemond Indian Nation (Current),,36.86055,-76.581669,10/04/89
3,VA,ST. JULIENS CREEK ANNEX (U.S. NAVY),302852,,VA5170000181,VICTORY BOULEVARD,CHESAPEAKE,23323,CHESAPEAKE CITY,Y,Y,Nansemond Indian Nation (Current); Pamunkey Indian Tribe (Former); Upper Mattaponi Tribe (Former),,36.794167,-76.312222,07/27/00
3,VA,U.S. TITANIUM,302737,,VAD980705404,RTE 151,PINEY RIVER,22964,NELSON,N,N,,,37.708331,-79.016669,09/08/83
3,WV,ALLEGANY BALLISTICS LABORATORY (USNAVY),303171,,WV0170023691,COUNTY RTE 9,MINERAL COUNTY,26753,MINERAL,Y,N,,,39.560972,-78.843611,05/31/94
3,WV,BIG JOHN SALVAGE - HOULT ROAD,302947,,WVD054827944,HOULT ROAD,FAIRMONT,26554,MARION,N,N,,,39.497222,-80.123056,07/27/00
3,WV,"FIKE CHEMICAL, INC.",302940,,WVD047989207,W 19TH ST,NITRO,25143,PUTNAM,N,N,,,38.426669,-81.8425,09/08/83
3,WV,HANLIN-ALLIED-OLIN,303677,,WVD024185373,STATE ROUTE 2,MOUNDSVILLE,26041,MARSHALL,N,N,,,39.906667,-80.801389,07/22/99
3,WV,NORTH 25TH STREET GLASS AND ZINC,306876,,WVN000306876,N. 25TH STREET,CLARKSBURG,26301,HARRISON,N,N,,,39.297053,-80.357433,09/09/16
3,WV,PADEN CITY GROUNDWATER,304985,,WVN000304985,223 NORTH 4TH AVENUE,PADEN CITY,26159,WETZEL,N,N,,,39.60614,-80.930248,03/16/22
3,WV,RAVENSWOOD PCE,305428,,WVSFN0305428,212 WALNUT STREET APPROX. WELLS #2 AND #3,RAVENSWOOD,26164,JACKSON,N,N,,,38.951667,-81.761667,09/23/04
3,WV,SHAFFER EQUIPMENT/ARBUCKLE CREEK AREA,304017,,WVD988768909,WV ROUTE 17 (A.K.A. MINDEN ROAD),MINDEN,25879,FAYETTE,N,N,,,37.97651,-81.1265,05/15/19
3,WV,SHARON STEEL CORP (FAIRMONT COKE WORKS),302883,,WVD000800441,LAFAYETTE ST,FAIRMONT,26554,MARION,N,N,,,39.493611,-80.114444,12/23/96
3,WV,VIENNA TETRACHLOROETHENE,304759,,WVD988798401,"30TH STREET, GRAND CENTRAL AVE",VIENNA,26105,WOOD,N,N,,,39.325167,-81.548778,10/22/99
3,WV,WEST VIRGINIA ORDNANCE (USARMY),303066,,WVD980713036,ROUTE 1 BOX 125,POINT PLEASANT,25550,MASON,Y,N,,,38.926389,-82.076389,09/08/83
4,AL,ALABAMA ARMY AMMUNITION PLANT,400449,,AL6210020008,STATE HWY 235,CHILDERSBURG,35044,TALLADEGA,Y,N,,,33.3381,-86.3268,07/22/87
4,AL,"ALABAMA PLATING COMPANY, INC.",400129,,ALD004022448,570 HIGHWAY 231 NORTH,VINCENT,35178,SHELBY,N,N,,,33.399722,-86.405,09/18/12
4,AL,AMERICAN BRASS INC.,406299,,ALD981868466,HIGHWAY 134 WEST,HEADLAND,36345,HENRY,N,N,,,31.325,-85.404167,05/10/99
4,AL,ANNISTON ARMY DEPOT (SOUTHEAST INDUSTRIAL AREA),400443,,AL3210020027,OFF AL HWY 202,ANNISTON,36253,CALHOUN,Y,N,,,33.659439,-85.969439,03/13/89
4,AL,CIBA-GEIGY CORP. (MCINTOSH PLANT),400073,,ALD001221902,OFF HWY 43,MCINTOSH,36553,WASHINGTON,N,N,,,31.279,-87.9955,09/21/84
4,AL,INTERSTATE LEAD CO. (ILCO),404344,,ALD041906173,"8551 Borden Ave. SE,",LEEDS,35094,JEFFERSON,N,N,,,33.539016,-86.533258,06/10/86
4,AL,OLIN CORP. (MCINTOSH PLANT),400153,,ALD008188708,OLIN RD,MCINTOSH,36553,WASHINGTON,N,N,,,31.263889,-87.99445,09/21/84
4,AL,STAUFFER CHEMICAL CO. (COLD CREEK PLANT),400306,,ALD095688875,13500 US HWY 43 North,BUCKS,36512,MOBILE,N,N,,,30.975,-88.021389,09/21/84
4,AL,STAUFFER CHEMICAL CO. (LEMOYNE PLANT),400144,,ALD008161176,13440 Highway 43 North,AXIS,36505,MOBILE,N,N,,,30.969439,-88.0175,09/21/84
4,AL,T.H. AGRICULTURE & NUTRITION CO. (MONTGOMERY PLANT),404285,,ALD007454085,3017 BIRMINGHAM HWY,MONTGOMERY,36108,MONTGOMERY,N,N,,,32.3761,-86.3791,08/30/90
4,AL,TRIANA/TENNESSEE RIVER,405546,,ALD983166299,USAMICOM DRSMI KL,LIMESTONE/MORGAN,35898,,N,N,,,34.623503,-86.694499,09/08/83
4,AL,USARMY/NASA REDSTONE ARSENAL,405545,,AL7210020742,Postal Address is unavailable for the Site,HUNTSVILLE,35808,MADISON,Y,N,,,34.646944,-86.673055,05/31/94
4,FL,AGRICO CHEMICAL CO.,400818,,FLD980221857,118 E FAIRFIELD DR @ I-110,PENSACOLA,32505,ESCAMBIA,N,N,,,30.4512,-87.2256,10/04/89
4,FL,AIRCO PLATING CO.,400561,,FLD004145140,3636 NW 46TH STREET,MIAMI,33142,MIAMI-DADE,N,N,,,25.8152,-80.2559,02/21/90
4,FL,ALARIC AREA GW PLUME,405001,,FLD012978862,2110 N. 71ST STREET AND 14TH AVENUE,TAMPA,33619,HILLSBOROUGH,N,N,,,27.964083,-82.375139,12/01/00
4,FL,"AMERICAN CREOSOTE WORKS, INC. (PENSACOLA PLANT)",400572,,FLD008161994,701 S J ST,PENSACOLA,32501,ESCAMBIA,N,N,,,30.404719,-87.236661,09/08/83
4,FL,"ANODYNE, INC.",401044,,FLD981014368,1270 NW 165 STREET,NORTH MIAMI BEACH,33169,MIAMI-DADE,N,N,,,25.923189,-80.221531,02/21/90
4,FL,ARKLA TERRA PROPERTY,406909,,FLSFN0406909,11706 US HWY 301,THONOTOSASSA,33592,HILLSBOROUGH,N,N,,,28.057778,-82.3175,04/09/09
4,FL,CABOT/KOPPERS,400903,,FLD980709356,MAIN ST & 23RD AVE,GAINESVILLE,32601,ALACHUA,N,N,,,29.675,-82.323061,09/21/84
4,FL,CHEVRON CHEMICAL CO. (ORTHO DIVISION),400520,,FLD004064242,3100 ORANGE BLOSSOM TRAIL,ORLANDO,32804,ORANGE,N,N,,,28.578889,-81.408889,05/31/94
4,FL,"CITY INDUSTRIES, INC.",400683,,FLD055945653,3920 FORSYTH RD,ORLANDO,32807,ORANGE,N,N,,,28.601389,-81.3,10/04/89
4,FL,CONTINENTAL CLEANERS,410384,,FLD982130098,798 NORTHWEST 62ND STREET,MIAMI,33150,MIAMI-DADE,N,N,,,25.831842,-80.210178,03/15/12
4,FL,ESCAMBIA WOOD - PENSACOLA,400573,,FLD008168346,3910 N PALAFOX ST.,PENSACOLA,32522,ESCAMBIA,N,N,,,30.4553,-87.2317,12/16/94
4,FL,FLASH CLEANERS,407492,,FLD083111005,4131 NORTH FEDERAL HIGHWAY,Pompano Beach,33064,BROWARD,N,N,,,26.2824,-80.0969,09/03/08
4,FL,FLORIDA PETROLEUM REPROCESSORS,406469,,FLD984184127,3211 S.W. 50TH AVENUE,FORT LAUDERDALE,33314,BROWARD,N,N,,,26.081944,-80.215556,03/06/98
4,FL,FLORIDA STEEL CORP.,400657,,FLD050432251,18300 SW Warfield Blvd.,INDIANTOWN,34956,MARTIN,N,N,,,27.041111,-80.506111,09/08/83
4,FL,GENERAL DYNAMICS LONGWOOD,410013,,FLR000091322,1333 NORTH US HIGHWAY 17/92,LONGWOOD,32750,SEMINOLE,N,N,,,28.71662,-81.32122,09/29/10
4,FL,HARRIS CORP. (PALM BAY PLANT),400460,,FLD000602334,OFF PALM BAY BLVD,PALM BAY,32905,BREVARD,N,N,,,28.030281,-80.601389,07/22/87
4,FL,HELENA CHEMICAL CO. (TAMPA PLANT),400674,,FLD053502696,2405 N 71TH ST,TAMPA,33619,HILLSBOROUGH,N,N,,,27.963931,-82.374813,10/14/92
4,FL,HOLLINGSWORTH SOLDERLESS TERMINAL,400548,,FLD004119681,700 NW 57TH PLACE,FORT LAUDERDALE,33309,BROWARD,N,N,,,26.198331,-80.152219,09/08/83
4,FL,HOMESTEAD AIR FORCE BASE,404746,,FL7570024037,FLORIDA TURNPIKE EAST,HOMESTEAD AIR FORCE BASE,33039,MIAMI-DADE,Y,N,,,25.489444,-80.396944,08/30/90
4,FL,JACKSONVILLE NAVAL AIR STATION,401214,,FL6170024412,NAS BLDG 826,JACKSONVILLE,32212,DUVAL,Y,N,,,30.22111,-81.682777,11/21/89
4,FL,JJ SEIFERT MACHINE,410232,,FLN000410232,4202-4212 OLD US HIGHWAY 41,RUSKIN,33570,HILLSBOROUGH,N,N,,,27.678611,-82.477778,03/04/10
4,FL,KERR-MCGEE CHEMICAL CORP - JACKSONVILLE,400614,,FLD039049101,1611 TALLEYRAND AVENUE,JACKSONVILLE,32206,DUVAL,N,N,,,30.3442,-81.6265,03/04/10
4,FL,LANDIA CHEMICAL COMPANY,400627,,FLD042110841,1405 WEST OLIVE STREET,LAKELAND,33815,POLK,N,N,,,28.039444,-81.979167,05/11/00
4,FL,MADISON COUNTY SANITARY LANDFILL,404199,,FLD981019235,2060 Rocky Ford Road,MADISON,32340,MADISON,N,N,,,30.501111,-83.39375,08/30/90
4,FL,MIAMI DRUM SERVICES,400746,,FLD076027820,6601 NW 72nd Avenue,MIAMI,33166,MIAMI-DADE,N,N,,,25.837219,-80.313061,09/08/83
4,FL,MRI CORP (TAMPA),400779,,FLD088787585,9220 STANNUM STREET,TAMPA,33619,HILLSBOROUGH,N,N,,,27.96,-82.355833,12/23/96
4,FL,PEAK OIL CO./BAY DRUM CO.,400536,,FLD004091807,S.R. 574,TAMPA,33619,HILLSBOROUGH,N,N,,,27.9708,-82.3404,06/10/86
4,FL,PENSACOLA NAVAL AIR STATION,401221,,FL9170024567,NAVAL AIR STATION BUILDING 3,PENSACOLA,32508,ESCAMBIA,Y,N,,,30.357222,-87.283054,11/21/89
4,FL,"PEPPER STEEL & ALLOYS, INC.",400599,,FLD032544587,11100 NW S RIVER DR,MEDLEY,33178,MIAMI-DADE,N,N,,,25.873611,-80.353331,09/21/84
4,FL,PETROLEUM PRODUCTS CORP.,400919,,FLD980798698,14000 BLOCK PEMBROKE ROAD,PEMBROKE PARK,33024,BROWARD,N,N,,,25.9926,-80.1696,07/22/87
4,FL,PICKETTVILLE ROAD LANDFILL,400859,,FLD980556351,5150 PICKETTVILLE RD,JACKSONVILLE,32205,DUVAL,N,N,,,30.368611,-81.738889,09/08/83
4,FL,PIPER AIRCRAFT CORP./VERO BEACH WATER & SEWER DEPARTMENT,400512,,FLD004054284,PIPER DR & AVIATION BLVD,VERO BEACH,32960,INDIAN RIVER,N,N,,,27.647499,-80.415555,02/21/90
4,FL,POST AND LUMBER PRESERVING CO INC,400518,,FLD004061925,20 Post Plant Road,QUINCY,32351,GADSDEN,N,N,,,30.592472,-84.510081,08/02/17
4,FL,RALEIGH STREET DUMP,405795,,FLD984227249,WESTERN END OF RALEIGH STREET,TAMPA,33619,HILLSBOROUGH,N,N,,,27.914417,-82.410861,04/09/09
4,FL,REEVES SOUTHEASTERN GALVANIZING CORP.,400485,,FLD000824896,9510 E BROADWAY #20,TAMPA,33619,HILLSBOROUGH,N,N,,,27.9725,-82.341939,09/08/83
4,FL,SANFORD DRY CLEANERS,410335,,FLD032728032,121 SOUTH PALMETTO AVENUE,SANFORD,32771,SEMINOLE,N,N,,,28.811217,-81.265606,09/29/10
4,FL,SAPP BATTERY SALVAGE,400902,,FLD980602882,COUNTY RD C-280,COTTONDALE,32431,JACKSON,N,N,,,30.728331,-85.3925,09/08/83
4,FL,SHERWOOD MEDICAL INDUSTRIES,400637,,FLD043861392,2010 HWY 92,DELAND,32724,VOLUSIA,N,N,,,29.060831,-81.265,09/08/83
4,FL,SOLITRON MICROWAVE,400642,,FLD045459526,5675 SE Grouper Ave,STUART,34997,MARTIN,N,N,,,27.136667,-80.199167,07/28/98
4,FL,"SOUTHERN SOLVENTS, INC.",406539,,FL0001209840,4009 WEST LINEBAUGH AVENUE,TAMPA,33624,HILLSBOROUGH,N,N,,,28.040556,-82.510278,07/27/00
4,FL,STAUFFER CHEMICAL CO (TAMPA),400537,,FLD004092532,ORIENT RD & 10TH AV & TAMPA BYPASS CANAL,TAMPA,33619,HILLSBOROUGH,N,N,,,27.963056,-82.370556,12/23/96
4,FL,STAUFFER CHEMICAL CO. (TARPON SPRINGS),400578,,FLD010596013,877 ANCLOTE BOULEVARD,TARPON SPRINGS,34689,PINELLAS,N,N,,,28.166666,-82.775694,05/31/94
4,FL,SYDNEY MINE SLUDGE PONDS,400471,,FLD000648055,HWY 60/.5 MI E OF DOVER RD,BRANDON,33594,HILLSBOROUGH,N,N,,,27.929166,-82.209166,10/04/89
4,FL,TAYLOR ROAD LANDFILL,400853,,FLD980494959,TAYLOR RD,SEFFNER,33619,HILLSBOROUGH,N,N,,,28.009719,-82.29305,09/08/83
4,FL,TOWER CHEMICAL CO.,400521,,FLD004065546,14151 County R. 455 (MONTVERDE RD),CLERMONT,34711,LAKE,N,N,,,28.551389,-81.684719,09/08/83
4,FL,"TRANS CIRCUITS, INC.",400785,,FLD091471904,210 NEWMAN ROAD,LAKE PARK,33403,PALM BEACH,N,N,,,26.795278,-80.073889,02/04/00
4,FL,TYNDALL AIR FORCE BASE,401205,,FL1570024124,4756 CIVIL ENGINEERING,PANAMA CITY,32403,BAY,Y,N,,,30.0875,-85.586667,04/01/97
4,FL,"UNITED METALS, INC.",400804,,FLD098924038,1690 Highway 71,MARIANNA,32446,JACKSON,N,N,,,30.685833,-85.168056,04/30/03
4,FL,USN AIR STATION CECIL FIELD,404743,,FL5170022474,103RD ST AND NORMANDY BLVD,JACKSONVILLE,32215,DUVAL,Y,N,,,30.23861,-81.902777,11/21/89
4,FL,WHITING FIELD NAVAL AIR STATION,401208,,FL2170023244,7550 USS Essex St,MILTON,32570,SANTA ROSA,Y,N,,,30.709722,-87.020417,05/31/94
4,FL,WINGATE ROAD MUNICIPAL INCINERATOR DUMP,401078,,FLD981021470,1300 N. W. 31ST AVENUE,FORT LAUDERDALE,33311,BROWARD,N,N,,,26.1444,-80.1847,10/04/89
4,FL,ZELLWOOD GROUND WATER CONTAMINATION,400655,,FLD049985302,803 JONES AVE,ZELLWOOD,32757,ORANGE,N,N,,,28.73195,-81.613331,09/08/83
4,GA,ALTERNATE ENERGY RESOURCES INC,401411,,GAD033582461,2736 WALDEN DR,AUGUSTA,30904,RICHMOND,N,N,,,33.454194,-82.036944,04/19/06
4,GA,ARMSTRONG WORLD INDUSTRIES,410033,,GAN000410033,4520 BROADWAY ROAD,MACON,31206,BIBB,N,N,,,32.773497,-83.6516,09/16/11
4,GA,BRUNSWICK WOOD PRESERVING,405622,,GAD981024466,PERRY LANE ROAD,BRUNSWICK,31520,GLYNN,N,N,,,31.242222,-81.528056,04/01/97
4,GA,CAMILLA WOOD PRESERVING COMPANY,401395,,GAD008212409,131 EAST BENNETT STREET,CAMILLA,31730,MITCHELL,N,N,,,31.2225,-84.20333,07/28/98
4,GA,DIAMOND SHAMROCK CORP. LANDFILL,401838,,GAD990741092,W. GIRARD AVENUE,CEDARTOWN,30125,POLK,N,N,,,34.0207,-85.2717,08/30/90
4,GA,FIRESTONE TIRE & RUBBER CO. (ALBANY PLANT),401840,,GAD990855074,3300 SYLVESTER RD,ALBANY,31701,DOUGHERTY,N,N,,,31.565831,-84.053889,10/04/89
4,GA,HERCULES 009 LANDFILL,401699,,GAD980556906,BENEDICT RD & ROUTE 25,BRUNSWICK,31521,GLYNN,N,N,,,31.2049,-81.4858,09/21/84
4,GA,LCP CHEMICALS GEORGIA,401634,,GAD099303182,4014 ROSS RD,BRUNSWICK,31520,GLYNN,N,N,,,31.189444,-81.508333,06/17/96
4,GA,MACON NAVAL ORDNANCE PLANT,405304,,GAD003302676,600 GUY PAINE ROAD,MACON,31206,BIBB,N,N,,,32.777658,-83.639675,05/24/13
4,GA,MARINE CORPS LOGISTICS BASE,401879,,GA7170023694,FLEMING ROAD,ALBANY,31704,DOUGHERTY,Y,N,,,31.557219,-84.055,11/21/89
4,GA,MARZONE INC./CHEVRON CHEMICAL CO.,401854,,GAD991275686,GOLDEN ROAD,TIFTON,31794,TIFT,N,N,,,31.4289,-83.5017,10/04/89
4,GA,MATHIS BROTHERS LANDFILL (SOUTH MARBLE TOP ROAD),401732,,GAD980838619,S MARBLE TOP RD,KENSINGTON,30728,WALKER,N,N,,,34.797781,-85.377781,03/31/89
4,GA,PEACH ORCHARD RD PCE GROUNDWATER PLUME SITE,407449,,GAN000407449,INTERSECTION OF PEACH ORCHARD ROAD & LUMPKIN ROAD,AUGUSTA,30906,RICHMOND,N,N,,,33.421178,-82.015139,09/14/05
4,GA,ROBINS AIR FORCE BASE (LANDFILL #4/SLUDGE LAGOON),401869,,GA1570024330,ROBINS AFB,HOUSTON COUNTY,31098,HOUSTON,Y,N,,,32.619983,-83.582075,07/22/87
4,GA,T.H. AGRICULTURE & NUTRITION CO. (ALBANY PLANT),401428,,GAD042101261,1401 SCHLEY AVE,ALBANY,31707,DOUGHERTY,N,N,,,31.617361,-84.181661,03/31/89
4,GA,WESTSIDE LEAD,407160,,GAN000407160,431 VINE STREET NW,ATLANTA,30318,FULTON,N,N,,,33.766472,-84.407278,03/16/22
4,GA,"WOOLFOLK CHEMICAL WORKS, INC.",401315,,GAD003269578,E MAIN ST P O BOX 938,FORT VALLEY,31030,PEACH,N,N,,,32.549581,-83.884161,08/30/90
4,KY,B.F. GOODRICH,401930,,KYD006370167,KY HWY 1523,CALVERT CITY,42029,MARSHALL,N,N,,,37.0503,-88.3234,09/08/83
4,KY,"CALDWELL LACE LEATHER CO., INC.",401986,,KYD045738291,111 E CALDWELL ST,AUBURN,42206,LOGAN,N,N,,,36.8725,-86.746389,08/30/90
4,KY,DISTLER BRICKYARD,402127,,KYD980602155,US HWYS 31 & 60,WEST POINT,40177,HARDIN,N,N,,,37.989719,-85.951389,09/08/83
4,KY,DISTLER FARM,402125,,KYD980601975,Hwy 31W/Hwy 60 N. of Ohio Valley Dragway,WEST POINT,40272,JEFFERSON,N,N,,,38.006939,-85.931111,09/08/83
4,KY,"GREEN RIVER DISPOSAL, INC.",402081,,KYD980501076,KELLY CEMETARY RD,MACEO,42355,DAVIESS,N,N,,,37.88945,-86.973611,08/30/90
4,KY,MAXEY FLATS NUCLEAR DISPOSAL,402139,,KYD980729107,MAXEY FLATS RD,HILLSBORO,41049,FLEMING,N,N,,,38.2608,-83.5692,06/10/86
4,KY,NATIONAL ELECTRIC COIL CO./COOPER INDUSTRIES,405125,,KYD985069954,OLD HIGHWAY 119,DAYHOIT,40824,HARLAN,N,N,,,36.843889,-83.371389,10/14/92
4,KY,PADUCAH GASEOUS DIFFUSION PLANT (USDOE),404794,,KY8890008982,5501 HOBBS ROAD,KEVIL,42053,MCCRACKEN,Y,N,,,37.120138,-88.811111,05/31/94
4,KY,SMITH'S FARM,402059,,KYD097267413,PRYOR VALLEY RD,BROOKS,40165,BULLITT,N,N,,,38.0375,-85.733331,06/10/86
4,KY,TRI-CITY DISPOSAL CO.,402195,,KYD981028350,RTE. 1526 AT THE GRAVEL ROAD,SHEPHERDSVILLE,40109,BULLITT,N,N,,,38.047781,-85.768331,03/31/89
4,MS,AMERICAN CREOSOTE WORKS INC (LOUISVILLE),402260,,MSD004006995,RAILROAD AVE,LOUISVILLE,39339,WINSTON,N,N,,,33.111111,-89.058333,09/13/01
4,MS,"CHEMFAX, INC.",402288,,MSD008154486,THREE RIVERS ROAD AND CREOSOTE ROAD,GULFPORT,39505,HARRISON,N,N,,,30.428888,-89.089166,03/15/12
4,MS,HERCULES INC,402297,,MSD008182081,613 West 7TH ST,HATTIESBURG,39401,FORREST,N,N,,,31.3401,-89.308248,12/22/22
4,MS,KERR-MCGEE CHEMICAL CORP - COLUMBUS,402489,,MSD990866329,EAST OF INT. OF N 14TH AVE & N 20TH ST,COLUMBUS,39701,LOWNDES,N,N,,,33.509767,-88.409686,09/16/11
4,MS,MISSISSIPPI PHOSPHATES CORPORATION,403508,,MSN000403508,601 Industrial Road,PASCAGOULA,39581,JACKSON,N,N,,,30.372103,-88.491006,01/18/18
4,MS,PICAYUNE WOOD TREATING SITE,402374,,MSD065490930,403 DAVIS STREET,PICAYUNE,39466,PEARL RIVER,N,N,,,30.524444,-89.689722,07/22/04
4,MS,ROCKWELL INTERNATIONAL WHEEL & TRIM,402285,,MSD007037278,HIGHWAY 332 EAST,GRENADA,38901,GRENADA,N,N,,,33.803244,-89.801661,09/13/18
4,MS,SONFORD PRODUCTS,402405,,MSD086556388,3600 PAYNE DRIVE,FLOWOOD,39208,RANKIN,N,N,,,32.29251,-90.14222,03/07/07
4,MS,SOUTHEASTERN WOOD PRESERVING,402253,,MSD000828558,NORTHERN SIDE OF COVINGTON DRIVE,CANTON,39046,MADISON,N,N,,,32.618061,-90.018189,03/15/12
4,NC,ABC ONE HOUR CLEANERS,402718,,NCD024644494,2127 LE JEUNE BLVD.,JACKSONVILLE,28540,ONSLOW,N,N,,,34.7414,-77.3666,03/31/89
4,NC,ABERDEEN CONTAMINATED GROUND WATER,407447,,NCN000407447,"HWY 211, OLD PEE DEE RD, BLUES BRG RD",Aberdeen,28315,MOORE,N,N,,,35.1224,-79.4025,09/03/08
4,NC,ABERDEEN PESTICIDE DUMPS,403099,,NCD980843346,OFF HWY 5 W,ABERDEEN,28315,MOORE,N,N,,,35.1384,-79.4472,03/31/89
4,NC,BARBER ORCHARD,406989,,NCSFN0406989,U.S. HIGHWAY 23/74,WAYNESVILLE,28786,HAYWOOD,N,Y,Eastern Band of Cherokee Indians (Current),,35.445833,-83.063889,09/13/01
4,NC,"BENFIELD INDUSTRIES, INC.",403124,,NCD981026479,RICHLAND ST.,HAZELWOOD,28738,HAYWOOD,N,Y,Eastern Band of Cherokee Indians (Current),,35.477781,-83.004169,10/04/89
4,NC,BLUE RIDGE PLATING COMPANY,406895,,NCD044447589,171 GLENN BRIDGE ROAD,ARDEN,28704,BUNCOMBE,N,N,,,35.462372,-82.528358,09/14/05
4,NC,BYPASS 601 GROUND WATER CONTAMINATION,402753,,NCD044440303,440 HWY 29 NORTH,CONCORD,28025,CABARRUS,N,N,,,35.4096,-80.6093,06/10/86
4,NC,CAMP LEJEUNE MILITARY RES. (USNAVY),403185,,NC6170022580,NC HWY 24 & US HWY 16,ONSLOW COUNTY,28542,ONSLOW,Y,N,,,34.717781,-77.342919,10/04/89
4,NC,CAPE FEAR WOOD PRESERVING,402634,,NCD003188828,REILLY RD,FAYETTEVILLE,28303,CUMBERLAND,N,N,,,35.04945,-79.020839,07/22/87
4,NC,CAROLINA TRANSFORMER CO.,402635,,NCD003188844,1416 MIDDLE RIVER LOOP,FAYETTEVILLE,28301,CUMBERLAND,N,N,,,35.063331,-78.845,07/22/87
4,NC,CELANESE CORP. (SHELBY FIBER OPERATIONS),402687,,NCD003446721,HWY 198,SHELBY,28150,CLEVELAND,N,N,,,35.208889,-81.528339,06/10/86
4,NC,CHARLES MACON LAGOON AND DRUM STORAGE,403095,,NCD980840409,COUNTY RD 1103,CORDOVA,28330,RICHMOND,N,N,,,34.8925,-79.8375,07/22/87
4,NC,"CHEMTRONICS, INC.",402957,,NCD095459392,OLD BEE TREE RD,SWANNANOA,28778,BUNCOMBE,N,N,,,35.625,-82.434719,09/08/83
4,NC,CHERRY POINT MARINE CORPS AIR STATION,403174,,NC1170027261,ROOSEVELT BLVD. AND SLOCUM RD.,HAVELOCK,28533,CRAVEN,Y,N,,,34.9,-76.8917,12/16/94
4,NC,CRISTEX DRUM,406597,,NC0001606250,500 W. INDUSTRY DR.,OXFORD,27565,GRANVILLE,N,N,,,36.2972,-78.6067,12/12/13
4,NC,"CTS OF ASHEVILLE, INC.",402598,,NCD003149556,235 MILLS GAP ROAD,ASHEVILLE,28803,BUNCOMBE,N,N,,,35.493075,-82.505953,03/15/12
4,NC,DAVIS PARK ROAD TCE,405489,,NCD986175644,2307 DAVIS PARK ROAD,GASTONIA,28052,GASTON,N,N,,,35.231667,-81.218889,01/19/99
4,NC,"FCX, INC. (STATESVILLE PLANT)",404225,,NCD095458527,1620 W. FRONT ST.,STATESVILLE,28677,IREDELL,N,N,,,35.7865,-80.9163,02/21/90
4,NC,"FCX, INC. (WASHINGTON PLANT)",404280,,NCD981475932,GRIMES RD,WASHINGTON,27889,BEAUFORT,N,N,,,35.559581,-77.07445,03/31/89
4,NC,GEIGY CHEMICAL CORP. (ABERDEEN PLANT),404170,,NCD981927502,"Evergreen Drive off of RT.211,.4MI WEST OF SR 2063",ABERDEEN,28315,MOORE,N,N,,,35.126111,-79.406669,10/04/89
4,NC,GENERAL ELECTRIC CO/SHEPHERD FARM,402893,,NCD079044426,SPARTANBURG HWY,EAST FLAT ROCK,28726,HENDERSON,N,N,,,35.272222,-82.411111,12/16/94
4,NC,GMH ELECTRONICS,410161,,NCN000410161,1800 VIRGILINA ROAD,ROXBORO,27574,PERSON,N,N,,,36.416722,-78.941625,09/23/09
4,NC,HEMPHILL ROAD TCE,406819,,NC0002374445,HEMPHILL ROAD,GASTONIA,28056,GASTON,N,N,,,35.197933,-81.189852,12/12/13
4,NC,HOLCOMB CREOSOTE CO,402724,,NCD024900987,5016 U.S. HIGHWAY 601,YADKINVILLE,27055,YADKIN,N,N,,,36.157875,-80.675236,09/18/12
4,NC,HORTON IRON AND METAL,407480,,NCN000407480,2216 US HIGHWAY 421 N,WILMINGTON,28401,NEW HANOVER,N,N,,,34.26665,-77.954083,09/16/11
4,NC,JADCO-HUGHES FACILITY,403079,,NCD980729602,NC HWY 2035,BELMONT,28012,GASTON,N,N,,,35.275831,-81.041111,06/10/86
4,NC,JFD ELECTRONICS/CHANNEL MASTER,404327,,NCD122263825,INDUSTRY DRIVE,OXFORD,27565,GRANVILLE,N,N,,,36.299719,-78.606389,10/04/89
4,NC,KERR-MCGEE CHEMICAL CORP - NAVASSA,403028,,NCD980557805,NORTH NAVASSA ROAD,NAVASSA,28451,BRUNSWICK,N,N,,,34.247222,-77.999028,03/04/10
4,NC,"KOPPERS CO., INC. (MORRISVILLE PLANT)",402647,,NCD003200383,HWY 54 W,MORRISVILLE,27560,WAKE,N,N,,,35.8463,-78.8406,03/31/89
4,NC,NATIONAL STARCH & CHEMICAL CORP.,403168,,NCD991278953,CEDAR SPRINGS RD,SALISBURY,28144,ROWAN,N,N,,,35.6322,-80.5412,10/04/89
4,NC,NORTH BELMONT PCE,405619,,NCD986187128,510 WOODLAWN AVENUE,NORTH BELMONT,28012,GASTON,N,N,,,35.273472,-81.05125,07/22/99
4,NC,"NORTH CAROLINA STATE UNIVERSITY (LOT 86, FARM UNIT #1)",403015,,NCD980557656,CARTER-FINLEY STADIUM,RALEIGH,27607,WAKE,N,N,,,35.801816,-78.713588,06/10/86
4,NC,ORE KNOB MINE,409895,,NCN000409895,"ORE KNOB MINE RD&LTTL PK CRK RD,N NC H88",Ashe County,28640,ASHE,N,N,,,36.410011,-81.324606,09/23/09
4,NC,POTTER'S SEPTIC TANK SERVICE PITS,403122,,NCD981023260,OFF 74-76 NEAR SANDY CREEK & NORTHWEST,MACO,28451,BRUNSWICK,N,N,,,34.2846,-78.1578,03/31/89
4,NC,RAM LEATHER CARE SITE,406303,,NCD982096653,15100 ALBEMARLE ROAD,CHARLOTTE,28227,MECKLENBURG,N,N,,,35.231982,-80.602734,09/29/03
4,NC,SIGMON'S SEPTIC TANK SERVICE,406611,,NCD062555792,1268 EUFOLA ROAD,STATESVILLE,28677,IREDELL,N,N,,,35.713611,-80.974583,04/27/05
4,NC,WARD TRANSFORMER,406082,,NCD003202603,6852 MT. HERMAN ROAD,RALEIGH,27560,WAKE,N,N,,,35.901944,-78.773611,04/30/03
4,NC,WRIGHT CHEMICAL CORPORATION,402720,,NCD024766719,STATE RD. 1878,RIEGELWOOD,28456,COLUMBUS,N,N,,,34.3284,-78.2051,03/10/11
4,SC,AQUA-TECH ENVIRONMENTAL INC (GROCE LABS),403310,,SCD058754789,340 ROBINSON ROAD,GREER,29651,SPARTANBURG,N,N,,,34.9328,-82.1725,12/16/94
4,SC,BARITE HILL/NEVADA GOLDFIELDS,407714,,SCN000407714,NORTHERN SIDE OF SECONDARY HWY S-33-30,MCCORMICK,29835,MCCORMICK,N,N,,,33.87309,-82.30067,04/09/09
4,SC,BEAUNIT CORP. (CIRCULAR KNIT & DYEING PLANT),403207,,SCD000447268,206 GEORGIA AVE,FOUNTAIN INN,29644,GREENVILLE,N,N,,,34.698061,-82.216111,02/21/90
4,SC,BREWER GOLD MINE,405550,,SCD987577913,1/2 MI. N.OFINTERSECTION OF SR 265&CR110,JEFFERSON,29718,CHESTERFIELD,N,N,,,34.652194,-80.411472,04/27/05
4,SC,BURLINGTON INDUSTRIES CHERAW,404896,,SCN000404896,650 CHESTERFIELD HIGHWAY,CHERAW,29520,CHESTERFIELD,N,N,,,34.698689,-79.912786,05/17/18
4,SC,"CAROLAWN, INC.",403388,,SCD980558316,S. OF SC HWY 9 ON CO. RD 841,FORT LAWN,29714,CHESTER,N,N,,,34.686111,-80.94305,09/08/83
4,SC,CLEARWATER FINISHING,403391,,SCD003303120,300 Belvedere Rd,BEECH ISLAND,29842,AIKEN,N,N,,,33.500907,-81.89213,09/03/20
4,SC,ELMORE WASTE DISPOSAL,403409,,SCD980839542,117 HIGHLAND AVE,GREER,29651,SPARTANBURG,N,N,,,34.935905,-82.216599,03/31/89
4,SC,GALEY AND LORD PLANT,403308,,SCD058189622,670 North MAIN Street,SOCIETY HILL,29593,DARLINGTON,N,N,,,34.531528,-79.833292,03/16/22
4,SC,HELENA CHEMICAL CO. LANDFILL,403309,,SCD058753971,HWY 321 S,FAIRFAX,29827,ALLENDALE,N,N,,,32.9412,-81.239,02/21/90
4,SC,KALAMA SPECIALTY CHEMICALS,403343,,SCD094995503,PO BOX 908,BEAUFORT,29902,BEAUFORT,N,N,,,32.4734,-80.7401,09/21/84
4,SC,"KOPPERS CO., INC. (CHARLESTON PLANT)",403350,,SCD980310239,CHARLESTON HEIGHTS,CHARLESTON,29405,CHARLESTON,N,N,,,32.822083,-79.958333,12/16/94
4,SC,"LEONARD CHEMICAL CO., INC.",403481,,SCD991279324,5080 CURETON FERRY RD,ROCK HILL,29704,YORK,N,N,,,34.851669,-80.904169,09/21/84
4,SC,LEXINGTON COUNTY LANDFILL AREA,403362,,SCD980558043,US 321 1 MILE S OF I-26,CAYCE,29033,LEXINGTON,N,N,,,33.919581,-81.074169,10/04/89
4,SC,MACALLOY CORPORATION,406784,,SCD003360476,1800 PITTSBURGH AVENUE,NORTH CHARLESTON,29405,CHARLESTON,N,N,,,32.838056,-79.951194,02/04/00
4,SC,MEDLEY FARM DRUM DUMP,403371,,SCD980558142,SC HIGHWAY 18,GAFFNEY,29340,CHEROKEE,N,N,,,34.9805,-81.6685,03/31/89
4,SC,PALMETTO WOOD PRESERVING,403259,,SCD003362217,DIXIANNA RD,DIXIANA,29033,LEXINGTON,N,N,,,33.920831,-81.060281,09/21/84
4,SC,"PARA-CHEM SOUTHERN, INC.",403224,,SCD002601656,HWY 145,SIMPSONVILLE,29681,GREENVILLE,N,N,,,34.7134,-82.233,08/30/90
4,SC,PARRIS ISLAND MARINE CORPS RECRUIT DEPOT,403488,,SC6170022762,MARINE CORPS RECRUIT DEPOT,PARRIS ISLAND,29902,BEAUFORT,Y,N,,,32.3528,-80.7031,12/16/94
4,SC,ROCK HILL CHEMICAL CO.,403425,,SCD980844005,NORTH CHERRY RD,ROCK HILL,29730,YORK,N,N,,,34.9661,-80.9985,02/21/90
4,SC,"SANGAMO WESTON, INC./TWELVE-MILE CREEK/LAKE HARTWELL PCB CONTAMINATION",403252,,SCD003354412,SANGAMO RD,PICKENS,29671,PICKENS,N,N,,,34.895,-82.7232,02/21/90
4,SC,SAVANNAH RIVER SITE (USDOE),403485,,SC1890008989,BETWEEN SC 125 & US 278,AIKEN,29802,,Y,N,,,33.348889,-81.737781,11/21/89
4,SC,SCRDI BLUFF ROAD,403212,,SCD000622787,321 BLUFF RD S,COLUMBIA,29209,RICHLAND,N,N,,,33.885419,-80.90875,09/08/83
4,SC,SCRDI DIXIANA,403402,,SCD980711394,OFF SC HWY 321,CAYCE,29033,LEXINGTON,N,N,,,33.90445,-81.063889,09/08/83
4,SC,SHURON INC.,405643,,SCD003357589,100 CLINTON ST,BARNWELL,29812,BARNWELL,N,N,,,33.236694,-81.375778,12/23/96
4,SC,TOWNSEND SAW CHAIN CO.,403363,,SCD980558050,STATE ROUTE 53 & I-20,PONTIAC,29045,RICHLAND,N,N,,,34.10625,-80.834169,02/21/90
4,SC,US FINISHING/CONE MILLS,403254,,SCD003358744,3335 OLD BUNCOMBE ROAD,GREENVILLE,29617,GREENVILLE,N,N,,,34.883292,-82.426303,09/16/11
4,SC,"WAMCHEM, INC.",403275,,SCD037405362,US HWY 21 N OF AIR BASE,BURTON,29902,BEAUFORT,N,N,,,32.497219,-80.741669,09/21/84
4,TN,ALAMO CONTAMINATED GROUND WATER,410203,,TNN000410203,SOUTH BELLS STREET,ALAMO,38001,CROCKETT,N,N,,,35.784153,-89.118022,09/16/11
4,TN,"AMERICAN CREOSOTE WORKS, INC. (JACKSON PLANT)",403623,,TND007018799,307 MEADOW ST,JACKSON,38301,MADISON,N,N,,,35.61,-88.8355,06/10/86
4,TN,ARLINGTON BLENDING & PACKAGING,403838,,TND980468557,12121 HWY 70,ARLINGTON,38002,SHELBY,N,N,,,35.2996,-89.6577,07/22/87
4,TN,CARRIER AIR CONDITIONING CO.,403684,,TND044062222,97 S BYHALIA RD,COLLIERVILLE,38017,SHELBY,N,N,,,35.043331,-89.690411,02/21/90
4,TN,CLINCH RIVER CORPORATION,405465,,TND987768587,728 EMORY DRIVE,HARRIMAN,37748,ROANE,N,N,,,35.93195,-84.539381,05/24/13
4,TN,FORMER CUSTOM CLEANERS,402275,,TNN000402275,3517 Southern Avenue,MEMPHIS,38111,SHELBY,N,N,,,35.115114,-89.945,08/02/17
4,TN,MALLORY CAPACITOR CO.,403783,,TND075453688,BELEW DRIVE,WAYNESBORO,38485,WAYNE,N,N,,,35.317638,-87.758611,10/04/89
4,TN,MEMPHIS DEFENSE DEPOT (DLA),404159,,TN4210020570,2163 AIRWAYS BLVD,MEMPHIS,38114,SHELBY,Y,N,,,35.093333,-90.003333,10/14/92
4,TN,MILAN ARMY AMMUNITION PLANT,404147,,TN0210020582,HWY 104,MILAN,38358,CARROLL,Y,N,,,35.867781,-88.696111,07/22/87
4,TN,MURRAY-OHIO DUMP,404004,,TND980728836,GLENN SPRINGS RD,LAWRENCEBURG,38464,LAWRENCE,N,N,,,35.2275,-87.361111,09/08/83
4,TN,NATIONAL FIREWORKS,407047,,TNSFN0407047,9400-9600 MACON ROAD,CORDOVA,38016,SHELBY,N,N,,,35.160111,-89.751544,03/16/22
4,TN,OAK RIDGE RESERVATION (USDOE),404152,,TN1890090003,BETHEL VALLEY ROAD,OAK RIDGE,37830,,Y,N,,,35.924719,-84.390139,11/21/89
4,TN,ROSS METALS INC.,403822,,TND096070396,100 N RAILROAD STREET,ROSSVILLE,38066,FAYETTE,N,N,,,35.049167,-89.548611,04/01/97
4,TN,SMALLEY-PIPER,407378,,TNN000407378,719 PIPER STREET,COLLIERVILLE,38017,SHELBY,N,N,,,35.044444,-89.685833,04/27/05
4,TN,SMOKEY MOUNTAIN SMELTERS,406753,,TND098071061,1508 MARYVILLE PIKE,KNOXVILLE,37920,KNOX,N,N,,,35.919444,-83.925833,09/29/10
4,TN,SOUTHSIDE CHATTANOOGA LEAD,410686,,TNN000410686,195 E. 38th St.,CHATTANOOGA,37407,HAMILTON,N,N,,,35.032552,-85.300559,09/13/18
4,TN,VELSICOL CHEMICAL CORP. (HARDEMAN COUNTY),403886,,TND980559033,TOONE-TEAGUE RD,TOONE,38381,HARDEMAN,N,N,,,35.381939,-88.926389,09/08/83
4,TN,"WALKER MACHINE PRODUCTS, INC.",410124,,TNN000410124,459 WASHINGTON STREET,COLLIERVILLE,38017,SHELBY,N,N,,,35.041589,-89.653469,05/12/14
4,TN,WRIGLEY CHARCOAL PLANT,404043,,TND980844781,OLD CHARCOAL RD 1 MI S OF LYLE,WRIGLEY,37098,HICKMAN,N,N,,,35.9025,-87.353194,03/31/89
5,IL,"ACME SOLVENT RECLAIMING, INC. (MORRISTOWN PLANT)",500357,,ILD053219259,EAST OF LINDENWOOD RD,MORRISTOWN,61109,WINNEBAGO,N,N,,,42.1577,-89.0455,09/08/83
5,IL,ACME STEEL COKE PLANT,509241,,ILN000509241,11236 SOUTH TORRENCE AVE.,CHICAGO,60617,COOK,N,N,,,41.688533,-87.561392,03/07/24
5,IL,ADAMS COUNTY QUINCY LANDFILLS 2&3,500656,,ILD980607055,2 MILES NORTH OF BURTON TWP 1/2 MI WEST,QUINCY,62301,ADAMS,N,N,,,39.929444,-91.268472,08/30/90
5,IL,AMOCO CHEMICALS (JOLIET LANDFILL),500125,,ILD002994259,approx. or near 23423 Amoco Rd.,JOLIET,60410,WILL,N,N,,,41.441669,-88.172781,02/21/90
5,IL,ASARCO TAYLOR SPRINGS,508170,,ILN000508170,PUBLIC ROAD AND BROADWAY STREET,TAYLOR SPRINGS,62089,MONTGOMERY,N,N,,,39.118677,-89.505458,09/27/06
5,IL,BAUTSCH-GRAY MINE,510407,,ILN000510407,1000 SOUTH BLACKJACK ROAD,GALENA,61036,JO DAVIESS,N,N,,,42.357422,-90.398569,09/18/12
5,IL,BELOIT CORP.,500272,,ILD021440375,1165 PRAIRIE HILL Road,ROCKTON,61072,WINNEBAGO,N,N,,,42.468611,-89.06555,08/30/90
5,IL,BYRON SALVAGE YARD,500261,,ILD010236230,NW1/4 SEC 13 T24N R10E,BYRON,61010,OGLE,N,N,,,42.081667,-89.295833,09/08/83
5,IL,CENTRAL ILLINOIS PUBLIC SERVICE CO.,501082,,ILD981781065,SOUTH WEBSTER STREET,TAYLORVILLE,62568,CHRISTIAN,N,N,,,39.5404,-89.2975,08/30/90
5,IL,CHEMETCO,500342,,ILD048843809,3754 CHEMETCO LANE,HARTFORD,62048,MADISON,N,N,,,38.799,-90.098,03/04/10
5,IL,CROSS BROTHERS PAIL RECYCLING (PEMBROKE),500754,,ILD980792303,ADDRESS UNREPORTED,PEMBROKE TOWNSHIP,60944,KANKAKEE,N,N,,,41.0909,-87.5893,09/08/83
5,IL,DEPUE/NEW JERSEY ZINC/MOBIL CHEMICAL CORP.,500396,,ILD062340641,DEPOT ST & MARQUETTE ST,DEPUE,61356,BUREAU,N,N,,,41.327778,-89.304167,05/10/99
5,IL,EAGLE ZINC CO DIV T L DIAMOND,500648,,ILD980606941,218 INDUSTRIAL PARK DRIVE,HILLSBORO,62049,MONTGOMERY,N,N,,,39.161167,-89.476417,09/19/07
5,IL,ESTECH GENERAL CHEMICAL COMPANY,500521,,ILD099213498,150 MARBLE STREET,CALUMET CITY,60409,COOK,N,N,,,41.628303,-87.526905,09/30/15
5,IL,GALESBURG/KOPPERS CO.,501154,,ILD990817991,HWY 41S PO BOX 1191,GALESBURG,61401,KNOX,N,N,,,40.895831,-90.395839,09/08/83
5,IL,H.O.D. LANDFILL,500581,,ILD980605836,55 MCMILLAN ROAD,ANTIOCH,60002,LAKE,N,N,,,42.4753,-88.0819,02/21/90
5,IL,HEGELER ZINC,508134,,ILN000508134,1 HEGELER LANE,DANVILLE,61832,VERMILION,N,N,,,40.076322,-87.650092,04/27/05
5,IL,INDIAN REFINERY-TEXACO LAWRENCEVILLE,500315,,ILD042671248,SOUTH SEVENTH STREET,LAWRENCEVILLE,62439,LAWRENCE,N,N,,,38.715556,-87.682222,12/01/00
5,IL,"INTERSTATE POLLUTION CONTROL, INC.",501164,,ILT180011975,NW OF MAGNOLIA & PEOPLES AVE,ROCKFORD,61109,WINNEBAGO,N,N,,,42.241,-89.098,03/31/89
5,IL,JENNISON-WRIGHT CORPORATION,500229,,ILD006282479,900 WEST 22ND ST,GRANITE CITY,62040,MADISON,N,N,,,38.708333,-90.1525,06/17/96
5,IL,JOHNS-MANVILLE CORP.,500197,,ILD005443544,E GREENWOOD AVE,WAUKEGAN,60085,LAKE,N,N,,,42.386669,-87.811669,09/08/83
5,IL,JOLIET ARMY AMMUNITION PLANT (LOAD-ASSEMBLY-PACKING AREA),501170,,IL0210090049,HWY 53 & ARSENAL AVE,JOLIET,60434,WILL,Y,N,,,41.3662,-88.0772,03/13/89
5,IL,JOLIET ARMY AMMUNITION PLANT (MANUFACTURING AREA),501179,,IL7213820460,6MI S OF ELWOOD OFF RTE 53,JOLIET,60434,WILL,Y,N,,,41.3762,-88.1563,07/22/87
5,IL,KERR-MCGEE (KRESS CREEK/WEST BRANCH OF DUPAGE RIVER),500760,,ILD980823991,"KRESS CREEK JUST EAST OF EJ&E RR TRACKS TO MCDOWELL DAM, W.BR.DUPAGE RIVER",DUPAGE COUNTY,60185,DUPAGE,N,N,,,41.863611,-88.2093,02/11/91
5,IL,KERR-MCGEE (RESIDENTIAL AREAS),500762,,ILD980824015,ADJACENT TO PLT AT 258 ANN STREET,WEST CHICAGO,60185,DUPAGE,N,N,,,41.878333,-88.2075,08/30/90
5,IL,LAKE CALUMET CLUSTER,500078,,ILD000716852,122ND STREET AND STONY ISLAND AVENUE,CHICAGO,60633,COOK,N,N,,,41.679444,-87.568889,03/04/10
5,IL,LASALLE ELECTRIC UTILITIES,500755,,ILD980794333,ST VINCENT RD,LA SALLE,61301,LA SALLE,N,N,,,41.354169,-89.0975,09/08/83
5,IL,"LENZ OIL SERVICE, INC.",500199,,ILD005451711,RTE 83 & JEANES RD,LEMONT,60439,DUPAGE,N,N,,,41.7068,-87.9422,10/04/89
5,IL,MATTHIESSEN AND HEGELER ZINC COMPANY,507364,,IL0000064782,"PARTS OF SECT. 10, 11, 14 & 15, T33N-R1E",LA SALLE,61301,LA SALLE,N,N,,,41.34215,-89.083067,09/29/03
5,IL,MIG/DEWANE LANDFILL,500551,,ILD980497788,6505 Logan Avenue,BELVIDERE,61008,BOONE,N,N,,,42.255917,-88.806944,08/30/90
5,IL,NL INDUSTRIES/TARACORP LEAD SMELTER,500507,,ILD096731468,16TH & CLEVELAND BLVD,GRANITE CITY,62040,MADISON,N,N,,,38.695,-90.158331,06/10/86
5,IL,OLD AMERICAN ZINC PLANT,507352,,IL0000034355,JUNCTION OF 45TH ST AND COOKSON ROAD,FAIRMONT CITY,62201,ST. CLAIR,N,N,,,38.648,-90.099,04/07/16
5,IL,OTTAWA RADIATION AREAS,500634,,ILD980606750,"RTE 6 & RTE 71, OTTAWA AREA",OTTAWA,61350,LA SALLE,N,N,,,41.351667,-88.836111,10/14/92
5,IL,OUTBOARD MARINE CORP.,500083,,ILD000802827,200 SEA HORSE DR,WAUKEGAN,60085,LAKE,N,N,,,42.365281,-87.821111,09/08/83
5,IL,PAGEL'S PIT,500628,,ILD980606685,BAXTER & LINDENWOOD RD,ROCKFORD,61109,WINNEBAGO,N,N,,,42.158331,-89.056661,06/10/86
5,IL,PARSONS CASKET HARDWARE CO.,500189,,ILD005252432,424 FAIRVIEW AVENUE,BELVIDERE,61008,BOONE,N,N,,,42.2692,-88.836,07/22/87
5,IL,SANDOVAL ZINC COMPANY,500360,,ILD053980454,BOX 263 SMELTER ROAD HIGHWAY 51,SANDOVAL,62882,MARION,N,N,,,38.613061,-89.108251,09/16/11
5,IL,SANGAMO ELECTRIC DUMP/CRAB ORCHARD NATIONAL WILDLIFE REFUGE (USDOI),501181,,IL8143609487,EAST OF STATE ROUTE 148,CARTERVILLE,62959,WILLIAMSON,Y,N,,,37.693194,-89.014722,07/22/87
5,IL,SAVANNA ARMY DEPOT ACTIVITY,501174,,IL3210020803,7MI N OF SAVANNA ON RTE 84,SAVANNA,61074,JO DAVIESS,Y,N,,,42.21,-90.313331,03/13/89
5,IL,SCHROUD PROPERTY,505540,,ILN000505540,SW of intersection of 126th Street and Avenue O,CHICAGO,60633,COOK,N,N,,,41.662606,-87.543503,11/08/19
5,IL,SOUTHEAST ROCKFORD GROUND WATER CONTAMINATION,500955,,ILD981000417,2613 S 11TH ST,ROCKFORD,61109,WINNEBAGO,N,N,,,42.230689,-89.071111,03/31/89
5,IL,"TRI-COUNTY LANDFILL CO./WASTE MANAGEMENT OF ILLINOIS, INC.",500340,,ILD048306138,7N 904 ILLINOIS ROUTE 25,ELGIN,60177,KANE,N,N,,,41.9832,-88.2712,03/31/89
5,IL,VELSICOL CHEMICAL CORP. (MARSHALL PLANT),500092,,ILD000814673,RTE 1 1MI N OF MARSHALL,MARSHALL,62441,CLARK,N,N,,,39.410831,-87.699169,09/08/83
5,IL,WAUCONDA SAND & GRAVEL,500332,,ILD047019732,BONNER & GARLAND RD,WAUCONDA,60084,LAKE,N,N,,,42.281389,-88.1375,09/08/83
5,IL,WOODSTOCK MUNICIPAL LANDFILL,500585,,ILD980605943,DAVIS ROAD,WOODSTOCK,60098,MCHENRY,N,N,,,42.2923,-88.4402,10/04/89
5,IL,YEOMAN CREEK LANDFILL,500574,,ILD980500102,1011 WASHINGTON STREET,WAUKEGAN,60085,LAKE,N,N,,,42.388889,-87.848611,03/31/89
5,IN,"AMERICAN CHEMICAL SERVICE, INC.",501373,,IND016360265,420 SOUTH COLFAX AVENUE,GRIFFITH,46319,LAKE,N,N,,,41.5142,-87.4191,09/21/84
5,IN,BECK'S LAKE,501954,,IND980904379,INTERSECTION OF WASHINGTON AND FALCON STREETS,SOUTH BEND,46619,ST. JOSEPH,N,N,,,41.676581,-86.297514,12/12/13
5,IN,BROADWAY STREET CORRIDOR GROUNDWATER CONTAMINATION,510915,,INN000510915,INTERSECTION OF BROADWAY STREET AND GRAND AVENUE,ANDERSON,46016,MADISON,N,N,,,40.1184,-85.6789,09/13/18
5,IN,CAM-OR INC.,501297,,IND005480462,STATE ROAD 2 AND HIGHWAY 421,WESTVILLE,46391,LA PORTE,N,N,,,41.546528,-86.899306,03/06/98
5,IN,CLIFF DRIVE GROUNDWATER CONTAMINATION,510272,,INN000510272,CLIFF DRIVE (AKA RIVER ROAD) AND OTTAWA ROAD,LOGANSPORT,46947,CASS,N,N,,,40.7432,-86.3803,05/15/19
5,IN,CONRAIL RAIL YARD (ELKHART),501199,,IND000715490,SR 33,ELKHART,46514,ELKHART,N,N,,,41.6634,-86.0115,08/30/90
5,IN,CONTINENTAL STEEL CORP.,501228,,IND001213503,W MARKLAND AVE,KOKOMO,46902,HOWARD,N,N,,,40.474169,-86.156299,03/31/89
5,IN,"DOUGLAS ROAD/UNIROYAL, INC., LANDFILL",501696,,IND980607881,NW INTERSECTION OF DOUGLASS AND GRAPE RD,MISHAWAKA,46544,ST. JOSEPH,N,N,,,41.7132,-86.1926,03/31/89
5,IN,ELM STREET GROUND WATER CONTAMINATION,509938,,INN000509938,ELM STREET AND HIGHWAY 41,TERRE HAUTE,47807,VIGO,N,N,,,39.476586,-87.414319,03/07/07
5,IN,ENVIROCHEM CORP.,501540,,IND084259951,865 SOUTH US HIGHWAY 421,ZIONSVILLE,46077,BOONE,N,N,,,40.02935,-86.27903,09/08/83
5,IN,FEDERATED METALS CORP WHITING,501275,,IND005444104,2230 INDIANAPOLIS BLVD,HAMMOND,46394,LAKE,N,N,,,41.672435,-87.496064,09/07/23
5,IN,FISHER-CALO,501504,,IND074315896,PO BOX 684 KINGSBURY IND PK,LA PORTE,46350,LA PORTE,N,N,,,41.5081,-86.6709,09/08/83
5,IN,FORT WAYNE REDUCTION DUMP,501799,,IND980679542,5225 OLD MAUMEE RD,FORT WAYNE,46803,ALLEN,N,N,,,41.075,-85.066669,06/10/86
5,IN,FRANKLIN STREET GROUNDWATER CONTAMINATION,510959,,INN000510959,INTERSECTION OF S. MONTGOMERY STREET AND W. MARKET STREET,SPENCER,47460,OWEN,N,N,,,39.2849,-86.7645,05/17/18
5,IN,GALEN MYERS DUMP/DRUM SALVAGE,501967,,IND980999635,11303 EDISON,OSCEOLA,46561,ST. JOSEPH,N,N,,,41.695839,-86.0875,03/31/89
5,IN,GARDEN CITY GROUND WATER PLUME,508642,,INN000508642,Intersection of Jonesville Road (State Road 11) and County Road 100 South (aka Garden Street),GARDEN CITY,47201,BARTHOLOMEW,N,N,,,39.186075,-85.930472,12/12/13
5,IN,GARY DEVELOPMENT LANDFILL,501517,,IND077005916,479 N. CLINE AVENUE,GARY,46406,LAKE,N,N,,,41.614061,-87.426447,09/16/11
5,IN,HIMCO DUMP,501596,,IND980500292,COUNTY ROAD 10 AND NAPANEE EXTENSION,ELKHART,46514,ELKHART,N,N,,,41.7073,-86.0084,02/21/90
5,IN,JACOBSVILLE NEIGHBORHOOD SOIL CONTAMINATION,508142,,INN000508142,MAIN AND ILLINOIS,EVANSVILLE,47710,VANDERBURGH,N,N,,,37.979297,-87.563989,07/22/04
5,IN,KEYSTONE CORRIDOR GROUND WATER CONTAMINATION,510399,,INN000510399,INTERSECTION OF N. KEYSTONE AVE AND E. FALL CREEK PKWY N. DRIVE,INDIANAPOLIS,46205,MARION,N,N,,,39.834722,-86.121667,12/12/13
5,IN,KOKOMO CONTAMINATED GROUND WATER PLUME,510479,,INN000510479,INTERSECTION OF S. ELIZABETH ST. AND E. VAILE AVE,KOKOMO,46901,HOWARD,N,N,,,40.479444,-86.114128,03/26/15
5,IN,LAKE SANDY JO (M&M LANDFILL),501611,,IND980500524,3615 WEST 25TH AVENUE,GARY,46404,LAKE,N,N,,,41.570839,-87.382231,09/08/83
5,IN,"LAKELAND DISPOSAL SERVICE, INC.",501482,,IND064703200,RURAL ROUTE 1,CLAYPOOL,46510,KOSCIUSKO,N,N,,,41.1475,-85.917219,03/31/89
5,IN,LANE STREET GROUND WATER CONTAMINATION,510229,,INN000510229,LANE STREET AT COUNTY ROAD 106,ELKHART,46514,ELKHART,N,N,,,41.716847,-85.921006,09/23/09
5,IN,LUSHER STREET GROUND WATER CONTAMINATION,500018,,IND982073785,IN THE VICINITY OF 1619 AVALON STREET,Elkhart,46516,ELKHART,N,N,,,41.672922,-85.996225,03/19/08
5,IN,MAIN STREET WELL FIELD,501813,,IND980794358,1120 N MAIN ST,ELKHART,46514,ELKHART,N,N,,,41.696389,-85.979161,09/08/83
5,IN,MARION (BRAGG) DUMP,501814,,IND980794366,2627-2629 CENTRAL AVE,MARION,46952,GRANT,N,N,,,40.537781,-85.633061,09/08/83
5,IN,MIDCO I,501761,,IND980615421,7400 W 15TH AVE,GARY,46406,LAKE,N,N,,,41.5895,-87.4284,09/08/83
5,IN,MIDCO II,501800,,IND980679559,5900 INDUSTRIAL HIGHWAY,GARY,46406,LAKE,N,N,,,41.622781,-87.408611,06/10/86
5,IN,NINTH AVENUE DUMP,501816,,IND980794432,7357 W NINTH AVE,GARY,46402,LAKE,N,N,,,41.5934,-87.429,09/08/83
5,IN,NORTH 5TH STREET GROUNDWATER CONTAMINATION,510667,,INN000510667,308 NORTH 5TH STREET,GOSHEN,46528,ELKHART,N,N,,,41.590439,-85.833834,03/16/22
5,IN,NORTH SHORE DRIVE,507828,,INSFN0507828,NORTH SHORE DRIVE,ELKHART,46514,ELKHART,N,N,,,41.684722,-86.055,09/22/14
5,IN,"NORTHSIDE SANITARY LANDFILL, INC",501442,,IND050530872,985 S ST RD 421,ZIONSVILLE,46077,BOONE,N,N,,,40.028331,-86.273331,09/21/84
5,IN,PIKE AND MULBERRY STREETS PCE PLUME,508678,,INN000508678,INTERSECTION OF PIKE AND MULBERRY STREET,MARTINSVILLE,46151,MORGAN,N,N,,,39.428661,-86.431789,05/24/13
5,IN,PRESTOLITE BATTERY DIVISION,501330,,IND006377048,US HIGHWAY 41N,VINCENNES,47591,KNOX,N,N,,,38.691669,-87.501661,10/04/89
5,IN,REILLY TAR & CHEMICAL CORP. (INDIANAPOLIS PLANT),501215,,IND000807107,1500 S TIBBS AVE,INDIANAPOLIS,46241,MARION,N,N,,,39.740281,-86.218331,09/21/84
5,IN,SEYMOUR RECYCLING CORP.,501404,,IND040313017,G AVE WEST - FREEMAN MUNICIPAL AIRPORT,SEYMOUR,47274,JACKSON,N,N,,,38.9352,-85.9213,09/08/83
5,IN,"TIPPECANOE SANITARY LANDFILL, INC.",501964,,IND980997639,"2801 NORTH 9TH RD, 1/2 MI N OF US 52",LAFAYETTE,47905,TIPPECANOE,N,N,,,40.456111,-86.872219,08/30/90
5,IN,"U.S. SMELTER AND LEAD REFINERY, INC.",501433,,IND047030226,5300 KENNEDY AVE,EAST CHICAGO,46312,LAKE,N,N,,,41.616758,-87.464046,04/09/09
5,IN,WAYNE WASTE OIL,501439,,IND048989479,DANIEL DR PO BOX 467,COLUMBIA CITY,46725,WHITLEY,N,N,,,41.1525,-85.476111,09/08/83
5,MI,ADAM'S PLATING,502388,,MID006522791,521 NORTH ROSEMARY,LANSING,48917,INGHAM,N,N,,,42.739439,-84.587781,03/31/89
5,MI,AIRCRAFT COMPONENTS (D & L SALES),507629,,MI0001119106,671 NORTH SHORE DRIVE,BENTON HARBOR,49022,BERRIEN,N,N,,,42.126944,-86.454444,06/17/96
5,MI,ALBION-SHERIDAN TOWNSHIP LANDFILL,502775,,MID980504450,13355 29 MILE ROAD,ALBION,49224,CALHOUN,N,N,,,42.24955,-84.7195,10/04/89
5,MI,"ALLIED PAPER, INC./PORTAGE CREEK/KALAMAZOO RIVER",502325,,MID006007306,320 EAST ALCOTT STREET,KALAMAZOO,49003,KALAMAZOO,N,Y,"Match-e-be-nash-she-wish Band of Pottawatomi Indians of Michigan (Current); Nottawaseppi Huron Band of the Potawatomi, Michigan (Current); Pokagon Band of Potawatomi Indians, Michigan and Indiana (Current)",,42.303333,-85.576083,08/30/90
5,MI,"AMERICAN ANODCO, INC.",502369,,MID006029102,28 NORTH BEARDSLEY STREET,IONIA,48846,IONIA,N,N,,,42.9875,-85.03,03/31/89
5,MI,"AUTO ION CHEMICALS, INC.",503012,,MID980794382,74 MILL STREET,KALAMAZOO,49006,KALAMAZOO,N,N,,,42.293889,-85.567219,09/08/83
5,MI,BENDIX CORP./ALLIED AUTOMOTIVE,502238,,MID005107222,3737 RED ARROW HIGHWAY,ST. JOSEPH,49085,BERRIEN,N,N,,,42.04945,-86.51195,02/21/90
5,MI,"BOFORS NOBEL, INC.",502372,,MID006030373,5025 EVANSTON AVE,MUSKEGON,49442,MUSKEGON,N,N,,,43.209364,-86.11746,03/31/89
5,MI,BUTTERWORTH #2 LANDFILL,502576,,MID062222997,1450 BUTTERWORTH ST SW,GRAND RAPIDS,49504,KENT,N,N,,,42.952219,-85.700281,09/08/83
5,MI,"CANNELTON INDUSTRIES, INC.",502931,,MID980678627,ADDRESS UNREPORTED,SAULT STE MARIE,49783,CHIPPEWA,N,Y,"Bay Mills Indian Community, Michigan (Current); Sault Ste. Marie Tribe of Chippewa Indians, Michigan (Current)",,46.488889,-84.393061,08/30/90
5,MI,CHEM CENTRAL,502743,,MID980477079,2940 STAFFORD AVE SW,WYOMING TOWNSHIP,49548,KENT,N,N,,,42.91,-85.674161,09/08/83
5,MI,CLARE WATER SUPPLY,502719,,MID980002273,CITY HALL 202 W 5TH ST,CLARE,48617,CLARE,N,N,,,43.815,-84.7625,09/21/84
5,MI,DSC MCLOUTH STEEL GIBRALTAR PLANT,510362,,MIN000510362,28000 WEST JEFFERSON STREET,GIBRALTAR,48173,WAYNE,N,N,,,42.103075,-83.200292,03/26/15
5,MI,ELECTROVOICE,502237,,MID005068143,600 CECIL STREET,BUCHANAN,49107,BERRIEN,N,N,,,41.8206,-86.3545,09/21/84
5,MI,FOREST WASTE PRODUCTS,502734,,MID980410740,8359 E FARRAND RD,OTISVILLE,48463,GENESEE,N,N,,,43.198331,-83.545831,09/08/83
5,MI,G&H LANDFILL,502735,,MID980410823,3160 23 MILE RD,UTICA,48316,MACOMB,N,N,,,42.664719,-83.077769,09/08/83
5,MI,GRAND TRAVERSE OVERALL SUPPLY CO.,502432,,MID017418559,10725 CHERRY BEND RD,GREILICKVILLE,49684,LEELANAU,N,Y,"Grand Traverse Band of Ottawa and Chippewa Indians, Michigan (Current)",,44.7944,-85.6382,09/08/83
5,MI,GRATIOT COUNTY LANDFILL,502802,,MID980506281,585 EAST JACKSON ROAD,ST. LOUIS,48880,GRATIOT,N,N,,,43.395,-84.595281,09/08/83
5,MI,"H. BROWN CO., INC.",502419,,MID017075136,2200 TURNER AVENUE NORTHWEST,GRAND RAPIDS,49544,KENT,N,N,,,43.003331,-85.678339,06/10/86
5,MI,HEDBLUM INDUSTRIES,503014,,MID980794408,1000 AUSABLE RD,OSCODA,48750,IOSCO,N,N,,,44.4113,-83.3469,09/08/83
5,MI,HI-MILL MANUFACTURING CO.,502256,,MID005341714,1704 E HIGHLAND RD,HIGHLAND,48356,OAKLAND,N,N,,,42.649831,-83.593089,02/21/90
5,MI,IONIA CITY LANDFILL,503015,,MID980794416,CLEVELAND STREET,IONIA,48846,IONIA,N,N,,,42.976669,-85.046111,09/08/83
5,MI,J & L LANDFILL,502882,,MID980609440,HAMLIN RD,ROCHESTER HILLS,48307,OAKLAND,N,N,,,42.6556,-83.0959,03/31/89
5,MI,K&L AVENUE LANDFILL,502812,,MID980506463,8606 WEST K L AVE,OSHTEMO TOWNSHIP,49009,KALAMAZOO,N,N,,,42.283331,-85.718889,09/08/83
5,MI,KAYDON CORP.,502342,,MID006016703,2860 MCCRACKEN AVE,MUSKEGON,49441,MUSKEGON,N,N,,,43.2007,-86.2908,02/21/90
5,MI,KENTWOOD LANDFILL,502165,,MID000260281,4900 WALMA AVENUE,KENTWOOD,49512,KENT,N,N,,,42.8738,-85.5906,09/08/83
5,MI,KYSOR INDUSTRIAL CORP.,502480,,MID043681840,1100 WRIGHT STREET,CADILLAC,49601,WEXFORD,N,N,,,44.2568,-85.4226,10/04/89
5,MI,"LIQUID DISPOSAL, INC.",502593,,MID067340711,49099 Ryan Road,SHELBY TOWNSHIP,48317,MACOMB,N,N,,,42.654164,-83.073574,09/08/83
5,MI,MCGRAW EDISON CORP.,502254,,MID005339676,704 N CLARK ST,ALBION,49224,CALHOUN,N,N,,,42.252219,-84.733061,09/08/83
5,MI,MCLOUTH STEEL CORP,502434,,MID017422304,1491 WEST JEFFERSON AVENUE,TRENTON,48183,WAYNE,N,N,,,42.160597,-83.170906,05/15/19
5,MI,METAMORA LANDFILL,502819,,MID980506562,Site Locational Information TBD - 3/11/2021,METAMORA,48455,LAPEER,N,N,,,42.94695,-83.274439,09/21/84
5,MI,MICHIGAN DISPOSAL SERVICE (CORK STREET LANDFILL),502202,,MID000775957,2800 E CORK ST,KALAMAZOO,49001,KALAMAZOO,N,N,,,42.2545,-85.5433,02/21/90
5,MI,MICHNER PLATING - MECHANIC STREET,505842,,MIN000505842,520 North Mechanic Street,JACKSON,49201,JACKSON,N,N,,,42.253511,-84.40701,03/16/22
5,MI,"MOTOR WHEEL, INC.",502997,,MID980702989,2401 N HIGH ST (REAR),LANSING TOWNSHIP,48906,INGHAM,N,N,,,42.760831,-84.535,06/10/86
5,MI,MUSKEGON CHEMICAL CO.,502603,,MID072569510,1725 WARNER ST,WHITEHALL,49461,MUSKEGON,N,N,,,43.3891,-86.334,02/21/90
5,MI,NORTH BRONSON INDUSTRIAL AREA,502310,,MID005480900,135 INDUSTRIAL AVE,BRONSON,49028,BRANCH,N,N,,,41.880281,-85.193339,06/10/86
5,MI,NORTHERNAIRE PLATING,502440,,MID020883609,1002 6TH ST,CADILLAC,49601,WEXFORD,N,N,,,44.265,-85.41,09/08/83
5,MI,"ORGANIC CHEMICALS, INC.",503649,,MID990858003,3291 CHICAGO DRIVE SOUTHWEST,GRANDVILLE,49418,KENT,N,N,,,42.9178,-85.7475,09/08/83
5,MI,OTT/STORY/CORDOVA CHEMICAL CO.,502566,,MID060174240,500 AGARD RD,DALTON TOWNSHIP,49445,MUSKEGON,N,N,,,43.303331,-86.256669,09/08/83
5,MI,PACKAGING CORP. OF AMERICA,503026,,MID980794747,EAST LAKE SIDE RD STRONACH TWP,FILER CITY,49634,MANISTEE,N,Y,"Little River Band of Ottawa Indians, Michigan (Current)",,44.226389,-86.273331,09/08/83
5,MI,"PARSONS CHEMICAL WORKS, INC.",502742,,MID980476907,BOX 146 RFD,GRAND LEDGE,48837,EATON,N,N,,,42.7547,-84.7677,03/31/89
5,MI,PEERLESS PLATING CO.,502373,,MID006031348,2554 GETTY STREET,MUSKEGON,49444,MUSKEGON,N,N,,,43.2056,-86.2237,08/30/90
5,MI,PMC GROUNDWATER,502332,,MID006013049,200 W LAKE ST,PETOSKEY,49770,EMMET,N,Y,"Little Traverse Bay Bands of Odawa Indians, Michigan (Current)",,45.376,-84.964,09/08/83
5,MI,RASMUSSEN'S DUMP,502686,,MID095402210,9040 SPICER RD,BRIGHTON,48116,LIVINGSTON,N,N,,,42.4544,-83.7693,09/08/83
5,MI,ROCKWELL INTERNATIONAL CORP. (ALLEGAN PLANT),502367,,MID006028062,ONE GLASS ST,ALLEGAN,49010,ALLEGAN,N,N,,,42.536669,-85.85,07/22/87
5,MI,ROSE TOWNSHIP DUMP,502756,,MID980499842,1065 DEMODE RD,ROSE TOWNSHIP,48654,OAKLAND,N,N,,,42.720831,-83.631939,09/08/83
5,MI,"ROTO-FINISH CO., INC.",502255,,MID005340088,3700 MILHAM ROAD,PORTAGE,49024,KALAMAZOO,N,N,,,42.230629,-85.633714,06/10/86
5,MI,SCA INDEPENDENT LANDFILL,502201,,MID000724930,BROADWAY & BROOKS,MUSKEGON HEIGHTS,49444,MUSKEGON,N,N,,,43.201111,-86.1425,09/08/83
5,MI,SHIAWASSEE RIVER,503020,,MID980794473,2440 W Highland Road,HOWELL,48843,LIVINGSTON,N,N,,,42.622781,-83.963611,09/08/83
5,MI,SOUTH MACOMB DISPOSAL AUTHORITY (LANDFILLS #9 AND #9A),502600,,MID069826170,approx. 21410-21798 24 Mile Road,MACOMB TOWNSHIP,48042,MACOMB,N,N,,,42.682081,-82.907389,06/10/86
5,MI,SOUTHWEST OTTAWA COUNTY LANDFILL,502845,,MID980608780,2901 N 160TH AVE,PARK TOWNSHIP,49424,OTTAWA,N,N,,,42.820419,-86.185219,09/08/83
5,MI,SPARTA LANDFILL,502168,,MID000268136,10322 ALPINE AVENUE,SPARTA TOWNSHIP,49345,KENT,N,N,,,43.1525,-85.68195,09/08/83
5,MI,SPARTAN CHEMICAL CO.,502634,,MID079300125,2539 28TH STREET SW,WYOMING,49509,KENT,N,N,,,42.915831,-85.727781,09/08/83
5,MI,SPRINGFIELD TOWNSHIP DUMP,502765,,MID980499966,12955 SHINDLER RD,DAVISBURG,48350,OAKLAND,N,N,,,42.7044,-83.5419,09/08/83
5,MI,"STATE DISPOSAL LANDFILL, INC.",502874,,MID980609341,EAST BELTLINE BETWEEN 4 MILE RD NE & 5 MILE RD NE,GRAND RAPIDS,49505,KENT,N,N,,,43.013397,-85.590506,02/21/90
5,MI,STURGIS MUNICIPAL WELLS,503000,,MID980703011,505 W CHICAGO ROAD,STURGIS,49091,ST. JOSEPH,N,N,,,41.7988,-85.4256,09/21/84
5,MI,TAR LAKE,503024,,MID980794655,NE COR SEC30 T29N R6W,MANCELONA TOWNSHIP,49659,ANTRIM,N,Y,"Grand Traverse Band of Ottawa and Chippewa Indians, Michigan (Current); Little River Band of Ottawa Indians, Michigan (Current)",,44.8866,-85.073,09/08/83
5,MI,TEN-MILE DRAIN,510063,,MIN000510063,INTERSECTION OF BON BRAE ST & HARPER AVE,ST. CLAIR SHORES,48081,MACOMB,N,N,,,42.486944,-82.899167,09/29/10
5,MI,"THERMO-CHEM, INC.",502486,,MID044567162,4331 EVANSTON AVENUE,MUSKEGON,49442,MUSKEGON,N,N,,,43.210831,-86.136669,06/10/86
5,MI,TORCH LAKE,503034,,MID980901946,STE RTE 26 N OF QUINCY MILLS,HOUGHTON COUNTY,49934,HOUGHTON,N,Y,"Keweenaw Bay Indian Community, Michigan (Current)",,47.169719,-88.397781,06/10/86
5,MI,U.S. AVIEX,503023,,MID980794556,1056 HUNTLEY RD,HOWARD TOWNSHIP,49120,CASS,N,N,,,41.8309,-86.1968,09/08/83
5,MI,VELSICOL BURN PIT,510389,,MIN000510389,1698 West Prospect Street,ST. LOUIS,48880,GRATIOT,N,N,,,43.415545,-84.623263,03/04/10
5,MI,VELSICOL CHEMICAL CORP. (MICHIGAN),502194,,MID000722439,500 N BANKSON STREET,ST. LOUIS,48880,GRATIOT,N,Y,Saginaw Chippewa Indian Tribe of Michigan (Current),,43.410561,-84.618611,09/08/83
5,MI,VERONA WELL FIELD,503011,,MID980793806,TWP 10S RTE 07W SEC 32E 1/2,BATTLE CREEK,49017,CALHOUN,N,N,,,42.341669,-85.143331,09/08/83
5,MI,WASH KING LAUNDRY,502992,,MID980701247,NW1/4 SEC22 T17N R13W,PLEASANT PLAINS TWP,49304,LAKE,N,N,,,43.8532,-85.853,09/08/83
5,MN,BAYTOWN TOWNSHIP GROUND WATER PLUME,505340,,MND982425209,35TH STREET N,BAYTOWN TOWNSHIP,55042,WASHINGTON,N,N,,,45,-92.833333,12/16/94
5,MN,BURLINGTON NORTHERN (BRAINERD/BAXTER PLANT),503688,,MND000686196,WEST CITY LIMITS,BRAINERD/BAXTER,56401,CROW WING,N,N,,,46.3532,-94.2282,09/08/83
5,MN,FMC CORP. (FRIDLEY PLANT),503738,,MND006481543,4800 E RIVER RD,FRIDLEY,55421,ANOKA,N,N,,,45.0565,-93.2762,09/08/83
5,MN,FREEWAY SANITARY LANDFILL,503760,,MND038384004,WEST 113TH STREET & I-HWY 35WEST,BURNSVILLE,55337,DAKOTA,N,N,,,44.795,-93.293331,06/10/86
5,MN,GENERAL MILLS/HENKEL CORP.,503775,,MND051441731,2010 E HENNEPIN AVE,MINNEAPOLIS,55414,HENNEPIN,N,N,,,44.99,-93.222781,09/21/84
5,MN,HIGHWAY 100 AND COUNTY ROAD 3 GROUNDWATER PLUME,506121,,MNN000506121,Highway 100 and County Road 3,"EDINA, ST. LOUIS PARK",55426,HENNEPIN,N,N,,,44.935257,-93.361654,09/03/20
5,MN,JOSLYN MANUFACTURING & SUPPLY CO.,503767,,MND044799856,49TH & FRANCE AVE,BROOKLYN CENTER,55422,HENNEPIN,N,N,,,45.045,-93.333339,09/21/84
5,MN,KOPPERS COKE,503695,,MND000819359,1000 N HAMLINE AVENUE,ST. PAUL,55104,RAMSEY,N,N,,,44.972219,-93.152781,09/08/83
5,MN,KURT MANUFACTURING CO.,503786,,MND059680165,5280 NORTHEAST MAIN STREET,FRIDLEY,55421,ANOKA,N,N,,,45.064411,-93.268361,06/10/86
5,MN,LEHILLIER/MANKATO,503892,,MND980792469,W. SIBLEY PK & LEHILLIER/SOUTH BEND TWP,LEHILLIER,56001,BLUE EARTH,N,N,,,44.153331,-94.038331,09/08/83
5,MN,LONG PRAIRIE GROUND WATER CONTAMINATION,503903,,MND980904072,LONG PRAIRIE CITY LIMITS,LONG PRAIRIE,56347,TODD,N,N,,,45.978531,-94.856639,06/10/86
5,MN,MACGILLIS & GIBBS CO./BELL LUMBER & POLE CO.,503722,,MND006192694,440 5TH AVE NW,NEW BRIGHTON,55112,RAMSEY,N,N,,,45.055,-93.194731,09/21/84
5,MN,NAVAL INDUSTRIAL RESERVE ORDNANCE PLANT,504009,,MN3170022914,4800 E RIVER RD,FRIDLEY,55421,ANOKA,Y,N,,,45.058831,-93.273669,11/21/89
5,MN,NEW BRIGHTON/ARDEN HILLS/TCAAP (USARMY),504010,,MN7213820908,JCT HWY 10 & MN HWY 96S,NEW BRIGHTON,55112,RAMSEY,Y,N,,,45.079169,-93.1975,09/08/83
5,MN,OAKDALE DUMP,503840,,MND980609515,N HADLEY AVE & N GRANADA AVE,OAKDALE,55128,WASHINGTON,N,N,,,45,-92.966669,09/08/83
5,MN,PERHAM ARSENIC SITE,503842,,MND980609572,SOUTH CO RD 8,PERHAM,56573,OTTER TAIL,N,N,,,46.587781,-95.571661,09/21/84
5,MN,REILLY TAR & CHEMICAL CORP. (ST. LOUIS PARK PLANT),503858,,MND980609804,LOUISIANA & WALKER STREET,ST. LOUIS PARK,55426,HENNEPIN,N,N,,,44.941669,-93.372219,09/08/83
5,MN,RITARI POST & POLE,503902,,MND980904064,RTE 1,SEBEKA,56477,WADENA,N,N,,,46.6608,-95.0298,07/22/87
5,MN,SOUTH ANDOVER SITE,503845,,MND980609614,2052 1/2 BUNKER LAKE RD,ANDOVER,55303,ANOKA,N,N,,,45.2179,-93.318,09/08/83
5,MN,SOUTH MINNEAPOLIS RESIDENTIAL SOIL CONTAMINATION,509136,,MNN000509136,27th Street East & 17th Avenue South B/W 31ST & 21ST ST E & HIAWATHA & 12TH,MINNEAPOLIS,55407,HENNEPIN,N,Y,Prairie Island Indian Community in the State of Minnesota (Former); Shakopee Mdewakanton Sioux Community of Minnesota (Former),,44.9528,-93.2427,09/19/07
5,MN,SOUTHEAST HENNEPIN AREA GROUNDWATER AND VAPOR,506043,,MNN000506043,Hoover St NE & Spring Street NE,MINNEAPOLIS,55413,HENNEPIN,N,N,,,44.995053,-93.217756,03/16/22
5,MN,SPRING PARK MUNICIPAL WELL FIELD,502963,,MNN000502963,4333 Warren Avenue,SPRING PARK,55384,HENNEPIN,N,N,,,44.935944,-93.633306,05/17/18
5,MN,ST. LOUIS RIVER SITE,503761,,MND039045430,MORGAN PARK,ST. LOUIS COUNTY,55808,ST. LOUIS,N,Y,"Lac du Flambeau Band of Lake Superior Chippewa Indians of the Lac du Flambeau Reservation of Wisconsin (Current); Minnesota Chippewa Tribe, Minnesota (Bois Forte Band (Nett Lake)) (Current); Minnesota Chippewa Tribe, Minnesota (Fond du Lac Band) (Current); Minnesota Chippewa Tribe, Minnesota (Grand Portage Band) (Current); Minnesota Chippewa Tribe, Minnesota (Six component reservations: Bois Forte Band (Nett Lake); Fond du Lac Band; Grand Portage Band; Leech Lake Band; Mille Lacs Band; White Earth Band) (Current); Sokaogon Chippewa Community, Wisconsin (Current)",,46.677781,-92.212219,09/21/84
5,MN,ST. REGIS PAPER CO.,503781,,MND057597940,2ND STREET SOUTH & CENTRAL AVENUE,CASS LAKE,56633,CASS,N,Y,"Minnesota Chippewa Tribe, Minnesota (Leech Lake Band) (Current); Minnesota Chippewa Tribe, Minnesota (Six component reservations: Bois Forte Band (Nett Lake); Fond du Lac Band; Grand Portage Band; Leech Lake Band; Mille Lacs Band; White Earth Band) (Current)",,47.375561,-94.60555,09/21/84
5,MN,WAITE PARK WELLS,503924,,MND981002249,"5200 Foundry Cir, St Cloud, MN","WAITE PARK, ST CLOUD",56303,STEARNS,N,N,,,45.561669,-94.215,06/10/86
5,OH,ALLIED CHEMICAL & IRONTON COKE,504336,,OHD043730217,3330 S 3RD ST,IRONTON,45638,LAWRENCE,N,N,,,38.5057,-82.658,09/08/83
5,OH,BEHR DAYTON THERMAL SYSTEM VOC PLUME,510164,,OHN000510164,1600 WEBSTER ST,DAYTON,45404,MONTGOMERY,N,N,,,39.784444,-84.179444,04/09/09
5,OH,BIG D CAMPGROUND,504684,,OHD980611735,3678 CREEK RD,KINGSVILLE,44048,ASHTABULA,N,N,,,41.904169,-80.652781,09/08/83
5,OH,CHEM-DYNE,504440,,OHD074727793,500 Joe Nuxhall Blvd,HAMILTON,45011,BUTLER,N,N,,,39.4079,-84.552,09/08/83
5,OH,COPLEY SQUARE PLAZA,507548,,OH0000563122,2777 COPLEY ROAD,COPLEY,44321,SUMMIT,N,N,,,41.092839,-81.617472,04/27/05
5,OH,DONNELSVILLE CONTAMINATED AQUIFER,510459,,OHN000510459,NORTH HAMPTON ROAD and U.S. 40,DONNELSVILLE,45319,CLARK,N,N,,,39.920558,-83.948728,09/13/18
5,OH,E.H. SCHILLING LANDFILL,504568,,OHD980509947,RTE 52 & PATRIC RD,HAMILTON TOWNSHIP,45638,LAWRENCE,N,N,,,38.5725,-82.75555,09/08/83
5,OH,EAST TROY CONTAMINATED AQUIFER,507962,,OHSFN0507962,EAST TROY ALONG WEST BANK OF MIAMI RIVER,TROY,45373,MIAMI,N,N,,,40.0381,-84.1961,09/03/08
5,OH,FEED MATERIALS PRODUCTION CENTER (USDOE),504934,,OH6890008976,2 MI W OF JUNCTION RT 128 & RT 126,FERNALD,45030,,Y,N,,,39.29945,-84.688331,11/21/89
5,OH,FIELDS BROOK,504723,,OHD980614572,WATER BED OF CREEK R3W T13N,ASHTABULA,44004,ASHTABULA,N,N,,,41.8915,-80.7754,09/08/83
5,OH,FULTZ LANDFILL,504824,,OHD980794630,CO RD 52,JACKSON TOWNSHIP,43723,GUERNSEY,N,N,,,39.984719,-81.541661,09/08/83
5,OH,INDUSTRIAL EXCESS LANDFILL,504014,,OHD000377911,4MI S INTER 619 & CLEVELAND AVENUE,UNIONTOWN,44685,STARK,N,N,,,40.968331,-81.404169,06/10/86
5,OH,LAMMERS BARREL FACTORY,504896,,OHD981537582,EAST PATTERSON & GRANGE HALL,BEAVERCREEK,45385,GREENE,N,N,,,39.726389,-84.084306,09/29/03
5,OH,LITTLE SCIOTO RIVER,509950,,OHN000509950,HOLLAND ROAD AT LITTLE SCIOTO RIVER,MARION COUNTY,43302,MARION,N,N,,,40.593061,-83.183461,09/23/09
5,OH,MIAMI COUNTY INCINERATOR,504688,,OHD980611800,2200 N COUNTY RD,TROY,45373,MIAMI,N,N,,,40.074169,-84.224169,09/21/84
5,OH,MILFORD CONTAMINATED AQUIFER,507973,,OHSFN0507973,101 RACE STREET,MILFORD,45150,CLERMONT,N,N,,,39.177814,-84.293786,03/10/11
5,OH,MOUND PLANT (USDOE),504935,,OH6890008984,MOUND RD,MIAMISBURG,45342,MONTGOMERY,Y,N,,,39.6264,-84.2862,11/21/89
5,OH,NEASE CHEMICAL,504619,,OHD980610018,BENTON RD AKA ST RTE 14A,SALEM,44460,COLUMBIANA,N,N,,,40.916669,-80.891669,09/08/83
5,OH,NEW CARLISLE LANDFILL,509238,,OHN000509238,715 N. DAYTON-LAKEVIEW ROAD,NEW CARLISLE,45344,CLARK,N,N,,,39.923333,-84.033694,04/09/09
5,OH,NEW LYME LANDFILL,504822,,OHD980794614,RTE 11 ON DODGEVILLE RD,NEW LYME,44076,ASHTABULA,N,N,,,41.584719,-80.729161,09/08/83
5,OH,NORTH SANITARY LANDFILL,504693,,OHD980611875,200 VALLEYCREST DRIVE,DAYTON,45404,MONTGOMERY,N,N,,,39.78611,-84.1525,05/31/94
5,OH,OLD MILL,504586,,OHD980510200,MILL RD & STATION,ROCK CREEK,44084,ASHTABULA,N,N,,,41.6601,-80.8456,09/08/83
5,OH,ORMET CORP.,504223,,OHD004379970,ST RTE #7,HANNIBAL,43946,MONROE,N,N,,,39.705,-80.841669,07/22/87
5,OH,PETERS CARTRIDGE FACTORY,507087,,OHD987051083,1415 GRANDIN ROAD,KINGS MILLS,45039,WARREN,N,N,,,39.350694,-84.242222,09/18/12
5,OH,POWELL ROAD LANDFILL,504015,,OHD000382663,SO SIDE OF POWELL RD 1MI W 202,HUBER HEIGHTS,45424,MONTGOMERY,N,N,,,39.833331,-84.16,09/21/84
5,OH,"PRISTINE, INC.",504445,,OHD076773712,410 CAVETT AVENUE,READING,45215,HAMILTON,N,N,,,39.236111,-84.437231,09/08/83
5,OH,REILLY TAR & CHEMICAL CORP. (DOVER PLANT),504620,,OHD980610042,THIRD ST,DOVER,44622,TUSCARAWAS,N,N,,,40.5175,-81.479,08/30/90
5,OH,"SANITARY LANDFILL CO. (INDUSTRIAL WASTE DISPOSAL CO., INC.)",504496,,OHD093895787,1855 CARDINGTON ROAD,MORAINE,45409,MONTGOMERY,N,N,,,39.716581,-84.201531,06/10/86
5,OH,SKINNER LANDFILL,504404,,OHD063963714,8750 CINCINNATI DAYTON HIGHWAY,WEST CHESTER,45069,BUTLER,N,N,,,39.333331,-84.399719,09/08/83
5,OH,SOUTH POINT PLANT,504434,,OHD071650592,OLD RTE 52 1MILE SOUTH OF OHIO RIVER,SOUTH POINT,45680,LAWRENCE,N,N,,,38.4375,-82.591669,09/21/84
5,OH,SUMMIT NATIONAL,504617,,OHD980609994,1240 ALLIANCE ROAD,DEERFIELD TOWNSHIP,44411,PORTAGE,N,N,,,41.024,-81.0971,09/08/83
5,OH,"TRW, INC. (MINERVA PLANT)",504128,,OHD004179339,3860 UNION AVE S,MINERVA,44657,STARK,N,N,,,40.745,-81.09,03/31/89
5,OH,VALLEY PIKE VOCS,510489,,OHN000510489,2949 VALLEY PIKE,RIVERSIDE,45404,MONTGOMERY,N,N,,,39.797222,-84.1325,09/09/16
5,OH,VAN DALE JUNKYARD,504821,,OHD980794606,GOOSE RUN RD,MARIETTA,45750,WASHINGTON,N,N,,,39.43195,-81.4025,06/10/86
5,OH,WEST TROY CONTAMINATED AQUIFER,508132,,OHN000508132,ADAMS STREET AND CR 25A,TROY,45373,MIAMI,N,N,,,40.046408,-84.208928,09/18/12
5,OH,WRIGHT-PATTERSON AIR FORCE BASE,504939,,OH7571724312,ST RTE 444,DAYTON,45324,,Y,N,,,39.8071,-84.0697,10/04/89
5,OH,ZANESVILLE WELL FIELD,504820,,OHD980794598,2200 LINDEN,ZANESVILLE,43701,MUSKINGUM,N,N,,,39.967781,-81.992231,09/08/83
5,WI,ALGOMA MUNICIPAL LANDFILL,505095,,WID980610380,SEC32 T25N R25E TOWN OF AHNAPEE,ALGOMA,54201,KEWAUNEE,N,N,,,44.597,-87.4912,07/22/87
5,WI,AMCAST INDUSTRIAL CORPORATION,510210,,WIN000510210,N39 W5789 HAMILTON ROAD,CEDARBURG,53012,OZAUKEE,N,N,,,43.288444,-87.982056,09/23/09
5,WI,ASHLAND/NORTHERN STATES POWER LAKEFRONT,507952,,WISFN0507952,300 ST. CLAIRE ST.,ASHLAND,54806,ASHLAND,N,Y,"Bad River Band of the Lake Superior Tribe of Chippewa Indians of the Bad River Reservation, Wisconsin (Current); Lac Vieux Desert Band of Lake Superior Chippewa Indians of Michigan (Former); Red Cliff Band of Lake Superior Chippewa Indians of Wisconsin (Current)",,46.595972,-90.883333,09/05/02
5,WI,BETTER BRITE PLATING CO. CHROME AND ZINC SHOPS,505257,,WIT560010118,500 Lande St (Chrome Shop) and 315 S 6th Street (Zinc Shop),DE PERE,54115,BROWN,N,N,,,44.438061,-88.0755,08/30/90
5,WI,CITY DISPOSAL CORP. LANDFILL,505117,,WID980610646,SAND HILL RD,DUNN,53575,DANE,N,N,,,42.946389,-89.356939,09/21/84
5,WI,DELAVAN MUNICIPAL WELL #4,505165,,WID980820062,293 SOUTH WRIGHT STREET,DELAVAN,53115,WALWORTH,N,N,,,42.631669,-88.623889,09/21/84
5,WI,HAGEN FARM,505071,,WID980610059,2318 COUNTY TRUNK HIGHWAY A,STOUGHTON,53589,DANE,N,N,,,42.9089,-89.1832,07/22/87
5,WI,HECHIMOVICH SANITARY LANDFILL,505034,,WID052906088,EAST END OF RAASCH HILL ROAD,WILLIAMSTOWN,53032,DODGE,N,N,,,43.459531,-88.554139,03/31/89
5,WI,HUNTS DISPOSAL LANDFILL,505068,,WID980511919,CO LINE RD & FOLEY RD,CALEDONIA,53108,RACINE,N,N,,,42.835,-87.88,07/22/87
5,WI,JANESVILLE ASH BEDS,504945,,WID000712950,BLACK BRIDGE RD,JANESVILLE,53545,ROCK,N,N,,,42.703061,-89.0275,09/21/84
5,WI,JANESVILLE OLD LANDFILL,505136,,WID980614044,BLACK BRIDGE ROAD,JANESVILLE,53545,ROCK,N,N,,,42.702781,-89.023611,09/21/84
5,WI,KOHLER CO. LANDFILL,504973,,WID006073225,444 HIGHLAND DRIVE,KOHLER,53044,SHEBOYGAN,N,N,,,43.7375,-87.763889,09/21/84
5,WI,LAUER I SANITARY LANDFILL,505043,,WID058735994,W124 N8925 BOUNDARY RD,MENOMONEE FALLS,53051,WAUKESHA,N,N,,,43.181389,-88.066669,09/21/84
5,WI,"LEMBERGER LANDFILL, INC.",505180,,WID980901243,ROUTE 1 HEMPTON LAKE ROAD,WHITELAW,54247,MANITOWOC,N,N,,,44.173331,-87.841669,06/10/86
5,WI,LEMBERGER TRANSPORT & RECYCLING,505040,,WID056247208,RTE 1 2MI N OF WHITELAW,FRANKLIN TOWNSHIP,54247,MANITOWOC,N,N,,,44.1655,-87.8448,09/21/84
5,WI,MADISON METROPOLITAN SEWERAGE DISTRICT LAGOONS,505057,,WID078934403,1610 MOORLAND RD,BLOOMING GROVE,53713,DANE,N,N,,,43.034311,-89.346281,02/21/90
5,WI,MASTER DISPOSAL SERVICE LANDFILL,505166,,WID980820070,SW1/4 OF SW1/4 SEC5 T7N R20E,BROOKFIELD,53005,WAUKESHA,N,N,,,43.092781,-88.163331,09/21/84
5,WI,"MID-STATE DISPOSAL, INC. LANDFILL",505170,,WID980823082,approx. 1742-1594 Big Rapids Road,CLEVELAND TOWNSHIP,54484,MARATHON,N,N,,,44.848331,-90.04,09/21/84
5,WI,"MOSS-AMERICAN CO., INC. (KERR-MCGEE OIL CO.)",505024,,WID039052626,8716 N GRANVILLE ROAD,MILWAUKEE,53244,MILWAUKEE,N,N,,,43.1772,-88.0417,09/21/84
5,WI,MUSKEGO SANITARY LANDFILL,504946,,WID000713180,HIGHWAY 24 & CROWBAR ROAD,MUSKEGO,53150,WAUKESHA,N,N,,,42.8929,-88.1829,09/21/84
5,WI,"N.W. MAUTHE CO., INC.",505061,,WID083290981,725 SOUTH OUTAGAMIE STREET,APPLETON,54914,OUTAGAMIE,N,N,,,44.25555,-88.43,03/31/89
5,WI,"NATIONAL PRESTO INDUSTRIES, INC.",505009,,WID006196174,3925 N HASTINGS WAY,EAU CLAIRE,54701,CHIPPEWA,N,N,,,44.8601,-91.452,06/10/86
5,WI,"OCONOMOWOC ELECTROPLATING CO., INC.",504986,,WID006100275,W2573 OAK STREET,ASHIPPUN,53003,DODGE,N,N,,,43.2141,-88.5221,09/21/84
5,WI,ONALASKA MUNICIPAL LANDFILL,505169,,WID980821656,SPORTMAN RD,ONALASKA,54650,LA CROSSE,N,N,,,43.9573,-91.3382,09/21/84
5,WI,PENTA WOOD PRODUCTS,506898,,WID006176945,"8682 STATE RD 70, DANIELS TOWNSHIP",DANIELS,54872,BURNETT,N,Y,St. Croix Chippewa Indians of Wisconsin (Current),,45.784508,-92.431204,06/17/96
5,WI,REFUSE HIDEAWAY LANDFILL,505114,,WID980610604,7562 U.S. Highway 14,MIDDLETON,53562,DANE,N,N,,,43.0992,-89.57727,10/14/92
5,WI,RIPON CITY LANDFILL,505078,,WID980610190,S OF COUNTY HWY FF,FOND DU LAC COUNTY,54971,FOND DU LAC,N,N,,,43.866806,-88.870556,05/31/94
5,WI,SAUK COUNTY LANDFILL,505073,,WID980610141,LANDFILL ROAD 10 MILE WEST BARABOO,EXCELSIOR,53959,SAUK,N,N,,,43.5145,-89.8775,10/04/89
5,WI,SCHMALZ DUMP,505168,,WID980820096,ROUTE 2 FIRE LANE 1,HARRISON,54911,CALUMET,N,N,,,44.21,-88.396669,09/21/84
5,WI,SHEBOYGAN HARBOR & RIVER,505188,,WID980996367,HARBOR,SHEBOYGAN,53081,SHEBOYGAN,N,N,,,43.749444,-87.70075,06/10/86
5,WI,SPICKLER LANDFILL,505181,,WID980902969,ROUTE 2 (ECKES ROAD),SPENCER,54479,MARATHON,N,N,,,44.689689,-90.265611,07/22/87
5,WI,STOUGHTON CITY LANDFILL,505177,,WID980901219,AMUNDSON PKWY & SKOGDALEN DR,STOUGHTON,53589,DANE,N,N,,,42.923889,-89.206389,06/10/86
5,WI,TOMAH MUNICIPAL SANITARY LANDFILL,505088,,WID980610307,WEST 24TH AVENUE,TOMAH,54660,MONROE,N,N,,,43.9944,-90.522,03/31/89
5,WI,UNITY AUTO MART,505544,,WIN000505544,102 North Front St.,UNITY,54488,MARATHON,N,N,,,44.85169,-90.31548,03/16/22
5,WI,"WASTE MANAGEMENT OF WISCONSIN, INC. (BROOKFIELD SANITARY LANDFILL)",505179,,WID980901235,1365 N BROOKFIELD RD,BROOKFIELD,53005,WAUKESHA,N,N,,,43.048169,-88.148111,08/30/90
5,WI,WAUSAU GROUND WATER CONTAMINATION,505186,,WID980993521,S24 & 25 T29N R7E,WAUSAU,54401,MARATHON,N,N,,,44.9773,-89.6292,06/10/86
6,AR,"ARKWOOD, INC.",600124,,ARD084930148,S. OF CITY @ CRICKETT RR JUNC.,OMAHA,72662,BOONE,N,N,,,36.445,-93.1964,03/31/89
6,AR,CEDAR CHEMICAL CORPORATION,600295,,ARD990660649,49 PHILLIPS ROAD 311 (HIGHWAY 242 SOUTH),WEST HELENA,72342,PHILLIPS,N,N,,,34.518611,-90.6525,09/18/12
6,AR,MACMILLAN RING FREE OIL,600064,,ARD008049207,MACMILLAN ROAD OFF ARKANSAS HIGHWAY 335,NORPHLET,71759,UNION,N,N,,,33.30836,-92.65688,05/12/14
6,AR,MID-SOUTH WOOD PRODUCTS,600136,,ARD092916188,HWY 71 SOUTH,MENA,71953,POLK,N,N,,,34.5697,-94.2566,09/08/83
6,AR,MOUNTAIN PINE PRESSURE TREATING,603651,,ARD049658628,HIGHWAY 28,PLAINVIEW,72857,YELL,N,N,,,34.984167,-93.302222,07/22/99
6,AR,OLD MIDLAND PRODUCTS,600216,,ARD980745665,1/2 MI E ON HIGHWAY 10,OLA/BIRTA,72853,YELL,N,N,,,35.025,-93.203889,06/10/86
6,AR,OUACHITA NEVADA WOOD TREATER,604486,,ARD042755231,N OF HWY 368 APPROX. 1/4 MI N OF READER,READER,71726,OUACHITA,N,N,,,33.759453,-93.104258,05/11/00
6,AR,"POPILE, INC.",603790,,ARD008052508,SOUTHFIELD RD. APPROX. 1/2 MI S OF CITY,EL DORADO,71730,UNION,N,N,,,33.1825,-92.673333,10/14/92
6,AR,"VERTAC, INC.",600023,,ARD000023440,MARSHALL RD,JACKSONVILLE,72076,PULASKI,N,N,,,34.878,-92.1312,09/08/83
6,LA,AGRICULTURE STREET LANDFILL,600646,,LAD981056997,ABUNDANCE STREET,NEW ORLEANS,70126,ORLEANS,N,N,,,29.98866,-90.040165,12/16/94
6,LA,AMERICAN CREOSOTE DERIDDER,604293,,LAN000604293,Washington St/Post Plant Rd,DERIDDER,70634,BEAUREGARD,N,N,,,30.831693,-93.276863,01/18/18
6,LA,"AMERICAN CREOSOTE WORKS, INC. (WINNFIELD PLANT)",600317,,LAD000239814,1006 FRONT STREET,WINNFIELD,71483,WINN,N,N,,,31.918611,-92.634722,10/14/92
6,LA,BAYOU BONFOUCA,600574,,LAD980745632,BAYOU BONFOUCA,SLIDELL,70458,ST. TAMMANY,N,N,,,30.282219,-89.784161,09/08/83
6,LA,CAPITOL LAKES,600622,,LAD980869440,NEAR INTERSTATE 110 AND CAPITOL LAKE DRIVE,BATON ROUGE,70802,EAST BATON ROUGE,N,N,,,30.460524,-91.184992,09/07/23
6,LA,COLONIAL CREOSOTE,607134,,LAN000607134,HICKORY AVE,BOGALUSA,70429,WASHINGTON,N,N,,,30.768056,-89.863889,09/30/15
6,LA,"COMBUSTION, INC.",600472,,LAD072606627,RT 1; NE OF DENHAM SPRINGS,DENHAM SPRINGS,70726,LIVINGSTON,N,N,,,30.5129,-90.8939,08/30/90
6,LA,DELTA SHIPYARD,600444,,LAD058475419,200 DEAN COURT,HOUMA,70363,TERREBONNE,N,N,,,29.565818,-90.705141,09/22/14
6,LA,EVR-WOOD TREATING/EVANGELINE REFINING COMPANY,605517,,LAN000605517,"HWY 97N,1 MILE EAST OF INTERSTATE HWY 10 Unincorporated portion of Acadia Parish",EVANGELINE,70537,ACADIA,N,N,,,30.248056,-92.6175,09/18/12
6,LA,EXIDE BATON ROUGE,600387,,LAD008184137,2400 BROOKLAWN DR,BATON ROUGE,70807,EAST BATON ROUGE,N,N,,,30.586168,-91.245026,03/07/24
6,LA,LOUISIANA ARMY AMMUNITION PLANT,600770,,LA0213820533,HWY 80 E/PO BOX 30059,DOYLINE,71130,WEBSTER,Y,N,,,32.5422,-93.421,03/13/89
6,LA,MADISONVILLE CREOSOTE WORKS,600653,,LAD981522998,"STATE HGWY 22, 2.5 MILES W OF CITY",MADISONVILLE,70447,ST. TAMMANY,N,N,,,30.427222,-90.198611,12/23/96
6,LA,MARION PRESSURE TREATING,604491,,LAD008473142,STATE HIGHWAY 551 NEAR SH 33 JUNCTION,MARION,71260,UNION,N,N,,,32.908333,-92.252944,02/04/00
6,LA,"PETRO-PROCESSORS OF LOUISIANA, INC.",600442,,LAD057482713,BROOKLAWN DRIVE,SCOTLANDVILLE,70807,EAST BATON ROUGE,N,N,,,30.583331,-91.243331,09/21/84
6,LA,SBA SHIPYARD,607497,,LAD008434185,END of State Hwy 3166 Adj to W Bank Mermentau,JENNINGS,70546,JEFFERSON DAVIS,N,N,,,30.160603,-92.612236,09/09/16
6,NM,AT&SF (ALBUQUERQUE),600879,,NMD980622864,"3300 2ND STREET , SW",ALBUQUERQUE,87102,BERNALILLO,N,N,,,35.033333,-106.655278,12/16/94
6,NM,CHEVRON QUESTA MINE,600806,,NMD002899094,NM HIGHWAY 38 RED RIVER CANYON,QUESTA,87556,TAOS,N,N,,,36.700294,-105.497706,09/16/11
6,NM,EAGLE PICHER CAREFREE BATTERY,600805,,NMD001829506,EXIT 152 I-25,SOCORRO,87801,SOCORRO,N,N,,,34.099517,-106.901239,09/19/07
6,NM,FRUIT AVENUE PLUME,604068,,NMD986668911,NEAR INTERSECTION OF EDITH AND GRAND AVE,ALBUQUERQUE,87102,BERNALILLO,N,N,,,35.086444,-106.640611,10/22/99
6,NM,GRANTS CHLORINATED SOLVENTS,605144,,NM0007271768,JEFFERSON AND NORTH FIRST STREETS,GRANTS,87020,CIBOLA,N,N,,,35.155778,-107.843889,07/22/04
6,NM,GRIGGS & WALNUT GROUND WATER PLUME,605116,,NM0002271286,153 NORTH COTTONWOOD ST.,LAS CRUCES,88004,DONA ANA,N,N,,,32.315556,-106.76,06/14/01
6,NM,HOMESTAKE MINING CO.,600816,,NMD007860935,HWY 53,MILAN,87020,CIBOLA,N,Y,"Navajo Nation, Arizona, New Mexico, & Utah (Current); Pueblo of Acoma, New Mexico (Current); Pueblo of Laguna, New Mexico (Current)",,35.243331,-107.8633,09/08/83
6,NM,JACKPILE-PAGUATE URANIUM MINE,607033,,NMN000607033,"SR279 NEAR PAGUATE, LAGUNA PUEBLO",LAGUNA PUEBLO,87040,CIBOLA,N,Y,"Pueblo of Laguna, New Mexico (Current)",,35.133728,-107.347372,12/12/13
6,NM,LEA AND WEST SECOND STREET,607057,,NMN000607057,LEA AND WEST SECOND STREET,ROSWELL,88202,CHAVES,N,N,,,33.394079,-104.529951,04/07/16
6,NM,LEE ACRES LANDFILL (USDOI),600911,,NMD980750020,NEAR FARMINGTON,FARMINGTON,87413,SAN JUAN,Y,N,,,36.7111,-108.0921,08/30/90
6,NM,MCGAFFEY AND MAIN GROUNDWATER PLUME,605386,,NM0000605386,INTERSECTION OF SOUTH MAIN MCGAFFEY,ROSWELL,88201,CHAVES,N,N,,,33.379792,-104.518722,09/05/02
6,NM,NORTH RAILROAD AVENUE PLUME,604299,,NMD986670156,162 NORTH RAILROAD AVENUE,ESPANOLA,87532,RIO ARRIBA,N,Y,"Pueblo of Santa Clara, New Mexico (Current)",,35.9914,-106.081384,01/19/99
6,NM,PREWITT ABANDONED REFINERY,600877,,NMD980622773,US HWY 66,PREWITT,87045,MCKINLEY,N,Y,"Navajo Nation, Arizona, New Mexico, & Utah (Current)",,35.3596,-108.0348,08/30/90
6,NM,SOUTH VALLEY,600881,,NMD980745558,BROADWAY & WOODWARD,ALBUQUERQUE,87105,BERNALILLO,N,N,,,35.0441,-106.6411,09/08/83
6,NM,UNITED NUCLEAR CORP.,600819,,NMD030443303,HWY 566 21 MI NE OF GALLUP,CHURCH ROCK,87311,MCKINLEY,N,Y,"Navajo Nation, Arizona, New Mexico, & Utah (Current)",,35.643331,-108.5,09/08/83
6,OK,EAGLE INDUSTRIES,607068,,OKN000607068,10901 S.E. 29th St.,MIDWEST CITY,73130,OKLAHOMA,N,Y,The Muscogee (Creek) Nation (Current),,35.435631,-97.337507,01/18/18
6,OK,FANSTEEL METALS/FMRI,601045,,OKD007221831,10 TANTALUM PLACE,MUSKOGEE,74403,MUSKOGEE,N,Y,Cherokee Nation (Current); The Muscogee (Creek) Nation (Current),,35.77388,-95.305086,09/07/23
6,OK,HARDAGE/CRINER,600988,,OKD000400093,3/4 MI W OF TOWN ON HWY 122,CRINER,73080,MCCLAIN,N,Y,The Chickasaw Nation (Current),,34.9764,-97.5809,09/08/83
6,OK,HENRYETTA IRON AND METAL,607147,,OKN000607147,1420 West Main Street,HENRYETTA,74437,OKMULGEE,N,Y,The Muscogee (Creek) Nation (Current),,35.439996,-95.999803,09/03/20
6,OK,HUDSON REFINERY,601160,,OKD082471988,400 W MAIN ST,CUSHING,74023,PAYNE,N,Y,"Sac & Fox Nation, Oklahoma (Current)",,35.985556,-96.779722,07/22/99
6,OK,OKLAHOMA REFINING CO.,601172,,OKD091598870,SOUTH BASKETT ST,CYRIL,73029,CADDO,N,Y,"Apache Tribe of Oklahoma (Current); Caddo Nation of Oklahoma (Current); Comanche Nation, Oklahoma (Current); Delaware Nation, Oklahoma (Current); Fort Sill Apache Tribe of Oklahoma (Current); Kiowa Indian Tribe of Oklahoma (Current); Wichita and Affiliated Tribes (Wichita, Keechi, Waco, & Tawakonie), Oklahoma (Current)",,34.898331,-98.193339,02/21/90
6,OK,TAR CREEK (OTTAWA COUNTY),601269,,OKD980629844,MIAMI/PICHER/SURROUNDINGS,OTTAWA COUNTY,74339,OTTAWA,N,Y,Cherokee Nation (Current); Eastern Shawnee Tribe of Oklahoma (Current); Miami Tribe of Oklahoma (Current); Modoc Nation (Current); Ottawa Tribe of Oklahoma (Current); Peoria Tribe of Indians of Oklahoma (Current); Quapaw Nation (Current); Seneca-Cayuga Nation (Current); Wyandotte Nation (Current),,36.943603,-94.841914,09/08/83
6,OK,TINKER AIR FORCE BASE (SOLDIER CREEK/BUILDING 3001),601510,,OK1571724391,SOUTH AIR DEPOT BLVD,OKLAHOMA CITY,73145,OKLAHOMA,Y,N,,,35.413973,-97.401494,07/22/87
6,OK,WILCOX OIL COMPANY,604942,,OK0001010917,WEST 221ST STREET SOUTH/REFINERY ROAD 0.35 MILE EAST OF U.S. HIGHWAY 66,CREEK COUNTY,74010,CREEK,N,Y,"Cherokee Nation (Current); Sac & Fox Nation, Oklahoma (Current); The Muscogee (Creek) Nation (Current)",,35.840805,-96.380193,12/12/13
6,TX,AIR FORCE PLANT #4 (GENERAL DYNAMICS),603610,,TX7572024605,GRANTS LANE,FORT WORTH,76108,TARRANT,Y,N,,,32.777781,-97.45,08/30/90
6,TX,ALCOA (POINT COMFORT)/LAVACA BAY,601752,,TXD008123168,Postal Address is unavailable for the Site,POINT COMFORT,77979,CALHOUN,N,N,,,28.650833,-96.562222,02/23/94
6,TX,BANDERA ROAD GROUND WATER PLUME,606565,,TXN000606565,INTERSECTION OF BANDERA ROAD AND GRISSOM ROAD,SAN ANTONIO,78238,BEXAR,N,N,,,29.494433,-98.6205,03/07/07
6,TX,BRINE SERVICE COMPANY,605264,,TX0000605264,NORTHEAST OF INTERSECTION AT IH-37 AND GOLDSTON ROAD,CORPUS CHRISTI,78409,NUECES,N,N,,,27.815372,-97.508606,09/05/02
6,TX,CIRCLE COURT GROUND WATER PLUME,606965,,TXN000606965,117 CIRCLE COURT,WILLOW PARK,76087,PARKER,N,N,,,32.744778,-97.679763,09/18/12
6,TX,CITY OF PERRYTON WELL NO. 2,605015,,TX0001399435,NORTH AMHERST STREET AND SANTA FE AVENUE,PERRYTON,79070,OCHILTREE,N,N,,,36.400556,-100.804722,01/19/99
6,TX,CONROE CREOSOTING CO.,601732,,TXD008091951,"HIGHWAY 105 EAST, BOX 9",CONROE,77301,MONTGOMERY,N,N,,,30.318744,-95.435428,09/29/03
6,TX,CRYSTAL CHEMICAL CO.,603555,,TXD990707010,3502 ROGERDALE RD,HOUSTON,77042,HARRIS,N,N,,,29.7206,-95.5644,09/08/83
6,TX,DELFASCO FORGE,606872,,TXD988034328,114 NE 28TH STREET,GRAND PRAIRIE,75050,DALLAS,N,N,,,32.750269,-96.963228,09/13/18
6,TX,DONNA RESERVOIR AND CANAL SYSTEM,605363,,TX0000605363,"SOUTH TEXAS, NORTH OF RIO GRANDE RIVER",Donna,78537,HIDALGO,N,N,,,26.112286,-98.086469,03/19/08
6,TX,EAST 67TH STREET GROUND WATER PLUME,606614,,TXN000606614,"102 23', 23.36"" WEST, 31, 54', 22.26"" NORTH E.",ODESSA,79762,ECTOR,N,N,,,31.908611,-102.385833,03/07/07
6,TX,"ELDORADO CHEMICAL CO., INC.",607012,,TXD057567216,14350 LOOKOUT RD.,LIVE OAK,78233,BEXAR,N,N,,,29.568833,-98.350042,09/09/16
6,TX,FALCON REFINERY,602349,,TXD086278058,FM 2725 AT BISHOP ROAD,INGLESIDE,78362,SAN PATRICIO,N,N,,,27.860725,-97.179306,09/16/11
6,TX,"FRENCH, LTD.",602498,,TXD980514814,SAN JACINTO RIVER CROSSING,CROSBY,77532,HARRIS,N,N,,,29.8796,-95.0739,09/08/83
6,TX,GARLAND CREOSOTING,601644,,TXD007330053,3915 GARLAND ROAD,LONGVIEW,75602,GREGG,N,N,,,32.442272,-94.710903,10/22/99
6,TX,GENEVA INDUSTRIES/FUHRMANN ENERGY,602809,,TXD980748453,9334 CANIFF RD,HOUSTON,77017,HARRIS,N,N,,,29.66,-95.25,09/21/84
6,TX,GULFCO MARINE MAINTENANCE,602027,,TXD055144539,BRAZORIA COUNTY RD 756,FREEPORT,77541,BRAZORIA,N,N,,,28.966847,-95.289656,04/30/03
6,TX,HART CREOSOTING COMPANY,601975,,TXD050299577,STATE HIGHWAY 96,JASPER,75951,JASPER,N,N,,,30.893611,-93.995278,07/22/99
6,TX,HIGHLANDS ACID PIT,602505,,TXD980514996,611 BATTLEBELL - CLEAR LAKE ROAD,HIGHLANDS,77562,HARRIS,N,N,,,29.8141,-95.0786,09/08/83
6,TX,HIGHWAY 18 GROUND WATER,606716,,TXN000606716,INTERSECTION EAST CAMPBELL STREET AND SOUTH B AVENUE,KERMIT,79745,WINKLER,N,N,,,31.852,-103.090681,08/02/17
6,TX,JASPER CREOSOTING COMPANY INC.,601735,,TXD008096240,600 NORTH MCQUEEN STREET BOX 6021,JASPER,75951,JASPER,N,N,,,30.933889,-93.9825,07/28/98
6,TX,JONES ROAD GROUND WATER PLUME,605460,,TXN000605460,11600 Jones Road,HOUSTON,77070,HARRIS,N,N,,,29.938372,-95.585473,09/29/03
6,TX,"KOPPERS CO., INC. (TEXARKANA PLANT)",602570,,TXD980623904,WEST 3RD ST,TEXARKANA,75501,BOWIE,N,N,,,33.416669,-94.065,06/10/86
6,TX,"LANE PLATING WORKS, INC",605240,,TXN000605240,5322 Bonnie View Road,DALLAS,75241,DALLAS,N,N,,,32.687886,-96.769485,05/17/18
6,TX,LONE STAR ARMY AMMUNITION PLANT,603609,,TX7213821831,HWY 82 W,TEXARKANA,75501,BOWIE,Y,N,,,33.4344,-94.2483,07/22/87
6,TX,LONGHORN ARMY AMMUNITION PLANT,603606,,TX6213820529,15600 Highway 134,KARNACK,75661,HARRISON,Y,N,,,32.665,-94.123339,08/30/90
6,TX,MAIN STREET GROUND WATER PLUME,607441,,TXN000607441,COUNTY ROAD 340,BURNET,78611,BURNET,N,N,,,30.737148,-98.22544,09/30/15
6,TX,MALONE SERVICE CO - SWAN LAKE PLANT,602922,,TXD980864789,LOOP 197 S,TEXAS CITY,77590,GALVESTON,N,N,,,29.333056,-94.902778,06/14/01
6,TX,"MANY DIVERSIFIED INTERESTS, INC.",605008,,TXD008083404,3617 BAER STREET,HOUSTON,77020,HARRIS,N,N,,,29.767778,-95.331667,01/19/99
6,TX,MIDESSA GROUND WATER PLUME,606668,,TXN000606668,INTERSECTION OF COUNTY RD 1290 & CR 128 MIDLAND COUNTY,MIDLAND,79706,MIDLAND,N,N,,,31.90635,-102.233669,03/19/08
6,TX,"MOTCO, INC.",602673,,TXD980629851,JCT HIGHWAYS 3 6 & 75,LA MARQUE,77590,GALVESTON,N,N,,,29.334719,-94.933331,09/08/83
6,TX,NORTH CAVALCADE STREET,602956,,TXD980873343,NE OF CAVALCADE AND MAURY/BTWN BH&T RR,HOUSTON,77009,HARRIS,N,N,,,29.806669,-95.349169,06/10/86
6,TX,NORTH EAST 2ND STREET SITE,606760,,TXN000606760,201 NORTH GORDON STREET,Happy,79042,SWISHER,N,N,,,34.745,-101.853333,04/09/09
6,TX,NORTHWEST ODESSA GROUNDWATER,607499,,TXN000607499,Intersection of Andrews Highway and 54th Street,ODESSA,79762,ECTOR,N,N,,,31.894444,-102.388889,09/09/21
6,TX,ODESSA CHROMIUM #1,602943,,TXD980867279,4318 BRAZOS AVE,ODESSA,79762,ECTOR,N,N,,,31.881669,-102.4033,06/10/86
6,TX,PANTEX PLANT (USDOE),604060,,TX4890110527,2000 S HOUSTON,PANTEX VILLAGE,79111,CARSON,Y,N,,,35.321944,-101.563611,05/31/94
6,TX,PATRICK BAYOU,605329,,TX0000605329,"N 29 43'55""/W 95 06'52.5""",DEER PARK,77536,HARRIS,N,N,,,29.731944,-95.114583,09/05/02
6,TX,"PETRO-CHEMICAL SYSTEMS, INC. (TURTLE BAYOU)",602957,,TXD980873350,1 MI E OF FM563/7 MI N OF I-10,LIBERTY,77575,LIBERTY,N,N,,,29.92,-94.688061,06/10/86
6,TX,ROCKWOOL INDUSTRIES INC.,605009,,TXD066379645,1741 TAYLOR'S VALLEY ROAD,BELL COUNTY,76513,BELL,N,N,,,31.051667,-97.438056,09/29/98
6,TX,RSR CORPORATION,602297,,TXD079348397,WESTMORELAND RD & SINGLETON BLVD,DALLAS,75212,DALLAS,N,N,,,32.776944,-96.8725,09/29/95
6,TX,SAN JACINTO RIVER WASTE PITS,606611,,TXN000606611,"W BANK OF SAN JACINTO RIVER, N OF HWY 10",Channelview,77530,HARRIS,N,N,,,29.7944,-95.0625,03/19/08
6,TX,SANDY BEACH ROAD GROUND WATER PLUME,605649,,TXN000605649,1653 JASON COURT,PELICAN BAY,76020,TARRANT,N,N,,,32.928472,-97.525,09/14/05
6,TX,SHERIDAN DISPOSAL SERVICES,602108,,TXD062132147,CLARK BOTTOM RD,HEMPSTEAD,77445,WALLER,N,N,,,30.2074,-96.1357,03/31/89
6,TX,SIKES DISPOSAL PITS,602488,,TXD980513956,US HWY 90,CROSBY,77532,HARRIS,N,N,,,29.881669,-95.086669,09/08/83
6,TX,SOL LYNN/INDUSTRIAL TRANSFORMERS,602954,,TXD980873327,"1415, 1417, 1419 S LOOP WEST",HOUSTON,77054,HARRIS,N,N,,,29.678889,-95.398611,03/31/89
6,TX,SOUTH CAVALCADE STREET,602895,,TXD980810386,SE OF CAVALCADE AND MAURY/BTWN BH&T RR,HOUSTON,77020,HARRIS,N,N,,,29.798331,-95.347781,06/10/86
6,TX,SPRAGUE ROAD GROUND WATER PLUME,605023,,TX0001407444,WEST 81ST ST AND MARY FRANCIS ST,ODESSA,79764,ECTOR,N,N,,,31.918611,-102.428333,09/25/97
6,TX,STAR LAKE CANAL,605043,,TX0001414341,NEAR STATE HWY 366 & SARA JANE RD,PORT NECHES,77651,JEFFERSON,N,N,,,29.975,-93.917,07/27/00
6,TX,STATE ROAD 114 GROUNDWATER PLUME,605177,,TXSFN0605177,W. STATE ROAD 114,LEVELLAND,79336,HOCKLEY,N,N,,,33.599883,-102.405561,10/22/99
6,TX,TEX-TIN CORP.,602105,,TXD062113329,STATE HGWY 146 & FARM RD 519,TEXAS CITY,77568,GALVESTON,N,N,,,29.356667,-94.941667,09/18/98
6,TX,TEXARKANA WOOD PRESERVING CO.,601695,,TXD008056152,1001 LUBBOCK ST.,TEXARKANA,75501,BOWIE,N,N,,,33.408331,-94.053339,06/10/86
6,TX,UNITED CREOSOTING CO.,602803,,TXD980745574,2ND & HILBIG,CONROE,77301,MONTGOMERY,N,N,,,30.331669,-95.456669,09/21/84
6,TX,US OIL RECOVERY,607093,,TXN000607093,400 AND 200 N. RICHEY STREET,PASADENA,77506,HARRIS,N,N,,,29.718389,-95.221528,09/18/12
6,TX,VAN DER HORST USA CORPORATION,606869,,TXD007357932,410 AND 419 EAST GROVE STREET,TERRELL,75160,KAUFMAN,N,N,,,32.734167,-96.273889,03/04/10
6,TX,WEST COUNTY ROAD 112 GROUND WATER,606992,,TXN000606992,INT. BETWEEN CTY ROAD (CR) 112 & CR 1205,MIDLAND,79706,MIDLAND,N,N,,,31.964129,-102.094921,03/10/11
7,IA,DES MOINES TCE,700316,,IAD980687933,SEC 8 & 9 T78N R24W,DES MOINES,50309,POLK,N,N,,,41.5781,-93.636,09/08/83
7,IA,FAIRFIELD COAL GASIFICATION PLANT,700347,,IAD981124167,101 S 7TH ST,FAIRFIELD,52556,JEFFERSON,N,N,,,41.0062,-91.9724,08/30/90
7,IA,HIGHWAY 3 PCE,706042,,IAN000706042,INTERSECTION OF HIGHWAY 3 AND CENTRAL AVENUE,LE MARS,51031,PLYMOUTH,N,N,,,42.79305,-96.166464,09/09/22
7,IA,IOWA ARMY AMMUNITION PLANT,700413,,IA7213820445,HWY 79 OFF MIDDLETOWN RD,MIDDLETOWN,52638,DES MOINES,Y,N,,,40.808331,-91.246669,08/30/90
7,IA,LAWRENCE TODTZ FARM,700039,,IAD000606038,RR 1,CAMANCHE,52730,CLINTON,N,N,,,41.787781,-90.292639,06/10/86
7,IA,LOT 46 VALLEY GARDENS TCE,705485,,IAN000705485,"2500 BLOCK, GARDEN ROAD",DES MOINES,50321,POLK,N,N,,,41.5665,-93.6521,03/07/24
7,IA,MASON CITY COAL GASIFICATION PLANT,700337,,IAD980969190,"5TH ST, BETWEEN DELAWARE & PENNSYLVANIA",MASON CITY,50401,CERRO GORDO,N,N,,,43.1476,-93.1992,12/16/94
7,IA,MIDWEST MANUFACTURING/NORTH FARM,700185,,IAD069625655,101 HIGH ST,KELLOGG,50135,JASPER,N,N,,,41.746811,-92.893061,06/10/86
7,IA,PCE FORMER DRY CLEANER,700145,,IAD039954300,1205 East 7th Street,ATLANTIC,50022,CASS,N,N,,,41.403717,-94.995764,04/07/16
7,IA,PEOPLES NATURAL GAS CO.,700325,,IAD980852578,502 E 11TH ST,DUBUQUE,52001,DUBUQUE,N,N,,,42.505281,-90.658889,08/30/90
7,IA,RAILROAD AVENUE GROUNDWATER CONTAMINATION,703065,,IA0001610963,12TH & MAPLE,WEST DES MOINES,50265,POLK,N,N,,,41.578333,-93.702222,09/05/02
7,IA,SHAW AVENUE DUMP,700244,,IAD980630560,SHAW AVE,CHARLES CITY,50616,FLOYD,N,N,,,43.0563,-92.6631,07/22/87
7,IA,VOGEL PAINT & WAX CO.,700237,,IAD980630487,GRANT AVENUE BETWEEN 490TH ST. AND 500TH ST.,MAURICE,51036,SIOUX,N,N,,,42.934439,-96.193339,06/10/86
7,KS,57TH AND NORTH BROADWAY STREETS SITE,700694,,KSD981710247,57TH & N BROADWAY STREETS,WICHITA,67219,SEDGWICK,N,N,,,37.783636,-97.337547,10/14/92
7,KS,ACE SERVICES,700521,,KSD046746731,345 N CONVESSE,COLBY,67701,THOMAS,N,N,,,39.396267,-101.040361,09/29/95
7,KS,CANEY RESIDENTIAL YARDS,703396,,KSN000703396,Intersection of North Main Street and East 3rd Ave,CANEY,67333,MONTGOMERY,N,Y,Cherokee Nation (Current); Shawnee Tribe (Current); The Osage Nation (Current),,37.013136,-95.934889,09/03/20
7,KS,"CHEMICAL COMMODITIES, INC.",700513,,KSD031349624,S. KEELER ST,OLATHE,66061,JOHNSON,N,N,,,38.878244,-94.805603,05/31/94
7,KS,CHEROKEE COUNTY,700667,,KSD980741862,SOUTHEAST PORTION OF THE STATE OF KS,CHEROKEE COUNTY,66739,CHEROKEE,N,Y,Cherokee Nation (Current); Eastern Shawnee Tribe of Oklahoma (Current); Miami Tribe of Oklahoma (Current); Ottawa Tribe of Oklahoma (Current); Peoria Tribe of Indians of Oklahoma (Current); Quapaw Nation (Current); Seneca-Cayuga Nation (Current); Shawnee Tribe (Current); The Osage Nation (Current),,37.079653,-94.724186,09/08/83
7,KS,CHEROKEE ZINC - WEIR SMELTER,706550,,KSN000706550,413 N WASHINGTON STREET,WEIR,66781,CHEROKEE,N,Y,Cherokee Nation (Current); Eastern Shawnee Tribe of Oklahoma (Current); Peoria Tribe of Indians of Oklahoma (Current); Quapaw Nation (Current); Shawnee Tribe (Current); The Osage Nation (Current),,37.313778,-94.772389,09/09/21
7,KS,DOEPKE DISPOSAL (HOLLIDAY),700631,,KSD980632301,HOLLIDAY DR,SHAWNEE MISSION,66218,JOHNSON,N,N,,,39.036314,-94.794083,09/08/83
7,KS,FORMER UNITED ZINC & ASSOCIATED SMELTERS,705026,,KSN000705026,HIGHWAY 54 & KANSAS DRIVE,IOLA,66749,ALLEN,N,Y,Eastern Shawnee Tribe of Oklahoma (Current); Prairie Band Potawatomi Nation (Current); Shawnee Tribe (Current); The Osage Nation (Current),,37.92228,-95.3859,05/24/13
7,KS,FORT RILEY,700743,,KS6214020756,DICKMAN AVE,JUNCTION CITY,66441,GEARY,Y,N,,,39.306647,-96.960906,08/30/90
7,KS,OBEE ROAD,700580,,KSD980631766,OBEE RD,HUTCHINSON,67501,RENO,N,N,,,38.063503,-97.857775,07/22/87
7,KS,PESTER REFINERY CO.,700447,,KSD000829846,N TOPEKA ST,EL DORADO,67042,BUTLER,N,N,,,37.839364,-96.857611,03/31/89
7,KS,"PLATING, INC.",705326,,KSD065735912,8801 WEST SIXTH STREET,Great Bend,67530,BARTON,N,N,,,38.346542,-98.84946,03/19/08
7,KS,STROTHER FIELD INDUSTRIAL PARK,700677,,KSD980862726,NE 1/4 SEC 19 T33S R4E,WINFIELD,67156,COWLEY,N,N,,,37.172031,-97.028919,06/10/86
7,KS,WRIGHT GROUND WATER CONTAMINATION,702403,,KSD984985929,7 MILES NE OF DODGE CITY OFF HWY 50/56,WRIGHT,67882,FORD,N,N,,,37.780781,-99.889442,06/17/96
7,MO,ARMOUR ROAD,702515,,MOD046750253,2251 ARMOUR ROAD,NORTH KANSAS CITY,64116,CLAY,N,N,,,39.145,-94.556111,05/10/99
7,MO,BEE CEE MANUFACTURING CO.,701439,,MOD980860522,MALDEN INDUSTRIAL PARK,MALDEN,63863,DUNKLIN,N,N,,,36.603292,-89.97905,06/10/86
7,MO,BIG RIVER MINE TAILINGS/ST. JOE MINERALS CORP.,701639,,MOD981126899,SECTION 25 26 35 & 36 T37N R4E,DESLOGE,63601,ST. FRANCOIS,N,Y,"Cherokee Nation (Current); Delaware Nation, Oklahoma (Current); Delaware Tribe of Indians (Current); Eastern Shawnee Tribe of Oklahoma (Current); Quapaw Nation (Current); Shawnee Tribe (Current); The Osage Nation (Current)",,37.878097,-90.539344,10/14/92
7,MO,COMPASS PLAZA WELL TCE,706143,,MON000706143,201 SOUTH MARSHALL STREET,ROGERSVILLE,65742,GREENE,N,N,,,37.109009,-93.083168,03/15/12
7,MO,CONSERVATION CHEMICAL CO.,700777,,MOD000829705,3900 FRONT ST,KANSAS CITY,64120,JACKSON,N,N,,,39.1279,-94.4722,10/04/89
7,MO,ELLISVILLE SITE,701205,,MOD980633010,NEAR ELLISVILLE,ELLISVILLE,63011,ST. LOUIS,N,N,,,38.603331,-90.618331,09/08/83
7,MO,FULBRIGHT LANDFILL,701153,,MOD980631139,BOLIVAR RD,SPRINGFIELD,65803,GREENE,N,N,,,37.273056,-93.3125,09/08/83
7,MO,LAKE CITY ARMY AMMUNITION PLANT (NORTHWEST LAGOON),701757,,MO3213890012,JCT OF HWY 7 & HWY 78,INDEPENDENCE,64050,JACKSON,Y,N,,,39.103,-94.2783,07/22/87
7,MO,LEE CHEMICAL,701378,,MOD980853519,HWY 210 E OF HWY 291,LIBERTY,64068,CLAY,N,N,,,39.201111,-94.3925,06/10/86
7,MO,MADISON COUNTY MINES,701102,,MOD098633415,401 N MINE LAMOTTE ST,FREDERICKTOWN,63645,MADISON,N,Y,"Absentee-Shawnee Tribe of Indians of Oklahoma (Current); Cherokee Nation (Current); Delaware Nation, Oklahoma (Current); Delaware Tribe of Indians (Current); Eastern Shawnee Tribe of Oklahoma (Current); Quapaw Nation (Current); Shawnee Tribe (Current); The Osage Nation (Current)",,37.546111,-90.276111,09/29/03
7,MO,MINKER/STOUT/ROMAINE CREEK,701345,,MOD980741912,4037 W ROCK CREEK RD & SWALLER,IMPERIAL,63052,JEFFERSON,N,N,,,38.44,-90.48,09/08/83
7,MO,MISSOURI ELECTRIC WORKS,701474,,MOD980965982,"S HIGHWAY 61 2 MI S HIGHWAY K T 30 N, R 13 W",CAPE GIRARDEAU,63701,CAPE GIRARDEAU,N,N,,,37.28625,-89.555056,02/21/90
7,MO,NEWTON COUNTY MINE TAILINGS,701651,,MOD981507585,MULTIPLE AREAS WITHIN,NEWTON COUNTY,,NEWTON,N,Y,Absentee-Shawnee Tribe of Indians of Oklahoma (Current); Delaware Tribe of Indians (Current); Eastern Shawnee Tribe of Oklahoma (Current); Shawnee Tribe (Current); The Osage Nation (Current),,36.9921,-94.3848,09/29/03
7,MO,NEWTON COUNTY WELLS,702514,,MOD985798339,3200 MOORHEAD DRIVE,JOPLIN,64804,NEWTON,N,N,,,37.044722,-94.473056,07/27/00
7,MO,OAK GROVE VILLAGE WELL,700020,,MOD981717036,"NE 1/4, SW 1/4, NW 1/4, SECTION 17 T 41 N, R 1 W",SULLIVAN,63080,FRANKLIN,N,N,,,38.220972,-91.149461,09/05/02
7,MO,ORONOGO-DUENWEG MINING BELT,701290,,MOD980686281,VARIOUS LOCATIONS,JOPLIN,64801,JASPER,N,Y,Absentee-Shawnee Tribe of Indians of Oklahoma (Current); Eastern Shawnee Tribe of Oklahoma (Current); Shawnee Tribe (Current); The Osage Nation (Current),,37.101111,-94.420561,08/30/90
7,MO,POOLS PRAIRIE,702918,,MO0000958835,US HWY. 60 AND US HWY. 71 (2 MILES SOUTH),NEOSHO,64850,NEWTON,N,N,,,36.803056,-94.390278,09/17/99
7,MO,QUALITY PLATING,701442,,MOD980860555,RT 2,SIKESTON,63801,SCOTT,N,N,,,36.96305,-89.557219,06/10/86
7,MO,RIVERFRONT,702089,,MOD981720246,"PLUME, NEW HAVEN",NEW HAVEN,63068,FRANKLIN,N,N,,,38.613889,-91.214722,12/01/00
7,MO,"SOLID STATE CIRCUITS, INC.",701392,,MOD980854111,MAIN ST,REPUBLIC,65738,GREENE,N,N,,,37.118061,-93.480281,06/10/86
7,MO,SOUTHWEST JEFFERSON COUNTY MINING,705443,,MON000705443,"SLVR LK TRL & THNDR RDG RD,.5M W HWY WW",JEFFERSON COUNTY,63023,JEFFERSON,N,Y,Eastern Shawnee Tribe of Oklahoma (Current); Miami Tribe of Oklahoma (Current); Peoria Tribe of Indians of Oklahoma (Current); Prairie Band Potawatomi Nation (Current); Quapaw Nation (Current); Shawnee Tribe (Current); The Osage Nation (Current),,38.186794,-90.758975,09/23/09
7,MO,SPORLAN VALVE PLANT #1,703541,,MON000703541,611 East 7th Street,WASHINGTON,63090,FRANKLIN,N,N,,,38.5519,-91.00668,05/15/19
7,MO,ST. LOUIS AIRPORT/HAZELWOOD INTERIM STORAGE/FUTURA COATINGS CO.,701210,,MOD980633176,BROWN ROAD N OF AIRPORT,ST. LOUIS COUNTY,63145,ST. LOUIS,N,N,,,38.759719,-90.360419,10/04/89
7,MO,SYNTEX FACILITY,700881,,MOD007452154,299 Extention St.,VERONA,65769,LAWRENCE,N,N,,,36.965,-93.798331,09/08/83
7,MO,VALLEY PARK TCE,701494,,MOD980968341,HIGHWAY 141 N OF MERAMEC RIVER,VALLEY PARK,63088,ST. LOUIS,N,N,,,38.552781,-90.466669,06/10/86
7,MO,VIENNA WELLS,705803,,MON000705803,545-547 N. CHESTNUT STREET (CITY HALL),VIENNA,65582,MARIES,N,N,,,38.189597,-91.944158,09/29/10
7,MO,WASHINGTON COUNTY LEAD DISTRICT - FURNACE CREEK,705842,,MON000705842,2 MI. N OF INT. OF BIG RIVER & HWY 21,CALEDONIA,63631,WASHINGTON,N,Y,Cherokee Nation (Current); Eastern Shawnee Tribe of Oklahoma (Current); Shawnee Tribe (Current); The Osage Nation (Current),,37.840531,-90.799556,03/10/11
7,MO,WASHINGTON COUNTY LEAD DISTRICT - OLD MINES,705027,,MON000705027,INTERSECTION OF HIGHWAYS 21 AND 47,OLD MINES,63630,WASHINGTON,N,Y,Cherokee Nation (Current); Eastern Shawnee Tribe of Oklahoma (Current); Shawnee Tribe (Current); The Osage Nation (Current),,38.075278,-90.738333,03/19/08
7,MO,WASHINGTON COUNTY LEAD DISTRICT - POTOSI,705023,,MON000705023,500 FT EAST OF BELL ST AND VALLEY ROAD,POTOSI,63664,WASHINGTON,N,Y,Cherokee Nation (Current); Eastern Shawnee Tribe of Oklahoma (Current); Shawnee Tribe (Current); The Osage Nation (Current),,37.9399,-90.7724,03/19/08
7,MO,WASHINGTON COUNTY LEAD DISTRICT - RICHWOODS,705032,,MON000705032,21 ACRES IN NORTHEAST WASHINGTON COUNTY,RICHWOODS,63071,WASHINGTON,N,Y,Cherokee Nation (Current); Eastern Shawnee Tribe of Oklahoma (Current); Shawnee Tribe (Current); The Osage Nation (Current),,38.16615,-90.814264,03/19/08
7,MO,WELDON SPRING FORMER ARMY ORDNANCE WORKS,701773,,MO5210021288,ST HWY 94 2 MI S US 40,ST. CHARLES,63301,ST. CHARLES,Y,N,,,38.696389,-90.729161,02/21/90
7,MO,WELDON SPRING QUARRY/PLANT/PITS (USDOE/ARMY),701753,,MO3210090004,25 MI W OF ST LOUIS,ST. CHARLES,63301,ST. CHARLES,Y,N,,,38.696944,-90.724999,07/22/87
7,MO,WESTLAKE LANDFILL,701039,,MOD079900932,13570 ST CHARLES ROCK ROAD,BRIDGETON,63044,ST. LOUIS,N,N,,,38.77,-90.445269,08/30/90
7,NE,10TH STREET SITE,702001,,NED981713837,28TH AVE & 10TH ST,COLUMBUS,68601,PLATTE,N,N,,,41.427194,-97.3595,08/30/90
7,NE,BRUNO CO-OP ASSOCIATION/ASSOCIATED PROPERTIES,702000,,NED981713829,FREMONT ST & RAILROAD ST,BRUNO,68014,BUTLER,N,N,,,41.285486,-96.959531,06/17/96
7,NE,CLEBURN STREET WELL,701986,,NED981499312,NORTH FRONT STREET,GRAND ISLAND,68801,HALL,N,N,,,40.925139,-98.347778,10/14/92
7,NE,CORNHUSKER ARMY AMMUNITION PLANT,702020,,NE2213820234,6 MI W OF,GRAND ISLAND,68802,HALL,Y,N,,,40.923331,-98.4925,07/22/87
7,NE,GARVEY ELEVATOR,704351,,NEN000704351,INDUSTRIAL PARK WEST-HIGHWAY 6 & SUMMIT AVE.,HASTINGS,68901,ADAMS,N,N,,,40.563611,-98.415556,09/14/05
7,NE,HASTINGS GROUND WATER CONTAMINATION,701973,,NED980862668,E CENTRAL HASTINGS,HASTINGS,68901,ADAMS,N,N,,,40.583331,-98.383331,06/10/86
7,NE,IOWA-NEBRASKA LIGHT & POWER CO,702377,,NED986373678,102-104 SOUTH 7TH STREET,NORFOLK,68701,MADISON,N,N,,,42.0323,-97.417028,04/07/16
7,NE,LINDSAY MANUFACTURING CO.,701913,,NED068645696,HWY 91,LINDSAY,68644,PLATTE,N,N,,,41.701669,-97.69,10/04/89
7,NE,NEBRASKA ORDNANCE PLANT (FORMER),702031,,NE6211890011,.5 MI E OF,MEAD,68041,SAUNDERS,N,N,,,41.176669,-96.453331,08/30/90
7,NE,OGALLALA GROUND WATER CONTAMINATION,702287,,NED986369247,SW CORNER OF W 1ST & C ST,OGALLALA,69153,KEITH,N,N,,,41.123889,-101.736111,12/16/94
7,NE,OLD HWY 275 AND N 288TH STREET,704272,,NEN000704272,U.S. HIGHWAY 275 AND N 288TH ST.,VALLEY,68064,DOUGLAS,N,N,,,41.329092,-96.367333,08/02/17
7,NE,OMAHA LEAD,703481,,NESFN0703481,INTERSECTION I480 & ABBOTT DRIVE,OMAHA,68102,DOUGLAS,N,Y,Omaha Tribe of Nebraska (Current),,41.267778,-95.929722,04/30/03
7,NE,PARKVIEW WELL,704456,,NEN000704456,INTERSECTION OF BLAINE STREET & STOLLEY PARK ROAD,GRAND ISLAND,68803,HALL,N,N,,,40.895833,-98.365,04/19/06
7,NE,PCE - CARRIAGE CLEANERS,710226,,NEN000710226,2110 SOUTH FRANKLIN STREET,BELLEVUE,68005,SARPY,N,N,,,41.137721,-95.894082,12/22/22
7,NE,PCE SOUTHEAST CONTAMINATION,706200,,NEN000706200,INTERSECTION OF 5TH STREET AND LINCOLN AVENUE,YORK,68467,YORK,N,N,,,40.859594,-97.580614,05/12/14
7,NE,PCE/TCE NORTHEAST CONTAMINATION,706105,,NEN000706105,522 W 26TH STREET,YORK,68467,YORK,N,N,,,40.888636,-97.600361,05/12/14
7,NE,SHERWOOD MEDICAL CO.,702086,,NED084626100,RT 4 S HWY 81 1 MI S OF,NORFOLK,68701,MADISON,N,N,,,41.993611,-97.421389,10/14/92
7,NE,WEST HIGHWAY 6 & HIGHWAY 281,704738,,NEN000704738,INDUSTRIAL PARK WEST-HIGHWAY 6 & SUMMIT AVE. (WELL 13),HASTINGS,68901,ADAMS,N,N,,,40.5712,-98.4095,04/19/06
8,CO,AIR FORCE PLANT PJKS,800359,,CO7570090038,12275 SOUTH HIGHWAY 75,LITTLETON,80127,JEFFERSON,Y,N,,,39.508686,-105.128965,11/21/89
8,CO,BONITA PEAK MINING DISTRICT,802497,,CON000802497,Multiple sources near Animas River headwaters,UNINCORPORATED,81433,SAN JUAN,N,Y,"Southern Ute Indian Tribe of the Southern Ute Reservation, Colorado (Current)",,37.904037,-107.61663,09/09/16
8,CO,BRODERICK WOOD PRODUCTS,800030,,COD000110254,5980 Lipan St.,DENVER,80221,ADAMS,N,N,,,39.803684,-104.998554,09/21/84
8,CO,CALIFORNIA GULCH,801478,,COD980717938,S OF CY-YAK TUNNEL DOWNSTREAM,LEADVILLE,80461,LAKE,N,N,,,39.231279,-106.295522,09/08/83
8,CO,CAPTAIN JACK MILL,800892,,COD981551427,93 California Gulch Road,WARD,80481,BOULDER,N,N,,,40.061319,-105.507611,09/29/03
8,CO,"CENTRAL CITY, CLEAR CREEK",800257,,COD980717557,NEAR TOWN,IDAHO SPRINGS,80452,CLEAR CREEK,N,N,,,39.77182,-105.51817,09/08/83
8,CO,CHEMICAL SALES CO.,800866,,COD007431620,4661 MONACO ST.,DENVER,80216,DENVER,N,N,,,39.822695,-104.911952,08/30/90
8,CO,COLORADO SMELTER,802700,,CON000802700,INTERSTATE 25 AND SANTA FE AVENUE,PUEBLO,81006,PUEBLO,N,N,,,38.249106,-104.60801,12/11/14
8,CO,DENVER RADIUM SITE,800247,,COD980716955,VARIOUS PLACES IN DENVER,DENVER,80204,DENVER,N,N,,,39.716519,-105.005441,09/08/83
8,CO,EAGLE MINE,800159,,COD081961518,W OF US HWY 24,MINTURN,81645,EAGLE,N,N,,,39.533331,-106.3917,06/10/86
8,CO,LINCOLN PARK,800115,,COD042167858,2 MI S OF CANON CY,CANON CITY,81212,FREMONT,N,N,,,38.405864,-105.219379,09/21/84
8,CO,LOWRY LANDFILL,800186,,COD980499248,4200 S GUN CLUB RD,UNINCORPORATED ARAPAHOE COUNTY,80018,ARAPAHOE,N,N,,,39.646081,-104.709141,09/21/84
8,CO,MARSHALL LANDFILL,800187,,COD980499255,1600 S 66TH STREET,BOULDER,80303,BOULDER,N,N,,,39.950304,-105.20126,09/08/83
8,CO,NELSON TUNNEL/COMMODORE WASTE ROCK,802630,,CON000802630,NATIONAL FOREST ROAD 503.4 1 MILE N. OF TOWN,Creede,81130,MINERAL,N,N,,,37.877852,-106.936723,09/03/08
8,CO,ROCKY FLATS PLANT (USDOE),800360,,CO7890010526,HWY 93 BETWEEN GOLDEN&BOULDER,GOLDEN,80402,JEFFERSON,Y,N,,,39.892897,-105.1996,10/04/89
8,CO,ROCKY MOUNTAIN ARSENAL (USARMY),800357,,CO5210020769,IMMED N STAPLETON INTL ARPT,ADAMS COUNTY,80022,ADAMS,Y,N,,,39.833398,-104.842445,07/22/87
8,CO,STANDARD MINE,801669,,CO0002378230,"COUNTY ROAD 12, RUBY MINING DISITRICT",GUNNISON NATIONAL FOREST,81224,GUNNISON,N,N,,,38.880894,-107.072129,09/14/05
8,CO,SUMMITVILLE MINE,801194,,COD983778432,Postal Address is unavailable for the Site,RIO GRANDE COUNTY,81132,RIO GRANDE,N,N,,,37.423917,-106.598491,05/31/94
8,CO,URAVAN URANIUM PROJECT (UNION CARBIDE CORP.),800076,,COD007063274,NEAR URAVAN ON HWY 141,URAVAN,81422,MONTROSE,N,N,,,38.369015,-108.747527,06/10/86
8,CO,VASQUEZ BOULEVARD AND I-70,801646,,CO0002259588,VASQUEZ BOULEVARD AND 1-70,DENVER,80216,DENVER,N,N,,,39.791667,-104.958333,07/22/99
8,MT,ACM SMELTER AND REFINERY,800402,,MTD093291599,"RIVER ROAD NORTH, 1 MILE E. OF 15TH ST",BLACK EAGLE,59414,CASCADE,N,N,,,47.52861,-111.24648,03/10/11
8,MT,ANACONDA ALUMINUM CO COLUMBIA FALLS REDUCTION PLANT,800392,,MTD057561763,EASTERN END OF ALUMINUM DRIVE,COLUMBIA FALLS,59912,FLATHEAD,N,Y,Confederated Salish and Kootenai Tribes of the Flathead Reservation (Current),,48.39166,-114.136514,09/09/16
8,MT,ANACONDA CO. SMELTER,800403,,MTD093291656,Southern Deer Lodge Valley and Surrounding Uplands,ANACONDA,59711,DEER LODGE,N,Y,Confederated Salish and Kootenai Tribes of the Flathead Reservation (Current),,46.116661,-112.915,09/08/83
8,MT,BARKER HUGHESVILLE MINING DISTRICT,801208,,MT6122307485,FOREST SERVICE ROAD 6403,MONARCH,59469,CASCADE,N,N,,,47.071683,-110.643788,09/13/01
8,MT,BASIN MINING AREA,801057,,MTD982572562,NORTH OF I-15,BASIN,59631,JEFFERSON,N,N,,,46.345479,-112.272079,10/22/99
8,MT,BILLINGS PCE,801303,,MTD986073252,3rd Street West and Miles Avenue,BILLINGS,59101,YELLOWSTONE,N,N,,,45.774118,-108.522926,09/09/21
8,MT,CARPENTER SNOW CREEK MINING DISTRICT,801507,,MT0001096353,NO SPECIFIC ADDRESS,NEIHART,59465,CASCADE,N,N,,,46.956312,-110.709797,09/13/01
8,MT,EAST HELENA SITE,800377,,MTD006230346,S OF EAST HELENA,EAST HELENA,59635,LEWIS AND CLARK,N,N,,,46.583866,-111.920692,09/21/84
8,MT,FLAT CREEK IMM,801914,,MT0012694970,FLAT CREEK ROAD AND HALL GULCH ROAD,SUPERIOR,59872,MINERAL,N,N,,,47.226375,-114.871355,09/23/09
8,MT,IDAHO POLE CO.,800379,,MTD006232276,CEDAR ST,BOZEMAN,59715,GALLATIN,N,N,,,45.688331,-111.0217,06/10/86
8,MT,LIBBY ASBESTOS SITE,801744,,MT0009083840,512 CALIFORNIA AVENUE,LIBBY,59923,LINCOLN,N,N,,,48.391528,-115.551111,10/24/02
8,MT,LIBBY GROUND WATER CONTAMINATION,800412,,MTD980502736,252 Port Blvd.,LIBBY,59923,LINCOLN,N,N,,,48.381158,-115.539627,09/08/83
8,MT,LOCKWOOD SOLVENT GROUND WATER PLUME,801709,,MT0007623052,LOCKWOOD ROAD,BILLINGS,59101,YELLOWSTONE,N,N,,,45.801471,-108.457075,12/01/00
8,MT,MILLTOWN RESERVOIR SEDIMENTS,800445,,MTD980717565,ADJACENT TO SE SIDE OF TWN,MILLTOWN,59851,MISSOULA,N,Y,Confederated Salish and Kootenai Tribes of the Flathead Reservation (Current),,46.86452,-113.883364,09/08/83
8,MT,MONTANA POLE AND TREATING,800378,,MTD006230635,202 W GREENWOOD AVENUE,BUTTE,59701,SILVER BOW,N,N,,,45.99134,-112.548242,07/22/87
8,MT,MOUAT INDUSTRIES,800384,,MTD021997689,ADJACENT TO AIR STRIP IN CY,COLUMBUS,59019,STILLWATER,N,N,,,45.633612,-109.245678,06/10/86
8,MT,SILVER BOW CREEK/BUTTE AREA,800416,,MTD980502777,BUTTE TO CLARK FORK RIVER HEADWATERS,BUTTE,59750,SILVER BOW,N,Y,Confederated Salish and Kootenai Tribes of the Flathead Reservation (Current),,46.002307,-112.61698,09/08/83
8,MT,UPPER TENMILE CREEK MINING AREA,801699,,MTSFN7578012,RIMINI ROAD,HELENA,59601,LEWIS AND CLARK,N,N,,,46.48091,-112.25399,10/22/99
8,SD,ELLSWORTH AIR FORCE BASE,800585,,SD2571924644,"28 BW/PA, 1958 Scott Drive",ELLSWORTH AFB,57706,PENNINGTON,Y,N,,,44.151681,-103.093332,08/30/90
8,SD,GILT EDGE MINE,801668,,SDD987673985,"4 MILES SE OF TOWN SEC-5, 6, 7, 8 & 9 T-4N, R-4E",LEAD,57754,LAWRENCE,N,Y,"Cheyenne River Sioux Tribe of the Cheyenne River Reservation, South Dakota (Current)",,44.332324,-103.668728,12/01/00
8,UT,700 SOUTH 1600 EAST PCE PLUME,800743,,UTD981548985,INTERSECTION OF 700 SOUTH & 1600 EAST,SALT LAKE CITY,84102,SALT LAKE,Y,N,,,40.753944,-111.848034,05/24/13
8,UT,BOUNTIFUL/WOODS CROSS 5TH S. PCE PLUME,801528,,UT0001119296,"500 SOUTH 800 WEST, BOUNTIFUL/WOODS CROS",BOUNTIFUL,84010,DAVIS,N,N,,,40.887689,-111.904342,09/13/01
8,UT,FIVE POINTS PCE PLUME,802654,,UTN000802654,APPROX. 1500 SOUTH & STATE HIGHWAY 106,WOODS CROSS/BOUNTIFUL,84010,DAVIS,N,N,,,40.874243,-111.885892,09/19/07
8,UT,HILL AIR FORCE BASE,800753,,UT0571724350,00-ALC/EM,HILL AFB,84056,,Y,N,,,41.128547,-111.990643,07/22/87
8,UT,JACOBS SMELTER,801674,,UT0002391472,NEAR INTERSECTION OF SMITH & JOHNSON STS,STOCKTON,84071,TOOELE,N,N,,,40.422185,-112.385736,02/04/00
8,UT,MONTICELLO MILL TAILINGS (USDOE),800867,,UT3890090035,"T335,R23E,S31-T335,R24E,S36",MONTICELLO,84535,SAN JUAN,Y,N,,,37.863079,-109.33324,11/21/89
8,UT,OGDEN DEFENSE DEPOT (DLA),800760,,UT9210020922,500 WEST 1200 SOUTH,OGDEN,84407,WEBER,Y,N,,,41.259092,-111.999567,07/22/87
8,UT,PORTLAND CEMENT (KILN DUST 2 & 3),800690,,UTD980718670,1000 SO. REDWOOD ROAD,SALT LAKE CITY,84116,SALT LAKE,N,N,,,40.747464,-111.943991,06/10/86
8,UT,TOOELE ARMY DEPOT (NORTH AREA),800755,,UT3213820894,3 MI S OF TOOELE ON HWY 36,TOOELE,84074,TOOELE,Y,N,,,40.526461,-112.410368,08/30/90
8,UT,US MAGNESIUM,802704,,UTN000802704,15 MILES N OF ROWLEY EXIT ON I-80,TOOELE COUNTY,84029,TOOELE,N,N,,,40.915581,-112.734253,11/04/09
8,UT,UTAH POWER & LIGHT/AMERICAN BARREL CO.,800680,,UTD980667240,600 W SOUTH TEMPLE,SALT LAKE CITY,84104,SALT LAKE,N,N,,,40.770342,-111.90658,10/04/89
8,UT,WASATCH CHEMICAL CO. (LOT 6),800596,,UTD000716399,1979 S 7TH W,SALT LAKE CITY,84104,SALT LAKE,N,N,,,40.729002,-111.909924,02/11/91
8,WY,F.E. WARREN AIR FORCE BASE,800017,,WY5571924179,I-25 AND RANDALL AVE. 90TH SUPPORT GROUP/DEV BLD 320,CHEYENNE,82005,LARAMIE,Y,N,,,41.152742,-104.862334,02/21/90
9,AZ,APACHE POWDER CO.,900510,,AZD008399263,1436 S APACHE POWDER RD,SAINT DAVID,85630,COCHISE,N,N,,,31.88,-110.24,08/30/90
9,AZ,HASSAYAMPA LANDFILL,900677,,AZD980735666,32450 West Salome Highway,ARLINGTON,85322,MARICOPA,N,N,,,33.368331,-112.7483,07/22/87
9,AZ,INDIAN BEND WASH AREA,900673,,AZD980695969,MCDOWELL RD & HAYDEN,SCOTTSDALE,85253,MARICOPA,N,N,,,33.466669,-111.9083,09/08/83
9,AZ,IRON KING MINE - HUMBOLDT SMELTER,905049,,AZ0000309013,"PARTS OF SECS 15,16&22, TWP 13N, RNG 1E",Dewey-Humboldt,86327,YAVAPAI,N,N,,,34.5,-112.25,09/03/08
9,AZ,LUKACHUKAI MOUNTAINS MINING DISTRICT,920223,,NNN000920223,End of Indian Route 33,COVE,86544,APACHE,N,Y,"Navajo Nation, Arizona, New Mexico, & Utah (Current)",,36.558867,-109.217117,03/07/24
9,AZ,"MOTOROLA, INC. (52ND STREET PLANT)",900517,,AZD009004177,5005 E MCDOWELL RD,PHOENIX,85008,MARICOPA,N,N,,,33.461669,-111.9708,10/04/89
9,AZ,PHOENIX-GOODYEAR AIRPORT AREA,900672,,AZD980695902,BETWEEN LWR BUCKEYE ROAD & VAN BUREN,GOODYEAR,85338,MARICOPA,N,N,,,33.429719,-112.3653,09/08/83
9,AZ,TUCSON INTERNATIONAL AIRPORT AREA,900684,,AZD980737530,NOGALES HWY,TUCSON,85734,PIMA,N,Y,Tohono O'odham Nation of Arizona (Current),,32.105561,-110.9333,09/08/83
9,AZ,WILLIAMS AIR FORCE BASE,900890,,AZ7570028582,WILLIAMS AFB 6001 SOUTH POWER ROAD,CHANDLER,85224,MARICOPA,Y,N,,,33.30695,-111.6519,11/21/89
9,AZ,YUMA MARINE CORPS AIR STATION,900885,,AZ0971590062,AVENUE 3E,YUMA,85369,YUMA,Y,N,,,32.654581,-114.5888,02/21/90
9,CA,"ADVANCED MICRO DEVICES, INC.",901389,,CAD048634059,901 THOMPSON PL,SUNNYVALE,94086,SANTA CLARA,N,N,,,37.3825,-122.0086,06/10/86
9,CA,"ADVANCED MICRO DEVICES, INC. (BUILDING 915)",902708,,CAT080034234,915 DEGUIGNE,SUNNYVALE,94086,SANTA CLARA,N,N,,,37.3868,-122.0066,08/30/90
9,CA,AEROJET GENERAL CORP.,901718,,CAD980358832,HWY US 50 & AEROJET RD,RANCHO CORDOVA,95670,SACRAMENTO,N,N,,,38.608331,-121.2,09/08/83
9,CA,AFTERTHOUGHT MINE,908808,,CAN000908808,"HIGHWAY 299, SHASTA COUNTY",BELLA VISTA,96008,SHASTA,N,N,,,40.734547,-122.072396,09/05/24
9,CA,ALAMEDA NAVAL AIR STATION,902731,,CA2170023236,W END CITY OF ALAMEDA,ALAMEDA,94501,ALAMEDA,Y,N,,,37.788889,-122.33,07/22/99
9,CA,ALARK HARD CHROME,901694,,CAD098229214,2777 MAIN STREET,RIVERSIDE,92501,RIVERSIDE,N,N,,,33.991886,-117.367186,12/01/00
9,CA,AMCO CHEMICAL,905334,,CA0001576081,1414 THIRD STREET,OAKLAND,94607,ALAMEDA,N,N,,,37.8025,-122.29375,09/29/03
9,CA,APPLIED MATERIALS,901344,,CAD042728840,3050 BOWERS AVE,SANTA CLARA,95051,SANTA CLARA,N,N,,,37.3777,-121.9777,07/22/87
9,CA,ARGONAUT MINE,904596,,CAD983650011,ARGONAUT LANE,JACKSON,95642,AMADOR,N,N,,,38.353333,-120.78575,09/09/16
9,CA,ATLAS ASBESTOS MINE,901736,,CAD980496863,LOS GATOS CREEK RD NW OF FRESNO,COALINGA,93210,FRESNO,N,N,,,36.321669,-120.5867,09/21/84
9,CA,BARSTOW MARINE CORPS LOGISTICS BASE,902790,,CA8170024261,MARINE CORPS LOGIS BASE- NEBO,BARSTOW,92311,SAN BERNARDINO,Y,N,,,34.878331,-116.9389,11/21/89
9,CA,BLUE LEDGE MINE,906063,,CAN000906063,"SECTIONS 34, TOWNSHIP 48 N, RANGE 11 W 3 MILES SOUTH OF OREGON ON ROAD 1060",ROGUE RIVER-SISKIYOU NF,96086,SISKIYOU,N,N,,,41.959961,-123.107442,09/16/11
9,CA,"BROWN & BRYANT, INC. (ARVIN PLANT)",901425,,CAD052384021,600 S DERBY RD,ARVIN,93203,KERN,N,N,,,35.203061,-118.822,10/04/89
9,CA,CAMP PENDLETON MARINE CORPS BASE,902732,,CA2170023533,CAMP PENDLETON MARINE BASE,CAMP PENDLETON,92055,SAN DIEGO,Y,N,,,33.306669,-117.3408,11/21/89
9,CA,CASMALIA RESOURCES,901257,,CAD020748125,3300 NTU ROAD,CASMALIA,93429,SANTA BARBARA,N,N,,,34.863125,-120.544303,09/13/01
9,CA,CASTLE AIR FORCE BASE (6 AREAS),902751,,CA3570024551,CASTLE AFB,MERCED,95342,MERCED,Y,N,,,37.367361,-120.5636,07/22/87
9,CA,COAST WOOD PRESERVING,901489,,CAD063015887,PLANT RD & TAYLOR DR,UKIAH,95482,MENDOCINO,N,N,,,39.1125,-123.193,09/08/83
9,CA,CONCORD NAVAL WEAPONS STATION,902778,,CA7170024528,PORT CHICAGO HWY,CONCORD,94520,CONTRA COSTA,Y,N,,,38.049444,-122,12/16/94
9,CA,COOPER DRUM CO.,903253,,CAD055753370,9316 ATLANTIC AVE,SOUTH GATE,90280,LOS ANGELES,N,N,,,33.946972,-118.179694,06/14/01
9,CA,COPPER BLUFF MINE,901923,,CAD980638225,"OFF HIGHWAY 96, APPROXIMATELY 0.9 MILE NORTH OF MILL CREEK ROAD",HOOPA,95546,HUMBOLDT,N,Y,"Hoopa Valley Tribe, California (Current)",,41.109972,-123.686,05/15/19
9,CA,CRAZY HORSE SANITARY LANDFILL,901744,,CAD980498455,350 CRAZY HORSE CANYON ROAD,SALINAS,93907,MONTEREY,N,N,,,36.8026,-121.6186,08/30/90
9,CA,"CTS PRINTEX, INC.",901206,,CAD009212838,PLYMOUTH & COLONY STS,MOUNTAIN VIEW,94043,SANTA CLARA,N,N,,,37.4165,-122.0872,02/21/90
9,CA,DEL AMO,901293,,CAD029544731,DEL AMO BLVD AND VERMONT AVE,LOS ANGELES,90502,LOS ANGELES,N,N,,,33.846639,-118.289472,09/05/02
9,CA,EDWARDS AIR FORCE BASE,902725,,CA1570024504,"AFFTC EDWARDS AFB 5 EAST POPSON AVE, BLDG 2650A",EDWARDS AFB,93524,KERN,Y,N,,,34.949439,-117.8857,08/30/90
9,CA,EL TORO MARINE CORPS AIR STATION,902770,,CA6170023208,EL TORO MARINE CORPS AIR STA EL TORO M C A S,EL TORO,92709,ORANGE,Y,N,,,33.676669,-117.7176,02/21/90
9,CA,FAIRCHILD SEMICONDUCTOR CORP. (MOUNTAIN VIEW PLANT),901680,,CAD095989778,"369, 515 N Whisman, 313 Fairchild & 401 National",MOUNTAIN VIEW,94043,SANTA CLARA,N,N,,,37.4012,-122.0542,02/11/91
9,CA,FAIRCHILD SEMICONDUCTOR CORP. (SOUTH SAN JOSE PLANT),901685,,CAD097012298,101 BERNAL ROAD,SAN JOSE,95119,SANTA CLARA,N,N,,,37.2326,-121.7748,10/04/89
9,CA,FORT ORD,902783,,CA7210020676,FORMER ARMY BASE FORT ORD,MARINA,93933,MONTEREY,Y,N,,,36.625,-121.75,02/21/90
9,CA,FRESNO MUNICIPAL SANITARY LANDFILL,901854,,CAD980636914,SW COR OF JENSEN & W AVE,FRESNO,93706,FRESNO,N,N,,,36.704169,-119.8261,10/04/89
9,CA,FRONTIER FERTILIZER,901554,,CAD071530380,COUNTY ROAD 32A,DAVIS,95618,YOLO,N,N,,,38.552588,-121.703615,05/31/94
9,CA,GEORGE AIR FORCE BASE,902737,,CA2570024453,AIR BASE RD- NR ST RTE 395,VICTORVILLE,92392,SAN BERNARDINO,Y,N,,,34.595,-117.3833,02/21/90
9,CA,HALACO ENGINEERING COMPANY,901242,,CAD009688052,6200 PERKINS,OXNARD,93033,VENTURA,N,N,,,34.138889,-119.181944,09/19/07
9,CA,HEWLETT-PACKARD (620-640 PAGE MILL ROAD),902134,,CAD980884209,620 - 640 PAGE MILL RD.,PALO ALTO,94304,SANTA CLARA,N,N,,,37.4214,-122.1434,02/21/90
9,CA,HUNTERS POINT NAVAL SHIPYARD,902722,,CA1170090087,HUNTERS POINT NAVAL SHIPYARD,SAN FRANCISCO,94124,SAN FRANCISCO,Y,N,,,37.72229,-122.36732,11/21/89
9,CA,INDUSTRIAL WASTE PROCESSING,902025,,CAD980736284,7140 N HARRISON,FRESNO,93650,FRESNO,N,N,,,36.8425,-119.8094,08/30/90
9,CA,INTEL CORP. (MOUNTAIN VIEW PLANT),901482,,CAD061620217,365 E MIDDLEFIELD RD,MOUNTAIN VIEW,94043,SANTA CLARA,N,N,,,37.3962,-122.0566,06/10/86
9,CA,INTEL MAGNETICS,901661,,CAD092212497,3000 OAKMEAD VILLAGE DR,SANTA CLARA,95051,SANTA CLARA,N,N,,,37.3756,-121.9801,06/10/86
9,CA,INTERSIL INC./SIEMENS COMPONENTS,901325,,CAD041472341,10900 N TANTAU AVE/19000 HOMESTEAD RD,CUPERTINO,95014,SANTA CLARA,N,N,,,37.3361,-122.0015,08/30/90
9,CA,IRON MOUNTAIN MINE,901755,,CAD980498612,OFF HWY 299 9 MI NW OF,REDDING,96001,SHASTA,N,Y,"Yocha Dehe Wintun Nation, California (Current)",,40.671669,-122.5278,09/08/83
9,CA,J.H. BAXTER & CO.,900917,,CAD000625731,422 MILL ST,WEED,96094,SISKIYOU,N,N,,,41.4364,-122.3707,10/04/89
9,CA,JERVIS B. WEBB CO.,904837,,CAD008339467,9301 RAYO AVE AND 5030 FIRESTONE BLVD,SOUTH GATE,90280,LOS ANGELES,N,N,,,33.950325,-118.178017,05/10/12
9,CA,JET PROPULSION LABORATORY (NASA),903438,,CA9800013030,4800 OAK GROVE DR,PASADENA,91109,LOS ANGELES,Y,N,,,34.201185,-118.167434,10/14/92
9,CA,KLAU/BUENA VISTA MINE,903986,,CA1141190578,344 KLAU MINE RD.,PASO ROBLES,93446,SAN LUIS OBISPO,N,N,,,35.6259,-120.8967,04/19/06
9,CA,"KOPPERS CO., INC. (OROVILLE PLANT)",901135,,CAD009112087,BAGGETT-MARYSVILLE RD,OROVILLE,95965,BUTTE,N,N,,,39.470831,-121.5643,09/21/84
9,CA,LABORATORY FOR ENERGY-RELATED HEALTH RESEARCH/OLD CAMPUS LANDFILL (USDOE),904786,,CA2890190000,OLD DAVIS RD,DAVIS,95616,SOLANO,Y,N,,,38.51875,-121.75125,05/31/94
9,CA,LAVA CAP MINE,904343,,CAD983618893,14501 LAVA CAP MINE ROAD,NEVADA CITY,95959,NEVADA,N,N,,,39.228056,-120.969861,01/19/99
9,CA,LAWRENCE LIVERMORE NATL LAB (SITE 300) (USDOE),902742,,CA2890090002,CORRAL HOLLOW ROAD,TRACY,95376,SAN JOAQUIN,Y,N,,,37.644306,-121.576667,08/30/90
9,CA,"LAWRENCE LIVERMORE NATL LAB, MAIN SITE (USDOE)",902740,,CA2890012584,7000 EAST AVE,LIVERMORE,94550,ALAMEDA,Y,N,,,37.688061,-121.7047,07/22/87
9,CA,LEVIATHAN MINE,901943,,CAD980673685,LEVIATHAN MINE,MARKLEEVILLE,96120,ALPINE,N,Y,"Washoe Tribe of Nevada & California (Carson Colony, Dresslerville Colony, Woodfords Community, Stewart Community, & Washoe Ranches) (Current)",,38.703889,-119.656111,05/11/00
9,CA,LORENTZ BARREL & DRUM CO.,901287,,CAD029295706,1515 S 10TH ST,SAN JOSE,95112,SANTA CLARA,N,N,,,37.318611,-121.8644,10/04/89
9,CA,MARCH AIR FORCE BASE,902761,,CA4570024527,22 CSG/CC,RIVERSIDE,92518,RIVERSIDE,Y,N,,,33.906389,-117.2557,11/21/89
9,CA,MATHER AIR FORCE BASE (AC&W DISPOSAL SITE),902793,,CA8570024143,MATHER AIR FORCE BASE,MATHER,95655,SACRAMENTO,Y,N,,,38.55695,-121.2972,07/22/87
9,CA,MCCLELLAN AIR FORCE BASE (GROUND WATER CONTAMINATION),902759,,CA4570024337,APPROX 5200 WATT AVE,MCCLELLAN AFB,95652,SACRAMENTO,Y,N,,,38.66,-121.3994,07/22/87
9,CA,MCCOLL,901757,,CAD980498695,ROSECRANS & SUNNY RIDGE,FULLERTON,92833,ORANGE,N,N,,,33.8953,-117.9712,09/08/83
9,CA,MCCORMICK & BAXTER CREOSOTING CO.,901129,,CAD009106527,1214 W WASHINGTON ST,STOCKTON,95203,SAN JOAQUIN,N,N,,,37.947851,-121.306635,10/14/92
9,CA,MODESTO GROUND WATER CONTAMINATION,902527,,CAD981997752,941 MCHENRY AVENUE,MODESTO,95351,STANISLAUS,N,N,,,37.6591,-120.9964,03/31/89
9,CA,MOFFETT FIELD NAVAL AIR STATION,902734,,CA2170090078,MOFFETT FIELD NAS,MOFFETT FIELD,94035,SANTA CLARA,Y,N,,,37.411389,-122.0522,07/22/87
9,CA,MONOLITHIC MEMORIES,901398,,CAD049236201,1165 E ARQUES AVE,SUNNYVALE,94086,SANTA CLARA,N,N,,,37.3816,-121.9968,07/22/87
9,CA,MONTROSE CHEMICAL CORP.,900993,,CAD008242711,20201 S NORMANDIE AVE,TORRANCE,90502,LOS ANGELES,N,N,,,33.848331,-118.2983,10/04/89
9,CA,NATIONAL SEMICONDUCTOR CORP.,901326,,CAD041472986,2900 SEMICONDUCTOR AVE,SANTA CLARA,95050,SANTA CLARA,N,N,,,37.375281,-121.9989,07/22/87
9,CA,NEW IDRIA MERCURY MINE,905346,,CA0001900463,"TOWNSHIP: 17S, RANGE: 12E",IDRIA,95043,SAN BENITO,N,N,,,36.418392,-120.672511,09/16/11
9,CA,NEWMARK GROUND WATER CONTAMINATION,902439,,CAD981434517,BUNKER HILL GROUND WATER BASIN,SAN BERNARDINO,92408,SAN BERNARDINO,N,N,,,34.171811,-117.3131,03/31/89
9,CA,NORTON AIR FORCE BASE (LNDFLL #2),902760,,CA4570024345,I-10/US 395 FORMER NORTON AFB,SAN BERNARDINO,92408,SAN BERNARDINO,Y,N,,,34.098061,-117.2372,07/22/87
9,CA,OMEGA CHEMICAL CORPORATION,903349,,CAD042245001,12504 AND 12512 E. WHITTIER BOULEVARD,WHITTIER,90602,LOS ANGELES,N,N,,,33.969722,-118.042222,01/19/99
9,CA,"OPERATING INDUSTRIES, INC., LANDFILL",902673,,CAT080012024,900 N POTRERO GRANDE DR,MONTEREY PARK,91754,LOS ANGELES,N,N,,,34.033333,-118.105556,06/10/86
9,CA,ORANGE COUNTY NORTH BASIN,900251,,CAN000900251,1012 EAST ELM AVENUE,ORANGE COUNTY,92831,ORANGE,N,N,,,33.854828,-117.930589,09/03/20
9,CA,PACIFIC COAST PIPELINE,901841,,CAD980636781,67 E TELEGRAPH RD,FILLMORE,93015,VENTURA,N,N,,,34.404169,-118.9028,10/04/89
9,CA,PEMACO MAYWOOD,904950,,CAD980737092,5050 SLAUSON BOULEVARD,MAYWOOD,90270,LOS ANGELES,N,N,,,33.985417,-118.17125,01/19/99
9,CA,"PURITY OIL SALES, INC.",902019,,CAD980736151,3265 S MAPLE AVE,MALAGA,93725,FRESNO,N,N,,,36.6874,-119.7467,09/08/83
9,CA,RAYTHEON CORP.,901202,,CAD009205097,350 ELLIS ST,MOUNTAIN VIEW,94043,SANTA CLARA,N,N,,,37.3975,-122.0533,06/10/86
9,CA,RIVERBANK ARMY AMMUNITION PLANT,902785,,CA7210020759,5300 CLAUS RD,RIVERBANK,95367,STANISLAUS,Y,N,,,37.71695,-120.9181,02/21/90
9,CA,"ROCKETS, FIREWORKS, AND FLARES SITE",905945,,CAN000905945,3196 NORTH LOCUST AVENUE,RIALTO,92377,SAN BERNARDINO,N,N,,,34.153683,-117.416567,09/23/09
9,CA,SACRAMENTO ARMY DEPOT,902715,,CA0210020780,8350 FRUITRIDGE RD,SACRAMENTO,95813,SACRAMENTO,Y,N,,,38.520281,-121.3958,07/22/87
9,CA,SAN FERNANDO VALLEY (AREA 1),902251,,CAD980894893,NORTH HOLLYWOOD WELLFIELD AREA,NORTH HOLLYWOOD,91601,LOS ANGELES,N,N,,,34.19,-118.3514,06/10/86
9,CA,SAN FERNANDO VALLEY (AREA 2),902252,,CAD980894901,CRYSTAL SPRINGS WELLFIELD AREA,GLENDALE,91209,LOS ANGELES,N,N,,,34.163139,-118.286,06/10/86
9,CA,SAN FERNANDO VALLEY (AREA 4),902253,,CAD980894976,The San Fernando Valley Groundwater Basin south of Los Feliz Ave to approximately Highway 110,LOS ANGELES,90086,LOS ANGELES,N,N,,,34.112081,-118.2539,06/10/86
9,CA,SAN GABRIEL VALLEY (AREA 1),901951,,CAD980677355,PECK RD & REAL,EL MONTE,91733,LOS ANGELES,N,N,,,34.125,-118,05/08/84
9,CA,SAN GABRIEL VALLEY (AREA 2),902092,,CAD980818512,SUNSET & SAN BERNARDINO FREEWAY,BALDWIN PARK,91706,LOS ANGELES,N,N,,,34.073611,-117.9361,05/08/84
9,CA,SAN GABRIEL VALLEY (AREA 3),902093,,CAD980818579,MAIN ST & GAFIELD AVE,ALHAMBRA,91801,LOS ANGELES,N,N,,,34.1,-118.125,05/08/84
9,CA,SAN GABRIEL VALLEY (AREA 4),902091,,CAD980817985,STIMSON AVE & OLD VALLEY BLVD,LA PUENTE,91744,LOS ANGELES,N,N,,,34.016669,-117.9583,05/08/84
9,CA,SELMA PRESSURE TREATING COMPANY,901290,,CAD029452141,1735 DOCKERY AVE & ADJOINING,SELMA,93662,FRESNO,N,N,,,36.556669,-119.6017,09/08/83
9,CA,SHARPE ARMY DEPOT,902792,,CA8210020832,700 EAST ROTH RD,LATHROP,95330,SAN JOAQUIN,Y,N,,,37.829169,-121.2672,07/22/87
9,CA,SOUTH BAY ASBESTOS AREA,902250,,CAD980894885,FT OF LIBERTY ST GUADALUPE RIV,ALVISO,95002,SANTA CLARA,N,N,,,37.429861,-121.9811,06/10/86
9,CA,SOUTHERN AVENUE INDUSTRIAL AREA,905902,,CAN000905902,5211 SOUTHERN AVENUE,SOUTH GATE,90280,LOS ANGELES,N,N,,,33.946178,-118.176922,05/10/12
9,CA,"SPECTRA-PHYSICS, INC.",900252,,CAD009138488,1250 W MIDDLEFIELD RD,MOUNTAIN VIEW,94042,SANTA CLARA,N,N,,,37.40805,-122.0786,02/11/91
9,CA,STRINGFELLOW,902680,,CAT080012826,3490 PYRITE ST,JURUPA VALLEY,91752,RIVERSIDE,N,N,,,34.023056,-117.45833,09/08/83
9,CA,SULPHUR BANK MERCURY MINE,902228,,CAD980893275,SULPHUR BANK ROAD,CLEARLAKE OAKS,95422,LAKE,N,Y,"Big Valley Band of Pomo Indians of the Big Valley Rancheria, California (Current); Elem Indian Colony of Pomo Indians of the Sulphur Bank Rancheria, California (Current); Habematolel Pomo of Upper Lake, California (Current)",,39.00555,-122.6703,08/30/90
9,CA,"SYNERTEK, INC. (BUILDING 1)",902620,,CAD990832735,3050 CORONADO BLVD,SANTA CLARA,95051,SANTA CLARA,N,N,,,37.3773,-121.9719,10/04/89
9,CA,TELEDYNE SEMICONDUCTOR,901134,,CAD009111444,1300 TERRA BELLA AVE,MOUNTAIN VIEW,94043,SANTA CLARA,N,N,,,37.4108,-122.0797,07/22/87
9,CA,TRACY DEFENSE DEPOT (USARMY),902762,,CA4971520834,CHRISMAN RD,TRACY,95376,SAN JOAQUIN,Y,N,,,37.715281,-121.3911,08/30/90
9,CA,TRAVIS AIR FORCE BASE,902767,,CA5570024575,TRAVIS AFB,TRAVIS AFB,94535,SOLANO,Y,N,,,38.26445,-121.9332,11/21/89
9,CA,"TRW MICROWAVE, INC (BUILDING 825)",901181,,CAD009159088,825 STEWART DR,SUNNYVALE,94086,SANTA CLARA,N,N,,,37.3846,-122.0085,02/21/90
9,CA,UNITED HECKATHORN CO.,902440,,CAD981436363,8TH & WRIGHT,RICHMOND,94804,CONTRA COSTA,N,N,,,37.9226,-122.3654,03/14/90
9,CA,"VALLEY WOOD PRESERVING, INC.",901490,,CAD063020143,2237 S GOLDEN STATE BLVD,TURLOCK,95380,STANISLAUS,N,N,,,37.4727,-120.8239,03/31/89
9,CA,"WASTE DISPOSAL, INC.",902140,,CAD980884357,12731 E LOS NIETOS RD,SANTA FE SPRINGS,90670,LOS ANGELES,N,N,,,33.95,-118.055,07/22/87
9,CA,WATKINS-JOHNSON CO. (STEWART DIVISION PLANT),902226,,CAD980893234,440 KINGS VILLAGE RD,SCOTTS VALLEY,95066,SANTA CRUZ,N,N,,,37.051111,-122.029028,08/30/90
9,CA,WESTINGHOUSE ELECTRIC CORP. (SUNNYVALE PLANT),900956,,CAD001864081,401 HENDY AVENUE,SUNNYVALE,95117,SANTA CLARA,N,N,,,37.3787,-122.0225,06/10/86
9,GU,ANDERSEN AIR FORCE BASE,902825,,GU6571999519,PERIMETER RD,YIGO,96929,GUAM,Y,N,,,13.572916,144.897361,10/14/92
9,GU,ORDOT LANDFILL,902814,,GUD980637649,SAN CARLOS STREET ORDOT,AGANA,96910,GUAM,N,N,,,13.439169,144.7474,09/08/83
9,HI,DEL MONTE CORP. (OAHU PLANTATION),902876,,HID980637631,94-1000 KUNIA RD,KUNIA,96759,HONOLULU,N,N,,,21.458333,-158.066667,12/16/94
9,HI,NAVAL COMPUTER AND TELECOMMUNICATIONS AREA MASTER STATION EASTERN PACIFIC,902904,,HI0170090054,500 CENTER STREET,WAHIAWA,96786,HONOLULU,Y,N,,,21.519027,-158.005138,05/31/94
9,HI,PEARL HARBOR NAVAL COMPLEX,904481,,HI4170090076,US NAVAL COMMAND,PEARL HARBOR,96860,HONOLULU,Y,N,,,21.388889,-157.983333,10/14/92
9,NV,CARSON RIVER MERCURY SITE,903020,,NVD980813646,"River from Mexican Dam to terminal wetlands Gold, SixMile Canyons and Washoe Lake",DAYTON,89401,LYON,N,Y,"Paiute-Shoshone Tribe of the Fallon Reservation and Colony, Nevada (Current); Washoe Tribe of Nevada & California (Carson Colony, Dresslerville Colony, Woodfords Community, Stewart Community, & Washoe Ranches) (Current)",,39.23195,-119.5892,08/30/90
10,AK,ADAK NAVAL AIR STATION,1000128,,AK4170024323,ADAK IS,ADAK,99546,,Y,N,,,51.8775,-176.6525,05/31/94
10,AK,EIELSON AIR FORCE BASE,1000110,,AK1570028646,HIGHWAY 2 - 16 MI SE OF FAIRBANKS,FAIRBANKS,99702,FAIRBANKS NORTH STAR,Y,N,,,64.67145,-147.0492,11/21/89
10,AK,ELMENDORF AIR FORCE BASE,1000155,,AK8570028649,N BOUNDRY OF CITY LIMITS,ANCHORAGE,99506,,Y,Y,Chickaloon Native Village (Current); Eklutna Native Village (Current); Knik Tribe (Current),,61.254169,-149.7917,08/30/90
10,AK,FORT RICHARDSON (USARMY),1001455,,AK6214522157,Postal Address is unavailable for the Site,ANCHORAGE,99505,,Y,Y,Nenana Native Association (Current),,61.258333,-149.7,05/31/94
10,AK,FORT WAINWRIGHT,1001146,,AK6210022426,"RICHARDSON HWY, SE OF CY",FORT WAINWRIGHT,99703,,Y,Y,Chilkat Indian Village (Klukwan) (Current); Chilkoot Indian Association (Haines) (Current); Healy Lake Village (Current); Native Village of Minto (Current); Native Village of Tanacross (Current); Native Village of Tetlin (Current); Nenana Native Association (Current); Northway Village (Current); Village of Dot Lake (Current); Wrangell Cooperative Association (Current),,64.823,-147.6106,08/30/90
10,AK,SALT CHUCK MINE,1001984,,AK0001897602,"4 MI SW CY, T72S R84E S17, COPPER RIVER MERIDIAN, 3.5 AIR MI N OF KARTA BAY",THORNE BAY,99919,,N,Y,Organized Village of Kasaan (Current),,55.626442,-132.558853,03/04/10
10,ID,BUNKER HILL MINING & METALLURGICAL COMPLEX,1000195,,IDD048340921,SILVER VLY,SMELTERVILLE,83837,SHOSHONE,N,Y,Coeur D'Alene Tribe (Current); Spokane Tribe of the Spokane Reservation (Current),,47.543061,-116.1617,09/08/83
10,ID,EASTERN MICHAUD FLATS CONTAMINATION,1001308,,IDD984666610,"HWY 30, 3 MI W OF CITY",POCATELLO,83201,,N,Y,Shoshone-Bannock Tribes of the Fort Hall Reservation (Current),,42.901111,-112.5225,08/30/90
10,ID,IDAHO NATIONAL ENGINEERING LABORATORY (USDOE),1000305,,ID4890008952,AEC TESTING RESERVATION US HWY 20/26 40 MI W OF IDAHO FALLS,IDAHO FALLS,83401,,Y,Y,Shoshone-Bannock Tribes of the Fort Hall Reservation (Current),,43.529389,-112.9435,11/21/89
10,ID,KERR-MCGEE CHEMICAL CORP. (SODA SPRINGS PLANT),1000190,,IDD041310707,"HIGHWAY 34, 3 MILES N OF CY",SODA SPRINGS,83276,CARIBOU,N,N,,,42.687219,-111.5736,10/04/89
10,ID,MONSANTO CHEMICAL CO. (SODA SPRINGS PLANT),1000213,,IDD081830994,"HWY 34, 2 MI N OF CY",SODA SPRINGS,83276,CARIBOU,N,N,,,42.687031,-111.5878,08/30/90
10,ID,MOUNTAIN HOME AIR FORCE BASE,1000302,,ID3572124557,"HWY 67, 10 MI W OF CY",MOUNTAIN HOME,83648,ELMORE,Y,N,,,43.04805,-115.8647,08/30/90
10,OR,BLACK BUTTE MINE,1001865,,OR0000515759,LONDON ROAD,COTTAGE GROVE,97424,LANE,N,Y,Confederated Tribes of the Grand Ronde Community of Oregon (Current); Cow Creek Band of Umpqua Tribe of Indians (Current),,43.579516,-123.066808,03/04/10
10,OR,BRADFORD ISLAND,1002228,,ORSFN1002228,Star Route,CASCADE LOCKS,97014,MULTNOMAH,Y,Y,Confederated Tribes and Bands of the Yakama Nation (Current); Confederated Tribes of Siletz Indians of Oregon (Current); Confederated Tribes of the Grand Ronde Community of Oregon (Current); Confederated Tribes of the Umatilla Indian Reservation (Current); Confederated Tribes of the Warm Springs Reservation of Oregon (Current); Cowlitz Indian Tribe (Current); Nez Perce Tribe (Current),,45.642344,-121.935778,03/16/22
10,OR,FORMOSA MINE,1002616,,ORN001002616,"T31 S R6W SEC23, WILLAMETTE MERIDIAN",RIDDLE,97442,DOUGLAS,N,Y,"Confederated Tribes of the Coos, Lower Umpqua and Siuslaw Indians (Current); Confederated Tribes of the Grand Ronde Community of Oregon (Current); Coquille Indian Tribe (Current); Cow Creek Band of Umpqua Tribe of Indians (Current)",,42.854472,-123.382611,09/19/07
10,OR,FREMONT NATIONAL FOREST/WHITE KING AND LUCKY LASS URANIUM MINES (USDA),1001508,,OR7122307658,524 N G STREET,LAKEVIEW,97630,LAKE,Y,N,,,42.336111,-120.541667,04/25/95
10,OR,MCCORMICK & BAXTER CREOSOTING CO. (PORTLAND PLANT),1000339,,ORD009020603,6900 N EDGEWATER ROAD,PORTLAND,97203,MULTNOMAH,N,Y,Confederated Tribes and Bands of the Yakama Nation (Current); Confederated Tribes of the Grand Ronde Community of Oregon (Current); Confederated Tribes of the Umatilla Indian Reservation (Current); Confederated Tribes of the Warm Springs Reservation of Oregon (Current); Nez Perce Tribe (Current),,45.579443,-122.73944,05/31/94
10,OR,NORTH RIDGE ESTATES,1002476,,ORN001002476,OLD FORT ROAD AND NORTH RIDGE DRIVE,KLAMATH FALLS,97601,KLAMATH,N,Y,Klamath Tribes (Current),,42.2648,-121.7465,09/16/11
10,OR,NORTHWEST PIPE & CASING/HALL PROCESS COMPANY,1000527,,ORD980988307,SE MATHER RD AT SE INDUSTRIAL,CLACKAMAS,97015,CLACKAMAS,N,N,,,45.416333,-122.563889,10/14/92
10,OR,PORTLAND HARBOR,1002155,,ORSFN1002155,BETWEEN RM 1.9 AND 11.8 IN PORTLAND,PORTLAND,97231,MULTNOMAH,N,Y,Confederated Tribes and Bands of the Yakama Nation (Current); Confederated Tribes of Siletz Indians of Oregon (Current); Confederated Tribes of the Grand Ronde Community of Oregon (Current); Confederated Tribes of the Umatilla Indian Reservation (Current); Confederated Tribes of the Warm Springs Reservation of Oregon (Current); Nez Perce Tribe (Current),,45.615278,-122.793056,12/01/00
10,OR,REYNOLDS METALS COMPANY,1000383,,ORD009412677,5100 NE Sundial Rd.,TROUTDALE,97060,MULTNOMAH,N,N,,,45.5569,-122.399161,12/16/94
10,OR,TAYLOR LUMBER AND TREATING,1000361,,ORD009042532,22125 SOUTHWEST ROCK CREEK ROAD,SHERIDAN,97378,YAMHILL,N,Y,Confederated Tribes of the Grand Ronde Community of Oregon (Current),,45.097222,-123.426944,06/14/01
10,OR,TELEDYNE WAH CHANG,1000421,,ORD050955848,1600 OLD SALEM RD NE,ALBANY,97321,LINN,N,N,,,44.66,-123.0633,09/08/83
10,OR,UMATILLA ARMY DEPOT (LAGOONS),1000546,,OR6213820917,I-84 & EXIT 178,HERMISTON,97844,MORROW,Y,Y,Confederated Tribes of the Umatilla Indian Reservation (Current),,45.836111,-119.45,07/22/87
10,OR,UNION PACIFIC RAILROAD CO. TIE-TREATING PLANT,1000370,,ORD009049412,TIE PLANT RD-IN CITY LIMITS,THE DALLES,97058,WASCO,N,N,,,45.5986,-121.1651,08/30/90
10,OR,"UNITED CHROME PRODUCTS, INC.",1000362,,ORD009043001,2000 AIRPORT RD,CORVALLIS,97330,BENTON,N,N,,,44.5042,-123.2861,09/21/84
10,WA,AMERICAN LAKE GARDENS/MCCHORD AFB,1000995,,WAD980833065,555 BARNES BLVD. MCCHORD AIR FORCE BASE,TACOMA,98438,PIERCE,Y,Y,Puyallup Tribe of the Puyallup Reservation (Current),,47.125,-122.5267,09/21/84
10,WA,BANGOR NAVAL SUBMARINE BASE,1001121,,WA5170027291,"CLEAR CREEK ROAD, BLDG. 110",SILVERDALE,98315,KITSAP,Y,Y,Suquamish Indian Tribe of the Port Madison Reservation (Current),,47.699,-122.7131,08/30/90
10,WA,BANGOR ORDNANCE DISPOSAL (USNAVY),1001206,,WA7170027265,"CLEAR CREEK ROAD,BLDG 1100",BREMERTON,98315,KITSAP,Y,Y,Suquamish Indian Tribe of the Port Madison Reservation (Current),,47.764719,-122.7008,07/22/87
10,WA,BOOMSNUB/AIRCO,1000670,,WAD009624453,7608 NORTHEAST 47TH AVENUE,VANCOUVER,98661,CLARK,N,N,,,45.677222,-122.621667,04/25/95
10,WA,BREMERTON GASWORKS,1002907,,WAN001002907,1725 PENNSYLVANIA AVENUE,BREMERTON,98337,KITSAP,N,Y,Suquamish Indian Tribe of the Port Madison Reservation (Current),,47.578544,-122.642136,05/10/12
10,WA,CENTRALIA MUNICIPAL LANDFILL,1001030,,WAD980836662,1313 S TOWER,CENTRALIA,98531,LEWIS,N,Y,Confederated Tribes of the Chehalis Reservation (Current),,46.696669,-122.9633,08/30/90
10,WA,COLBERT LANDFILL,1000845,,WAD980514541,ELK-CHATTEROY RD,SPOKANE,99005,SPOKANE,N,N,,,47.861669,-117.3483,09/08/83
10,WA,"COMMENCEMENT BAY, NEAR SHORE/TIDE FLATS",1000981,,WAD980726368,ADJ TO RUSTON WAY & TIDEFLATS IND. AREA,TACOMA,98421,PIERCE,N,Y,Puyallup Tribe of the Puyallup Reservation (Current),,47.266667,-122.416667,09/08/83
10,WA,"COMMENCEMENT BAY, SOUTH TACOMA CHANNEL",1000979,,WAD980726301,SOUTH TACOMA CHANNEL OF COMMEN,TACOMA,98402,PIERCE,N,Y,Puyallup Tribe of the Puyallup Reservation (Current),,47.229439,-122.4714,09/08/83
10,WA,FAIRCHILD AIR FORCE BASE (4 WASTE AREAS),1001139,,WA9571924647,US HIGHWAY 2 W OF SPOKANE,SPOKANE,99011,SPOKANE,Y,Y,Spokane Tribe of the Spokane Reservation (Current),,47.628331,-117.6462,03/13/89
10,WA,FMC CORP. (YAKIMA),1000559,,WAD000643577,4 W WASHINGTON AV,YAKIMA,98903,YAKIMA,N,N,,,46.566669,-120.4933,09/08/83
10,WA,FORT LEWIS LOGISTICS CENTER,1001131,,WA7210090067,"T19N R2E SECS 21,22,26,27 11 MILES E OF OLYMPIA",TILLICUM,98433,PIERCE,Y,Y,Nisqually Indian Tribe (Current),,47.1142,-122.5365,11/21/89
10,WA,GENERAL ELECTRIC CO. (SPOKANE APPARATUS SERVICE SHOP),1000579,,WAD001865450,E 4323 MISSION AV,SPOKANE,99211,SPOKANE,N,Y,Kalispel Indian Community of the Kalispel Reservation (Current),,47.6729,-117.3441,10/04/89
10,WA,GRAIN HANDLING FACILITY AT FREEMAN,1003081,,WAN001003081,SOUTH 14603 HIGHWAY 27,FREEMAN,99030,SPOKANE,N,Y,Coeur D'Alene Tribe (Current),,47.519528,-117.194297,09/30/15
10,WA,GREENACRES LANDFILL,1000850,,WAD980514608,308 N Henry Rd,SPOKANE COUNTY,99019,SPOKANE,N,N,,,47.6627,-117.1169,09/21/84
10,WA,HAMILTON/LABREE ROADS GW CONTAMINATION,1002174,,WASFN1002174,HAMILTON & LABREE ROADS,CHEHALIS,98532,LEWIS,N,Y,Confederated Tribes of the Chehalis Reservation (Current); Cowlitz Indian Tribe (Current); Quinault Indian Nation (Current),,46.623472,-122.933056,07/27/00
10,WA,HANFORD 100-AREA (USDOE),1001114,,WA3890090076,100 AREA,BENTON COUNTY,99352,BENTON,Y,Y,Confederated Tribes and Bands of the Yakama Nation (Current); Confederated Tribes of the Umatilla Indian Reservation (Current); Nez Perce Tribe (Current),,46.7011,-119.4829,10/04/89
10,WA,HANFORD 200-AREA (USDOE),1001105,,WA1890090078,200 AREA,BENTON COUNTY,99352,BENTON,Y,Y,Confederated Tribes and Bands of the Yakama Nation (Current); Confederated Tribes of the Umatilla Indian Reservation (Current); Nez Perce Tribe (Current),,46.563331,-119.6049,10/04/89
10,WA,HANFORD 300-AREA (USDOE),1001111,,WA2890090077,300 AREA,BENTON COUNTY,99352,BENTON,Y,Y,Confederated Tribes and Bands of the Yakama Nation (Current); Confederated Tribes of the Umatilla Indian Reservation (Current); Nez Perce Tribe (Current),,46.3703,-119.2752,10/04/89
10,WA,HARBOR ISLAND (LEAD),1000949,,WAD980722839,MOUTH OF DUWAMISH RIVER,SEATTLE,98134,KING,N,Y,Muckleshoot Indian Tribe (Current); Suquamish Indian Tribe of the Port Madison Reservation (Current),,47.5794,-122.3522,09/08/83
10,WA,HIDDEN VALLEY LANDFILL (THUN FIELD),1000824,,WAD980511539,17925 MERIDIAN E,PIERCE COUNTY,98374,PIERCE,N,Y,Puyallup Tribe of the Puyallup Reservation (Current),,47.095,-122.2878,03/31/89
10,WA,JACKSON PARK HOUSING COMPLEX (USNAVY),1001113,,WA3170090044,Postal Address is unavailable for the Site,KITSAP COUNTY,98312,KITSAP,Y,Y,Suquamish Indian Tribe of the Port Madison Reservation (Current),,47.58861,-122.695972,05/31/94
10,WA,KAISER ALUMINUM (MEAD WORKS),1000551,,WAD000065508,2111 E Hawthorne Rd,MEAD,99021,SPOKANE,N,N,,,47.755,-117.3767,09/08/83
10,WA,LAKEWOOD,1000736,,WAD050075662,12511 Pacific Highway Southwest,LAKEWOOD,98438,PIERCE,N,N,,,47.14341,-122.51295,09/08/83
10,WA,LOCKHEED WEST SEATTLE,1002655,,WAN001002655,3443 W. MARGINAL WAY SHIPPING FACILITY AT TERMINAL 5,SEATTLE,98106,KING,N,Y,Muckleshoot Indian Tribe (Current); Suquamish Indian Tribe of the Port Madison Reservation (Current),,47.583889,-122.3625,03/07/07
10,WA,LOWER DUWAMISH WATERWAY,1002020,,WA0002329803,RK 2.5 TO RK 10.8,SEATTLE,98168,KING,N,Y,Muckleshoot Indian Tribe (Current); Suquamish Indian Tribe of the Port Madison Reservation (Current),,47.510081,-122.29285,09/13/01
10,WA,MAKAH RESERVATION WARMHOUSE BEACH DUMP,1002857,,WAN001002857,UNNAMED ROAD LEADING TO KOITLAH POINT,NEAH BAY,98357,CLALLAM,N,Y,Makah Indian Tribe of the Makah Indian Reservation (Current),,48.388353,-124.656711,12/12/13
10,WA,MICA LANDFILL,1000830,,WAD980511661,"T24N R44E S11,14",MICA,99023,SPOKANE,N,N,,,47.579169,-117.2111,06/10/86
10,WA,MIDNITE MINE,1001070,,WAD980978753,35 MILES NORTHWEST OF SPOKANE,WELLPINIT,99040,STEVENS,N,Y,Confederated Tribes of the Colville Reservation (Current); Spokane Tribe of the Spokane Reservation (Current),,47.9375,-118.094167,05/11/00
10,WA,MIDWAY LANDFILL,1000851,,WAD980638910,24800 PACIFIC HWY S.,KENT,98031,KING,N,Y,Muckleshoot Indian Tribe (Current),,47.38,-122.2933,06/10/86
10,WA,MOSES LAKE WELLFIELD CONTAMINATION,1001249,,WAD988466355,GRANT CO. AIRPORT,MOSES LAKE,98837,GRANT,N,N,,,47.204722,-119.315556,10/14/92
10,WA,"NAVAL AIR STATION, WHIDBEY ISLAND (AULT FIELD)",1001122,,WA5170090059,UNSPECIFIED,WHIDBEY ISLAND,98278,ISLAND,Y,Y,Swinomish Indian Tribal Community (Current),,48.344219,-122.6637,02/21/90
10,WA,NAVAL UNDERSEA WARFARE ENGINEERING STATION (4 WASTE AREAS),1001102,,WA1170023419,"HWY 308, E END",KEYPORT,98345,KITSAP,Y,Y,Suquamish Indian Tribe of the Port Madison Reservation (Current),,47.6946,-122.622,10/04/89
10,WA,NORTH MARKET STREET,1000557,,WAD000641548,E 3225 LINCOLN RD,SPOKANE,99207,SPOKANE,N,Y,Kalispel Indian Community of the Kalispel Reservation (Current),,47.7297,-117.3626,08/30/90
10,WA,OESER CO.,1000590,,WAD008957243,730 MARINE DRIVE,BELLINGHAM,98225,WHATCOM,N,Y,Lummi Tribe of the Lummi Reservation (Current),,48.770278,-122.514444,09/25/97
10,WA,OLD NAVY DUMP/MANCHESTER LABORATORY (USEPA/NOAA),1001134,,WA8680030931,7411 Beach Dr E,MANCHESTER,98352,KITSAP,Y,Y,Port Gamble S'Klallam Tribe (Current); Suquamish Indian Tribe of the Port Madison Reservation (Current),,47.574443,-122.548055,05/31/94
10,WA,PACIFIC CAR & FOUNDRY CO.,1000614,,WAD009249210,1400 N 4TH ST,RENTON,98055,KING,N,Y,Muckleshoot Indian Tribe (Current),,47.488889,-122.1964,02/21/90
10,WA,PACIFIC SOUND RESOURCES,1000611,,WAD009248287,2801 SW FLORIDA ST.,SEATTLE,98126,KING,N,Y,Muckleshoot Indian Tribe (Current),,47.582332,-122.366667,05/31/94
10,WA,PALERMO WELL FIELD GROUND WATER CONTAMINATION,1001761,,WA0000026534,PALERMO AVENUE & O STREET,TUMWATER,98501,THURSTON,N,Y,Nisqually Indian Tribe (Current),,47.001667,-122.904167,04/01/97
10,WA,PASCO SANITARY LANDFILL,1001098,,WAD991281874,KAHLOTUS RD & HWY 12,PASCO,99301,FRANKLIN,N,N,,,46.255281,-119.0478,02/21/90
10,WA,PUGET SOUND NAVAL SHIPYARD COMPLEX,1001107,,WA2170023418,Postal Address is unavailable for the Site,BREMERTON,98310,KITSAP,Y,Y,Suquamish Indian Tribe of the Port Madison Reservation (Current),,47.559166,-122.647222,05/31/94
10,WA,QUEEN CITY FARMS,1000835,,WAD980511745,S 1/2 SEC 28-MAPLE VALLEY QUAD,MAPLE VALLEY,98038,KING,N,Y,Muckleshoot Indian Tribe (Current),,47.45,-122.0417,09/21/84
10,WA,QUENDALL TERMINALS,1000875,,WAD980639215,4503 LK WASHINGTON BLVD N,RENTON,98055,KING,N,Y,Muckleshoot Indian Tribe (Current),,47.533333,-122.2,04/19/06
10,WA,SEATTLE MUNICIPAL LANDFILL (KENT HIGHLANDS),1000889,,WAD980639462,NE OF MILITARY RD AND KENT DES MOINES RD,KENT,98031,KING,N,Y,Muckleshoot Indian Tribe (Current),,47.391669,-122.2792,08/30/90
10,WA,UPPER COLUMBIA RIVER,1002171,,WASFN1002171,UPPER COLUMBIA RIVER,VARIOUS,99141,,N,Y,Confederated Tribes of the Colville Reservation (Current); Spokane Tribe of the Spokane Reservation (Current),,48.672045,-118.053241,12/13/24
10,WA,"WESTERN PROCESSING CO., INC.",1000662,,WAD009487513,7215 S 196TH ST,KENT,98031,KING,N,Y,Muckleshoot Indian Tribe (Current),,47.425,-122.2417,09/08/83
10,WA,WYCKOFF CO./EAGLE HARBOR,1000612,,WAD009248295,5350 CREOSOTE PL NE,BAINBRIDGE ISLAND,98110,KITSAP,N,Y,Suquamish Indian Tribe of the Port Madison Reservation (Current),,47.621669,-122.5167,07/22/87
Total: 1340,,,,,,,,,,,,,,,,